School Name,address,postal_code,fax_no,fax_no_2,email_address,mrt_desc,bus_desc,principal_name,first_vp_name,second_vp_name,third_vp_name,fourth_vp_name,fifth_vp_name,sixth_vp_name,dgp_code,zone_code,type_code,nature_code,session_code,mainlevel_code,sap_ind,autonomous_ind,gifted_ind,ip_ind,mothertongue1_code,mothertongue2_code,mothertongue3_code,Latitude,Longitude,Full Address
ADMIRALTY PRIMARY SCHOOL,11 WOODLANDS CIRCLE   ,738907,63627512,na,ADMIRALTY_PS@MOE.EDU.SG,Admiralty Station,"TIBS 965, 964, 913",MR CHEN ZHONGYI,MADAM CHUA MUI LING,MR HAMRI BIN A JALIL,na,na,na,na,WOODLANDS,NORTH,GOVERNMENT SCHOOL,CO-ED SCHOOL,FULL DAY,PRIMARY,No,No,No,No,CHINESE,MALAY,TAMIL,1.4426347903311,103.800040119743,11 WOODLANDS CIRCLE ADMIRALTY PRIMARY SCHOOL SINGAPORE 738907
ADMIRALTY SECONDARY SCHOOL,31 WOODLANDS CRESCENT   ,737916,63652774,na,Admiralty_SS@moe.edu.sg,ADMIRALTY MRT,904,MR TAN KELLY,MR CHAN YEW REN EUGENE,MR TAN HOCK CHUAN MICHAEL,na,na,na,na,WOODLANDS,NORTH,GOVERNMENT SCHOOL,CO-ED SCHOOL,SINGLE SESSION,SECONDARY (S1-S5),No,No,No,No,CHINESE,MALAY,TAMIL,1.44589068910993,103.802398196596,31 WOODLANDS CRESCENT ADMIRALTY SECONDARY SCHOOL SINGAPORE 737916
AHMAD IBRAHIM PRIMARY SCHOOL,10 YISHUN STREET 11   ,768643,67592927,na,AIPS@MOE.EDU.SG,Yishun,"Yishun Ring Road - 812 (white plate); Yishun Ave 2 - 169, 804, 965, 117, 883",MS BAEY EE-LYN,MADAM YEO SIAU YEN,MADAM ZHANG JUNLI,na,na,na,na,YISHUN,NORTH,GOVERNMENT SCHOOL,CO-ED SCHOOL,SINGLE SESSION,PRIMARY,No,No,No,No,CHINESE,MALAY,TAMIL,1.43315271543517,103.832942401086,10 YISHUN STREET 11 AHMAD IBRAHIM PRIMARY SCHOOL SINGAPORE 768643
AHMAD IBRAHIM SECONDARY SCHOOL,751 YISHUN AVENUE 7   ,768928,67557778,na,AISS@MOE.EDU.SG,"CANBERRA MRT, YISHUN MRT","117, 167, 169, 800, 811, 812, 883, 856, 858, 859, 965, 969, 980",MR GOH SOON HOE,MISS LEA SHU HUI,MR QUEK CHOON HSIONG,MISS LATIFAH BTE ABDUL LATIFF,na,na,na,YISHUN,NORTH,GOVERNMENT SCHOOL,CO-ED SCHOOL,SINGLE SESSION,SECONDARY (S1-S5),No,No,No,No,CHINESE,MALAY,TAMIL,1.43605975368804,103.829718690077,751 YISHUN AVENUE 7 AHMAD IBRAHIM SECONDARY SCHOOL SINGAPORE 768928
AI TONG SCHOOL,100 Bright Hill Drive   ,579646,64532726,na,AITONG_SCH@MOE.EDU.SG,Bishan MRT,"410, 162, 52",MR WONG JIA WANG,MR YAK BENG WEI,MR CHIU SHEK MAN PHILIP,MR KHOO THIAM HUAT,na,na,na,BISHAN,SOUTH,GOVERNMENT-AIDED SCH,CO-ED SCHOOL,SINGLE SESSION,PRIMARY,Yes,No,No,No,CHINESE,na,na,1.3605834338904,103.833020333986,100 BRIGHT HILL DRIVE AI TONG SCHOOL SINGAPORE 579646
ALEXANDRA PRIMARY SCHOOL,2A Prince Charles Crescent   ,159016,62485409,na,alexandra_ps@moe.edu.sg,Redhill Station; Tiong Bahru Station,"51, 122, 139, 186, 970.",MADAM TEO CHING LING,MADAM RAPS AZRINAH,MR LOH KAH HONG,na,na,na,na,BUKIT MERAH,SOUTH,GOVERNMENT SCHOOL,CO-ED SCHOOL,SINGLE SESSION,PRIMARY,No,No,No,No,CHINESE,MALAY,TAMIL,1.29133439161334,103.824424680531,2A PRINCE CHARLES CRESCENT ALEXANDRA PRIMARY SCHOOL SINGAPORE 159016
ANCHOR GREEN PRIMARY SCHOOL,31 Anchorvale Drive   ,544969,63159825,na,anchorgreen_ps@moe.edu.sg,MRT : NE16-Sengkang; LRT : SW7-TongKang,"Bus 372, 110, 50",MR CHEONG LIT SERN WESLEY,MDM MUMTAAS BINTE MOHAMED KASSIM,MADAM NEO LAY PIN,na,na,na,na,SENG KANG,NORTH,GOVERNMENT SCHOOL,CO-ED SCHOOL,SINGLE SESSION,PRIMARY,No,No,No,No,CHINESE,MALAY,TAMIL,1.39036998654612,103.887165375933,31 ANCHORVALE DRIVE ANCHOR GREEN PRIMARY SCHOOL SINGAPORE 544969
ANDERSON PRIMARY SCHOOL,19 ANG MO KIO AVE 9   ,569785,65522310,na,ANDERSON_PS@MOE.EDU.SG,Yio Chu Kang MRT Station (NS 15); Lentor MRT Station (TE5),"Ang Mo Kio Ave 9 - Bus 76, 265, 268",MS SHIRLEY LEOW,MR BOH CHEK KEOW,MADAM TAN AI CHOO,na,na,na,na,ANG MO KIO,NORTH,GOVERNMENT SCHOOL,CO-ED SCHOOL,SINGLE SESSION,PRIMARY,No,No,No,No,CHINESE,MALAY,TAMIL,1.38426429436736,103.841392081119,19 ANG MO KIO AVENUE 9 ANDERSON PRIMARY SCHOOL SINGAPORE 569785
ANDERSON SECONDARY SCHOOL,10 ANG MO KIO STREET 53   ,569206,64586104,na,ANDERSON_SS@MOE.EDU.SG,"ANG MO KIO MRT, YIO CHU KANG MRT","265, 45, 50, 72, 159",MISS TAN PO CHIN,MR JONAH LIM TUCK HWAY (LIN DAHUI),MR LEE CHUN YANG EUGENE,MR SHAHREEN BIN AMAN,na,na,na,ANG MO KIO,NORTH,GOVERNMENT SCHOOL,CO-ED SCHOOL,SINGLE SESSION,SECONDARY (S1-S5),No,Yes,No,No,CHINESE,MALAY,TAMIL,1.37434001701177,103.851554107068,10 ANG MO KIO STREET 53 ANDERSON SECONDARY SCHOOL SINGAPORE 569206
ANDERSON SERANGOON JUNIOR COLLEGE,1033 Upper Serangoon Road   ,534768,64598734,na,asrjc@moe.edu.sg,Kovan MRT Station,"25, 55, 62, 80, 81, 82, 101, 107, 107M, 112, 113, 115, 119, 132, 136, 153, 325, 854",MR HENG YEW SENG,MR GURUSHARAN SINGH S/O M SINGH,MADAM TEY LI SHUN,MR MOHAMAD AMRAN SHAH BIN ABDUL RAHIM,na,na,na,HOUGANG,NORTH,GOVERNMENT SCHOOL,CO-ED SCHOOL,FULL DAY,JUNIOR COLLEGE,No,No,No,No,CHINESE,MALAY,TAMIL,1.36504342002442,103.887038809373,1033 UPPER SERANGOON ROAD ANDERSON SERANGOON JUNIOR COLLEGE SINGAPORE 534768
ANG MO KIO PRIMARY SCHOOL,20 ANG MO KIO AVENUE 3   ,569920,64588121,na,AMKPS@MOE.EDU.SG,Ang Mo Kio MRT Station; Mayflower MRT Station,"76, 132, 165, 166, 169, 265, 268, 269",MR MUHAMMAD FARIZAL BIN UMAR EFFE,MADAM TAN SIEW KHIM (CHEN XIUQIN),MISS CHEN YANTING NATHALIE,MADAM LIEW KAH CHANG ALETHEA,na,na,na,ANG MO KIO,SOUTH,GOVERNMENT SCHOOL,CO-ED SCHOOL,SINGLE SESSION,PRIMARY,No,No,No,No,CHINESE,MALAY,TAMIL,1.36932176584608,103.839630858752,20 ANG MO KIO AVENUE 3 ANG MO KIO PRIMARY SCHOOL SINGAPORE 569920
ANG MO KIO SECONDARY SCHOOL,6 ANG MO KIO STREET 22   ,569362,64582425,na,AMKSS@MOE.EDU.SG,ANG MO KIO MRT,"13, 74, 76, 88, 130, 132, 133, 136, 165, 169, 265, 268, 269, 851, 852",MR ASHRAF HYDER YUSOFF MANIAM,MR CHAN WENG ONN MARTIN,MADAM LEE KEE CHIN,na,na,na,na,ANG MO KIO,SOUTH,GOVERNMENT SCHOOL,CO-ED SCHOOL,SINGLE SESSION,SECONDARY (S1-S5),No,No,No,No,CHINESE,MALAY,TAMIL,1.36733710171069,103.842154973672,6 ANG MO KIO STREET 22 ANG MO KIO SECONDARY SCHOOL SINGAPORE 569362
ANGLICAN HIGH SCHOOL,600 UPPER CHANGI ROAD   ,487012,64414690,na,AHS@MOE.EDU.SG,TANAH MERAH MRT,"2, 9, 12, 14, 24, 31, 35, 38, 45, 46, 47, 48, 222",MR LIM HOCK CHUAN ALVIN,MR CHIN LIH KEONG,MISS WONG HSIEN HUI,MR SEAH THIAM SIONG,na,na,na,BEDOK,EAST,GOVERNMENT-AIDED SCH,CO-ED SCHOOL,SINGLE SESSION,SECONDARY (S1-S4),Yes,Yes,No,No,CHINESE,na,na,1.33118107926966,103.941853465631,600 UPPER CHANGI ROAD ANGLICAN HIGH SCHOOL SINGAPORE 487012
ANGLO-CHINESE JUNIOR COLLEGE,25 DOVER CLOSE EAST   ,139745,67775479,na,ACJC@MOE.EDU.SG,Buona Vista,"74,95,100,105,106,111,145,147,191,196,198,602",DR. CHEE YAN HOON SHIRLEEN,MR ANG YUAN PENG,MISS AUDREY LIM,MS QUEK SI MIN,MADAM LIM SING THOE,na,na,QUEENSTOWN,WEST,GOVERNMENT-AIDED SCH,CO-ED SCHOOL,FULL DAY,JUNIOR COLLEGE,No,No,No,No,CHINESE,MALAY,TAMIL,1.30304255193392,103.785358436408,25 DOVER CLOSE EAST ANGLO-CHINESE JUNIOR COLLEGE SINGAPORE 139745
ANGLO-CHINESE SCHOOL (BARKER ROAD),60 BARKER ROAD   ,309919,62561366,na,ACBRS@MOE.EDU.SG,"NEWTON MRT, STEVENS MRT","48, 66, 67, 170, 960, 972",MR KHOO TSE HORNG,MR TAN WHYE WEE JEFFREY,MR CHEN HONG MING,MADAM MARIE LOH MEI LING,na,na,na,NOVENA,SOUTH,GOVERNMENT-AIDED SCH,BOYS' SCHOOL,SINGLE SESSION,SECONDARY (S1-S5),No,No,No,No,CHINESE,MALAY,TAMIL,1.31961649151328,103.835772689988,60 BARKER ROAD ANGLO-CHINESE SCHOOL (BARKER ROAD) SINGAPORE 309919
ANGLO-CHINESE SCHOOL (INDEPENDENT),121 DOVER ROAD   ,139650,67731433,na,ACIS@MOE.EDU.SG,"DOVER MRT, BUONA VISTA MRT, ONE-NORTH MRT","33, 74, 166, 196",MR KOH SUNG- YI ARENE,MR CHIEW TECK TZER TERENCE,MR SOO MUN KEONG PATRICK,MRS TEO LAI CHENG JUDY-HO,DR YONG YUN LEONG ANDREW,MS ALICE TAN SHIH SHIN,na,QUEENSTOWN,SOUTH,INDEPENDENT SCHOOL,CO-ED SCHOOL,SINGLE SESSION,MIXED LEVEL (S1-JC2),No,No,Yes,Yes,CHINESE,MALAY,TAMIL,1.30370409257783,103.780363417671,121 DOVER ROAD ANGLO-CHINESE SCHOOL (INDEPENDENT) SINGAPORE 139650
ANGLO-CHINESE SCHOOL (JUNIOR),16 WINSTEDT ROAD   ,227988,67346518,na,ACJS@MOE.EDU.SG,Newton MRT Station,"5, 54, 124, 143, 162, 162M, 167, 167e, 518, 518A, 972M",MISS CHEE CHUERN HWEI CHERYL,MADAM ANG CHAI TING,MR GOH SHEOW EN,MR AARON CHUA BEE HOCK,na,na,na,CENTRAL,SOUTH,GOVERNMENT-AIDED SCH,BOYS' SCHOOL,SINGLE SESSION,PRIMARY,No,No,No,No,CHINESE,MALAY,TAMIL,1.30935041274966,103.840950265464,16 WINSTEDT ROAD ANGLO-CHINESE SCHOOL (JUNIOR) SINGAPORE 227988
ANGLO-CHINESE SCHOOL (PRIMARY),50 BARKER ROAD   ,309918,63531366,na,ACPS@MOE.EDU.SG,Newton MRT Station,"Bus 48, 66, 67, 170, 960, 972M",MRS LEONG-HO HIL MAY,MR CHUA THIAN KEONG,MADAM TEH HSIAO CHUIN,MADAM SEOW LAY YEN,na,na,na,NOVENA,SOUTH,GOVERNMENT-AIDED SCH,BOYS' SCHOOL,SINGLE SESSION,PRIMARY,No,No,Yes,No,CHINESE,MALAY,TAMIL,1.31837054523521,103.835609732354,50 BARKER ROAD ANGLO-CHINESE SCHOOL (PRIMARY) SINGAPORE 309918
ANGSANA PRIMARY SCHOOL,51 Tampines Street 61   ,528565,67845293,na,angsana_pri@moe.edu.sg,Tampines,"Bus Service 68, 68A",MR WONG WOEN LONG,MADAM SULASNI BINTE ABDUL RAHMAN,MADAM LEE HUAY MENG CAROL,MR KONG CHEE CHIEW,na,na,na,TAMPINES,EAST,GOVERNMENT SCHOOL,CO-ED SCHOOL,SINGLE SESSION,PRIMARY,No,No,No,No,CHINESE,MALAY,TAMIL,1.36360590588314,103.9389409,51 TAMPINES STREET 61 ANGSANA PRIMARY SCHOOL SINGAPORE 528565
ASSUMPTION ENGLISH SCHOOL,622 UPPER BUKIT TIMAH ROAD   ,678117,67636560,na,AES@MOE.EDU.SG,CASHEW MRT,"67, 75, 170, 176, 178, 184, 961, 963, 970",MR TOH KIM YONG VINCENT,MR TAN WEIMING BRIAN,MISS WONG KER SIN,MR QUEK SER HIANG,na,na,na,BUKIT PANJANG,WEST,GOVERNMENT-AIDED SCH,CO-ED SCHOOL,SINGLE SESSION,SECONDARY (S1-S5),No,No,No,No,CHINESE,MALAY,TAMIL,1.36838160662857,103.766687526556,622 UPPER BUKIT TIMAH ROAD ASSUMPTION ENGLISH SCHOOL SINGAPORE 678117
ASSUMPTION PATHWAY SCHOOL,30 Cashew Road   ,679697,67622857,na,aps@schools.gov.sg,"DOWNTOWN LINE 2, CASHEW MRT","SBS Transit No 170; SMRT No 67, 75, 171, 176, 178, 184, 961, 963 & 970",MR STEPHEN CHIN,MADAM SHABNAM LENA,DR WEE SIEW FONG,MRS TANG HUAY JIUAN NEE CHONG,na,na,na,BUKIT PANJANG,WEST,SPECIALISED SCHOOL,CO-ED SCHOOL,SINGLE SESSION,SECONDARY (S1-S4),No,No,No,No,CHINESE,MALAY,TAMIL,1.3696707043227,103.765959130581,30 CASHEW ROAD ASSUMPTION PATHWAY SCHOOL SINGAPORE 679697
BARTLEY SECONDARY SCHOOL,10 JALAN BUNGA RAMPAI   ,538403,62805595,na,BARTLEY_SS@MOE.EDU.SG,"BARTLEY MRT, TAI SENG MRT","22, 24, 28, 43, 58, 62, 70, 70M, 76, 80, 80A, 93, 158",MISS SEET YING LING BRITTA,MR NG CHOR YAM,MR TING POH LEONG ALOYSIUS,na,na,na,na,TOA PAYOH,SOUTH,GOVERNMENT SCHOOL,CO-ED SCHOOL,SINGLE SESSION,SECONDARY (S1-S5),No,No,No,No,CHINESE,MALAY,TAMIL,1.33995415587811,103.882806211705,10 JALAN BUNGA RAMPAI BARTLEY SECONDARY SCHOOL SINGAPORE 538403
BEACON PRIMARY SCHOOL,36 Bukit Panjang Ring Road   ,679944,67697244,na,beaconprisch@moe.edu.sg,"Bangkit LRT, Fajar LRT Station, Bukit Panjang MRT","920, 922, 971, 972, 972A, 972M, 976",MISS PANG WEE MIAN,MADAM LELA BTE SHAMSUHADI,MISS MELISSA CHANG SUET MUN,MR CHEN WEI NGIAP,na,na,na,BUKIT PANJANG,WEST,GOVERNMENT SCHOOL,CO-ED SCHOOL,SINGLE SESSION,PRIMARY,No,No,No,No,CHINESE,MALAY,TAMIL,1.38394936211823,103.773632022975,36 BUKIT PANJANG RING ROAD BEACON PRIMARY SCHOOL SINGAPORE 679944
BEATTY SECONDARY SCHOOL,1 TOA PAYOH NORTH   ,318990,62542284,na,BEATTY_SS@MOE.EDU.SG,"BRADDELL MRT, TOA PAYOH MRT","13, 28, 56, 57, 59, 73, 88, 93, 105, 129, 153, 155, 157, 159, 163, 231, 232",MR HARMAN AUGUSTUS JOHLL,MR YEO KOK SAN WILLIAM,MADAM LIM SOK NGIN,na,na,na,na,TOA PAYOH,SOUTH,GOVERNMENT SCHOOL,CO-ED SCHOOL,SINGLE SESSION,SECONDARY (S1-S5),No,No,No,No,CHINESE,MALAY,TAMIL,1.341790285,103.852280842345,1 TOA PAYOH NORTH BEATTY SECONDARY SCHOOL SINGAPORE 318990
BEDOK GREEN PRIMARY SCHOOL,1 BEDOK SOUTH AVE 2   ,469317,64491491,na,bgps@moe.edu.sg,"Bedok MRT Station, Tanah Merah MRT Station","Bus No. 2, 9, 12, 24, 31, 34 & 38",MR YONG YIK YEN BENJAMIN,MR YEO SHO HOR,CHUA KOK SENG,na,na,na,na,BEDOK,EAST,GOVERNMENT SCHOOL,CO-ED SCHOOL,SINGLE SESSION,PRIMARY,No,No,No,No,CHINESE,MALAY,TAMIL,1.32344593287992,103.937878976352,1 BEDOK SOUTH AVENUE 2 BEDOK GREEN PRIMARY SCHOOL SINGAPORE 469317
BEDOK GREEN SECONDARY SCHOOL,360 BEDOK NORTH AVE 3   ,469722,64465969,na,BGSS@MOE.EDU.SG,"BEDOK MRT, BEDOK RESERVOIR MRT","14, 17, 18, 28, 46, 66, 67, 69, 168, 222, 228, 506",MR SHAW SWEE TAT,MISS SAKINAH BINTE MOHAMED SARIP,MR CHEONG HUEI LEONARD,MR LEE CHEE CHONG,na,na,na,BEDOK,EAST,GOVERNMENT SCHOOL,CO-ED SCHOOL,SINGLE SESSION,SECONDARY (S1-S5),No,No,No,No,CHINESE,MALAY,TAMIL,1.33451947288431,103.935028383346,360 BEDOK NORTH AVENUE 3 BEDOK GREEN SECONDARY SCHOOL SINGAPORE 469722
BEDOK SOUTH SECONDARY SCHOOL,1 JALAN LANGGAR BEDOK   ,468585,64491314,na,BSSS@MOE.EDU.SG,TANAH MERAH MRT,"10, 14, 45",MR KOH YONG HWEE DARYL (XU RONGHUI),MISS AZLINDA BTE SAMSUDIN,MR CHEN JINGYUAN ALVIN,na,na,na,na,BEDOK,EAST,GOVERNMENT SCHOOL,CO-ED SCHOOL,SINGLE SESSION,SECONDARY (S1-S5),No,No,No,No,CHINESE,MALAY,TAMIL,1.32513655159184,103.950989139261,1 JALAN LANGGAR BEDOK BEDOK SOUTH SECONDARY SCHOOL SINGAPORE 468585
BEDOK VIEW SECONDARY SCHOOL,6 BEDOK SOUTH AVENUE 3   ,469293,64494286,na,BEDOKVIEW_SS@MOE.EDU.SG,TANAH MERAH MRT,"2, 9, 12, 14, 24, 25, 31, 35, 38, 45, 46, 47, 48",MADAM CHENG HWEE YEANG,MR TYEBALLY AZIZ,MR NEO WEI CHUNG,na,na,na,na,BEDOK,EAST,GOVERNMENT SCHOOL,CO-ED SCHOOL,SINGLE SESSION,SECONDARY (S1-S5),No,No,No,No,CHINESE,MALAY,TAMIL,1.32415704029686,103.943776245024,6 BEDOK SOUTH AVENUE 3 BEDOK VIEW SECONDARY SCHOOL SINGAPORE 469293
BENDEMEER PRIMARY SCHOOL,91 BENDEMEER ROAD   ,339948,62995735,na,BENDEMEER_PS@MOE.EDU.SG,"Boon Keng, Kallang","13 23 31 61 64 65 65M 66 125, 125X ,133,140,147,853,857,985",MADAM LIM KIM GEK,MRS LINDA TAN,MR TOH KIM SING (ZHUO JINSHENG),MR TOO MENG NGEE,na,na,na,KALLANG,SOUTH,GOVERNMENT SCHOOL,CO-ED SCHOOL,SINGLE SESSION,PRIMARY,No,No,No,No,CHINESE,MALAY,TAMIL,1.32181250780475,103.865404167629,91 BENDEMEER ROAD BENDEMEER PRIMARY SCHOOL SINGAPORE 339948
BENDEMEER SECONDARY SCHOOL,1 ST WILFRED ROAD   ,327919,62932594,na,BENDEMEER_SS@MOE.EDU.SG,BOON KENG MRT,"13,  23,  31,  64,  65,  66, 125, 133, 140, 147, 857, 985",MS FOO SHEUE FENG,MR HO CHI CHENG,MR MOHD AZMAN B MOHD SIDEK,na,na,na,na,KALLANG,SOUTH,GOVERNMENT SCHOOL,CO-ED SCHOOL,SINGLE SESSION,SECONDARY (S1-S5),No,No,No,No,CHINESE,MALAY,TAMIL,1.32425869967174,103.860634248131,1 ST. WILFRED ROAD BENDEMEER SECONDARY SCHOOL SINGAPORE 327919
BLANGAH RISE PRIMARY SCHOOL,91 TELOK BLANGAH HEIGHTS   ,109100,62763037,na,BRPS@MOE.EDU.SG,"Telok Blangah, Tiong Bahru & Redhill",SBS 273 & 124,MISS NG POR JOO PEARLY,MISS NARAYANASAMY UMA RANI,MR CHIONH BOON SOO,na,na,na,na,BUKIT MERAH,SOUTH,GOVERNMENT SCHOOL,CO-ED SCHOOL,SINGLE SESSION,PRIMARY,No,No,No,No,CHINESE,MALAY,TAMIL,1.27612047924037,103.808628535239,91 TELOK BLANGAH HEIGHTS BLANGAH RISE PRIMARY SCHOOL SINGAPORE 109100
BOON LAY GARDEN PRIMARY SCHOOL,20 BOON LAY DRIVE   ,649930,63160209,na,BLGPS@MOE.EDU.SG,Lakeside & Boon Lay,"30,99,154,178,180,187,240,246",MADAM CHRISTINE LIM MIN HUI,MADAM NG BOON IN,MRS AVINASH MURUGESUVARI,na,na,na,na,JURONG WEST,WEST,GOVERNMENT SCHOOL,CO-ED SCHOOL,SINGLE SESSION,PRIMARY,No,No,No,No,CHINESE,MALAY,TAMIL,1.34317853793318,103.713280889452,20 BOON LAY DRIVE BOON LAY GARDEN PRIMARY SCHOOL SINGAPORE 649930
BOON LAY SECONDARY SCHOOL,11 JURONG WEST STREET 65   ,648354,67941324,na,BLSS@MOE.EDU.SG,Boon Lay,"30, 79, 99, 154, 157, 172, 174, 178, 179, 180, 181, 181M, 187, 192, 193, 194, 198, 199, 240, 241, 242, 243G/W, 246, 249, 251, 252, 258, 405, 502, 974",MR CHAN ZHENG MING,MR KOH CHON KIAT,MR TAN HWEE SIANG,,na,na,na,JURONG WEST,WEST,GOVERNMENT SCHOOL,CO-ED SCHOOL,SINGLE SESSION,SECONDARY (S1-S5),No,No,No,No,CHINESE,MALAY,TAMIL,1.34272216334333,103.701891453912,11 JURONG WEST STREET 65 BOON LAY SECONDARY SCHOOL SINGAPORE 648354
BOWEN SECONDARY SCHOOL,2 LORONG NAPIRI   ,547529,63856559,na,BOWEN_SS@MOE.EDU.SG,"HOUGANG MRT, SERANGOON MRT, SENGKANG MRT","43, 70, 73, 103, 109, 156, 854, 25, 74, 74E, 76, 112, 132, 147, 165, 55",MR LOH CHIH HUI,MR CHEN ZHAOKAI BENJAMIN,MR GOH KEE YONG @ GOH CHONG HENG,na,na,na,na,HOUGANG,NORTH,GOVERNMENT SCHOOL,CO-ED SCHOOL,SINGLE SESSION,SECONDARY (S1-S5),No,No,No,No,CHINESE,MALAY,TAMIL,1.37035994436209,103.877659577677,2 LORONG NAPIRI BOWEN SECONDARY SCHOOL SINGAPORE 547529
BROADRICK SECONDARY SCHOOL,61 DAKOTA CRESCENT   ,399935,64471427,na,BROADRICK_SS@MOE.EDU.SG,DAKOTA MRT,"10, 16, 30, 31, 32, 33",MR NG TIONG NAM,MR BAMBANG PURNAMA PUTRA SHAKNI,MS NG FOONG MENG,na,na,na,na,GEYLANG,EAST,GOVERNMENT SCHOOL,CO-ED SCHOOL,SINGLE SESSION,SECONDARY (S1-S5),No,No,No,No,CHINESE,MALAY,TAMIL,1.30705061123433,103.886917922608,61 DAKOTA CRESCENT BROADRICK SECONDARY SCHOOL SINGAPORE 399935
BUKIT BATOK SECONDARY SCHOOL,50 BUKIT BATOK WEST AVE 8   ,658962,65607006,na,BBSS@MOE.EDU.SG,BUKIT BATOK MRT,"66, 66C, 157, 174, 174E, 178, 506, 941, 991",MISS WONG KAH WAI SHIRLEY,"MR CHENG POH HUAT, ALAN",MADAM CHIA BEE KHIM MABEL,MR CHAN TECK HONG DAVID,na,na,na,BUKIT BATOK,WEST,GOVERNMENT SCHOOL,CO-ED SCHOOL,SINGLE SESSION,SECONDARY (S1-S5),No,No,No,No,CHINESE,MALAY,TAMIL,1.34849111079052,103.74087370482,50 BUKIT BATOK WEST AVENUE 8 BUKIT BATOK SECONDARY SCHOOL SINGAPORE 658962
BUKIT MERAH SECONDARY SCHOOL,10 LENGKOK BAHRU   ,159050,64744122,na,BMSS@MOE.EDU.SG,REDHILL MRT,"14, 32, 33, 63, 64, 120, 132, 139, 145, 147, 196, 197, 855, 961",MR DARREN CHONG WAI KI,MR KOH SIEW BOON,MS CHAN LAI YING,na,na,na,na,BUKIT MERAH,SOUTH,GOVERNMENT SCHOOL,CO-ED SCHOOL,SINGLE SESSION,SECONDARY (S1-S5),No,No,No,No,CHINESE,MALAY,TAMIL,1.28569283064288,103.813438929393,10 LENGKOK BAHRU BUKIT MERAH SECONDARY SCHOOL SINGAPORE 159050
BUKIT PANJANG GOVT. HIGH SCHOOL,7 CHOA CHU KANG AVE 4   ,689809,67626576,na,BPGHS@MOE.EDU.SG,CHOA CHU KANG MRT,"300, 983",MR SEET TIAT HEE,MDM TEO TING TING,MR TAN FONG WEI,na,na,na,na,CHOA CHU KANG,WEST,GOVERNMENT SCHOOL,CO-ED SCHOOL,SINGLE SESSION,SECONDARY (S1-S5),No,Yes,No,No,CHINESE,MALAY,TAMIL,1.38224243360043,103.738361221869,7 CHOA CHU KANG AVENUE 4 BUKIT PANJANG GOVERNMENT HIGH SCHOOL SINGAPORE 689809
BUKIT PANJANG PRIMARY SCHOOL,109 CASHEW ROAD   ,679676,67637462,na,BPPS@MOE.EDU.SG,From Pending LRT station to Choa Chu Kang MRT station,"75, 184",MADAM LEN LENG LENG TERESA KELLY,MR CHAN WENG KIT MARK,MADAM KAY HWEE GEAK,MR CHAN KEN YAN MICHAEL,na,na,na,BUKIT PANJANG,WEST,GOVERNMENT SCHOOL,CO-ED SCHOOL,SINGLE SESSION,PRIMARY,No,No,No,No,CHINESE,MALAY,TAMIL,1.37362179302436,103.769374904025,109 CASHEW ROAD BUKIT PANJANG PRIMARY SCHOOL SINGAPORE 679676
BUKIT TIMAH PRIMARY SCHOOL,111 Lorong Kismis   ,598112,64692179,na,bukittimahps@moe.edu.sg,"Beauty World, Bukit Batok and Clementi Stations",173,MISS LAU WAN SZE,MDM JAN LIN,"MADAM KOH LEE KUN, SHIRLYN",na,na,na,na,BUKIT TIMAH,WEST,GOVERNMENT SCHOOL,CO-ED SCHOOL,SINGLE SESSION,PRIMARY,No,No,No,No,CHINESE,MALAY,TAMIL,1.3377498622588,103.766855344779,111 LORONG KISMIS AFTERSCHOOL @ BUKIT TIMAH PRIMARY SCHOOL SINGAPORE 598112
BUKIT VIEW PRIMARY SCHOOL,18 BUKIT BATOK STREET 21   ,659634,65635015,na,BUKITVIEW_PS@MOE.EDU.SG,Bukit Batok MRT Station,"173,157,178,852,66,106,61,506,963,77",MADAM TEO ENG HUI,MADAM LAI SEOW POH,MRS LEE JUN WEN,MR GOH GIN HOWE,na,na,na,BUKIT BATOK,WEST,GOVERNMENT SCHOOL,CO-ED SCHOOL,SINGLE SESSION,PRIMARY,No,No,No,No,CHINESE,MALAY,TAMIL,1.34586054788695,103.75366641455,18 BUKIT BATOK STREET 21 BUKIT VIEW PRIMARY SCHOOL SINGAPORE 659634
BUKIT VIEW SECONDARY SCHOOL,16 BUKIT BATOK STREET 21   ,659633,65630945,na,BUKITVIEW_SS@MOE.EDU.SG,BUKIT BATOK MRT,"61, 66, 77, 106, 157, 173, 174, 178, 189, 506, 653, 852, 963, 990",na,MR MAK YEW CHONG,MISS MRS ANNA LING,MR NEO KIM HANG,na,na,na,BUKIT BATOK,WEST,GOVERNMENT SCHOOL,CO-ED SCHOOL,SINGLE SESSION,SECONDARY (S1-S5),No,No,No,No,CHINESE,MALAY,TAMIL,1.3457330554294,103.752226593984,16 BUKIT BATOK STREET 21 BUKIT VIEW SECONDARY SCHOOL SINGAPORE 659633
CANBERRA PRIMARY SCHOOL,21 ADMIRALTY DRIVE   ,757714,67587312,na,CANBERRA_PS@MOE.EDU.SG,Sembawang MRT Station,Bus No. 859,MR TAN SIAN YEOW TERENCE,MADAM ONG LIXIANG JOYCE,MR SHAH JAHAN B MOHAMED IQBAL,na,na,na,na,SEMBAWANG,NORTH,GOVERNMENT SCHOOL,CO-ED SCHOOL,SINGLE SESSION,PRIMARY,No,No,No,No,CHINESE,MALAY,TAMIL,1.45125024371543,103.815858858929,21 ADMIRALTY DRIVE CANBERRA PRIMARY SCHOOL SINGAPORE 757714
CANBERRA SECONDARY SCHOOL,51 SEMBAWANG DRIVE   ,757699,67583110,na,CANBERRA_SS@MOE.EDU.SG,SEMBAWANG MRT,"859, 962",MR LEONG KOK KEE,MADAM ONG LAY YEN,MR SYED FAISAL BIN SYED ISMAIL,MRS AMANDA TAN,na,na,na,SEMBAWANG,NORTH,GOVERNMENT SCHOOL,CO-ED SCHOOL,SINGLE SESSION,SECONDARY (S1-S5),No,No,No,No,CHINESE,MALAY,TAMIL,1.45319086315972,103.814203583818,51 SEMBAWANG DRIVE CANBERRA SECONDARY SCHOOL SINGAPORE 757699
CANOSSA CATHOLIC PRIMARY SCHOOL,1 Sallim Road   ,387621,68441417,na,ccps@moe.edu.sg,Nearest MRT station: Mattar Station (about 3-minute walk),"Aljunied Road (same side as CCPS): 62, 64, 100; Aljunied Road (opposite CCPS): 61, 62, 64, 66, 100, 135, 154, 155; Merpati Rd (after Jln Anggerek): 40, 61, 63, 65, 66, 135,",MADAM SIA LU-MING EUGENIE,MR LEE KOK MENG CLEMENT,MR LIM TIAN SIONG,na,na,na,na,GEYLANG,EAST,GOVERNMENT-AIDED SCH,CO-ED SCHOOL,SINGLE SESSION,PRIMARY,No,No,No,No,CHINESE,MALAY,TAMIL,1.32664424544839,103.882227964852,1 SALLIM ROAD CANOSSA CATHOLIC PRIMARY SCHOOL SINGAPORE 387621
CANTONMENT PRIMARY SCHOOL,1 CANTONMENT CLOSE   ,88256,65119556,na,cantonment_ps@moe.edu.sg,Tanjong Pagar; Outram Park,"121, 167, 196",MADAM FOO YIN PING GRACE,MISS CHENG SHIN MIIN,MRS JANE CHEAH,MR LOH SIANG KIANG,na,na,na,BUKIT MERAH,SOUTH,GOVERNMENT SCHOOL,CO-ED SCHOOL,SINGLE SESSION,PRIMARY,No,No,No,No,CHINESE,MALAY,TAMIL,1.27547252623201,103.839962631748,1 CANTONMENT CLOSE CANTONMENT PRIMARY SCHOOL SINGAPORE 088256
CASUARINA PRIMARY SCHOOL,30 PASIR RIS ST 41   ,518935,65836227,na,CASUARINA_PS@MOE.EDU.SG,Pasir Ris MRT Station,"Nos. 12, 21 & 358",MR POH CHEE YANG,MR TAYEB B RAJIB,MADAM HAFSAH BINTE ABDULLAH,na,na,na,na,PASIR RIS,EAST,GOVERNMENT SCHOOL,CO-ED SCHOOL,SINGLE SESSION,PRIMARY,No,No,No,No,CHINESE,MALAY,TAMIL,1.37246063927999,103.957020286115,30 PASIR RIS STREET 41 CASUARINA PRIMARY SCHOOL SINGAPORE 518935
CATHOLIC HIGH SCHOOL,9 BISHAN STREET 22   ,579767,64561322 (Secondary),64593938 (Primary),CHS@MOE.EDU.SG,BISHAN MRT,"13, 52, 54, 88, 156, 162, 162M, 410",MADAM TEO YVONNE,MR TAN CHER HUI PHILIP,MADAM WONG WAI SEE KELLIE,MISS LOW PEI LIN BEVERLY,MR FONG KOK WAI,na,na,BISHAN,NORTH,GOVERNMENT-AIDED SCH,BOYS' SCHOOL,SINGLE SESSION,MIXED LEVEL (P1-S4),Yes,Yes,Yes,Yes,CHINESE,na,na,1.3547230747166,103.844874676599,9 BISHAN STREET 22 CATHOLIC HIGH SCHOOL SINGAPORE 579767
CATHOLIC JUNIOR COLLEGE,129 WHITLEY ROAD   ,297822,62537267,na,CATHOLIC_JC@MOE.EDU.SG,"Toa Payoh (NS Line), Novena (NS Line), Stevens (DT Line), Caldecott (CC Line,TE Line)","105, 132, 151, 153, 154, 156, 186, 966, 985",MRS WOO SOO MIN,MADAM KAM WAI CHIN,MR TAN JEK SUAN,na,na,na,na,NOVENA,SOUTH,GOVERNMENT-AIDED SCH,CO-ED SCHOOL,FULL DAY,JUNIOR COLLEGE,No,No,No,No,CHINESE,MALAY,TAMIL,1.32455605783219,103.835028842353,129 WHITLEY ROAD CATHOLIC JUNIOR COLLEGE SINGAPORE 297822
CEDAR GIRLS' SECONDARY SCHOOL,1 CEDAR AVENUE   ,349692,62820244,na,CEDARGIRLSSS@MOE.EDU.SG,"WOODLEIGH MRT, POTONG PASIR MRT, MATTAR MRT","8, 13, 61, 64, 65, 66, 90, 100, 107, 133, 135, 142, 147, 151, 154, 155, 853",MADAM THONG MAY TENG,MADAM TAN GEOK LAN,MISS ONG SHU HUI,na,na,na,na,TOA PAYOH,SOUTH,GOVERNMENT SCHOOL,GIRLS' SCHOOL,SINGLE SESSION,SECONDARY (S1-S4),No,Yes,No,Yes,CHINESE,MALAY,TAMIL,1.33375800216334,103.873933064886,1 CEDAR AVENUE CEDAR GIRLS' SECONDARY SCHOOL SINGAPORE 349692
CEDAR PRIMARY SCHOOL,15 CEDAR AVENUE   ,349700,62830113,na,CEDAR_PS@MOE.EDU.SG,Potong Pasir MRT Station,"8, 61, 64, 65, 66, 66A, 90, 90A, 100, 135, 151, 154, 155",MR CHRIS CHUA,MS CHOONG PEI CHIN,MR NG CHU SIU,na,na,na,na,TOA PAYOH,SOUTH,GOVERNMENT SCHOOL,CO-ED SCHOOL,SINGLE SESSION,PRIMARY,No,No,No,No,CHINESE,MALAY,TAMIL,1.3355885014312,103.87562104944,15 CEDAR AVENUE CEDAR PRIMARY SCHOOL SINGAPORE 349700
CHANGKAT CHANGI SECONDARY SCHOOL,23 SIMEI ST 3   ,529894,67868481,na,CHANGKATCHGI@MOE.EDU.SG,SIMEI MRT,"5, 9, 20, 38",MR HO MING DA,MS SUBASHINI D/O SIVARAM,na,na,na,na,na,TAMPINES,EAST,GOVERNMENT SCHOOL,CO-ED SCHOOL,SINGLE SESSION,SECONDARY (S1-S5),No,No,No,No,CHINESE,MALAY,TAMIL,1.33950630072876,103.953245525564,23 SIMEI STREET 3 CHANGKAT CHANGI SECONDARY SCHOOL SINGAPORE 529894
CHANGKAT PRIMARY SCHOOL,11 SIMEI ST 3   ,529896,67844740,na,CHANGKAT_PS@MOE.EDU.SG,Simei MRT Station,"9,38,5",MADAM CHENG HUEY TENG,MRS LEE LI THENG,MADAM SITI NAZRAH BTE ABDUL RAHMAN,na,na,na,na,TAMPINES,EAST,GOVERNMENT SCHOOL,CO-ED SCHOOL,SINGLE SESSION,PRIMARY,No,No,No,No,CHINESE,MALAY,TAMIL,1.34023163951633,103.952080114035,11 SIMEI STREET 3 CHANGKAT PRIMARY SCHOOL SINGAPORE 529896
CHIJ (KATONG) PRIMARY,17 MARTIA ROAD   ,424821,63459007,na,CHIJKTPS@MOE.EDU.SG,MARINE PARADE; EUNOS; PAYA LEBAR,"15, 55, 36, 16, 135, 197, 196, 31, 13, 76, 12, 10, 14, 32, 40",MADAM MISCHA LEIGH PEREIRA,MADAM TAN POH KUAN JOYCELYN,MISS SHARON NG YE CHIN,MR ONG HENG KIONG (KONG QINGQIANG),na,na,na,BEDOK,EAST,GOVERNMENT-AIDED SCH,GIRLS' SCHOOL,SINGLE SESSION,PRIMARY,No,No,No,No,CHINESE,MALAY,TAMIL,1.30648535277087,103.911105620496,17 MARTIA ROAD CHIJ (KATONG) PRIMARY SINGAPORE 424821
VALOUR PRIMARY SCHOOL,49 Punggol Central   ,828728,na,na,valour_ps@moe.edu.sg,na,na,MRS CHARIS WONG,MADAM TAN PIN PIN,MR LEE WEI TE,MR BOH HONG JIK,na,na,na,PUNGGOL,EAST,GOVERNMENT SCHOOL,CO-ED SCHOOL,SINGLE SESSION,PRIMARY,No,No,No,No,CHINESE,MALAY,TAMIL,1.40683570215319,103.899078139493,49 PUNGGOL CENTRAL VALOUR PRIMARY SCHOOL SINGAPORE 828728
CHIJ (KELLOCK),1 Bukit Teresa Road   ,99757,62731710,na,CHIJKS@MOE.EDU.SG,Outram Park Station,"61, 124, 143, 166",MRS SHANTHI SURAJ NAIR,"MS NG CHIOU HIEN, HELEN MRS HELEN TAN",MADAM YUE  SHARON,na,na,na,na,BUKIT MERAH,SOUTH,GOVERNMENT-AIDED SCH,GIRLS' SCHOOL,SINGLE SESSION,PRIMARY,No,No,No,No,CHINESE,MALAY,TAMIL,1.275022723,103.828157564896,1 BUKIT TERESA ROAD CHIJ (KELLOCK) SINGAPORE 099757
CHIJ KATONG CONVENT,346 MARINE TERRACE   ,449150,64494405,na,CHIJKTCS@MOE.EDU.SG,"BEDOK MRT, KEMBANGAN MRT, EUNOS MRT, PAYA LEBAR MRT, MARINE TERRACE MRT","4N, 13, 16, 31, 36, 36A, 36B, 43, 47, 48, 55, 134, 135, 135A, 150, 196, 196E, 197, 853C, 763",MISS CHEN MEI CHUEN,MISS CHIA SIEW HUI,MISS LIM AI HUI ANNIE,na,na,na,na,MARINE PARADE,EAST,GOVERNMENT-AIDED SCH,GIRLS' SCHOOL,SINGLE SESSION,SECONDARY (S1-S5),No,Yes,No,No,CHINESE,MALAY,TAMIL,1.30644268034894,103.917144350028,346 MARINE TERRACE CHIJ KATONG CONVENT SINGAPORE 449150
CHIJ OUR LADY OF GOOD COUNSEL,2C Burghley Drive   ,558979,62814132,na,CHIJOLGCS@MOE.EDU.SG,"Ang Mo Kio MRT, Bishan MRT, Serangoon MRT station.","317 Feeder Bus Service from Serangoon Interchange. 135,136 from Ang Mo Kio Interchange.",MISS TAN LEE YIN GRACE,MISS LIAT MEI KUEN GERALDINE SHARON,MRS WONG- LIM ENG LING ANGELINA,na,na,na,na,SERANGOON,SOUTH,GOVERNMENT-AIDED SCH,GIRLS' SCHOOL,SINGLE SESSION,PRIMARY,No,No,No,No,CHINESE,MALAY,TAMIL,1.35742952269615,103.864009397373,2C BURGHLEY DRIVE CHIJ OUR LADY OF GOOD COUNSEL SINGAPORE 558979
CHIJ OUR LADY OF THE NATIVITY,1257 UPPER SERANGOON ROAD   ,534793,63852012,na,CHIJPS@MOE.EDU.SG,Hougang MRT,"74, 102, 112, 113, 119, 136, 147, 324, 672",MS ALBUQUERQUE KAREN ANNE,MADAM LOH AH LAH CATHERINE MICHELLE,MADAM WONG YEN LING,na,na,na,na,HOUGANG,SOUTH,GOVERNMENT-AIDED SCH,GIRLS' SCHOOL,SINGLE SESSION,PRIMARY,No,No,No,No,CHINESE,MALAY,TAMIL,1.37330297140128,103.897575728303,1257 UPPER SERANGOON ROAD CHIJ OUR LADY OF THE NATIVITY SINGAPORE 534793
CHIJ OUR LADY QUEEN OF PEACE,4 Chestnut Drive   ,679287,67653551,na,CHIJBTS@MOE.EDU.SG,Cashew and Hillview,"180, 67, 171, 176, 177, 178, 184, 961, 963, 970",MS PHAM HONG LIEN PHYLLIS G.,MADAM ADELINE CHONG NGOR YIM,MADAM SNG POH GEOK,na,na,na,na,BUKIT PANJANG,WEST,GOVERNMENT-AIDED SCH,GIRLS' SCHOOL,SINGLE SESSION,PRIMARY,No,No,No,No,CHINESE,MALAY,TAMIL,1.36646014136363,103.768739256709,4A CHESTNUT DRIVE CHIJ OUR LADY QUEEN OF PEACE SINGAPORE 679330
CHIJ PRIMARY (TOA PAYOH),628 Lorong 1 Toa Payoh   ,319765,63536362,na,CHIJTPPS@MOE.EDU.SG,Toa Payoh,"59, 231, 141",MADAM CHUA SOOK LIAN JUDINA,MRS SNG CHARMAINE,MRS MELISSA YAP,MADAM YVONNE LIM BUAY HUANG (LIN MEIFANG),na,na,na,TOA PAYOH,SOUTH,GOVERNMENT-AIDED SCH,GIRLS' SCHOOL,SINGLE SESSION,PRIMARY,No,No,No,No,CHINESE,MALAY,TAMIL,1.33275264711587,103.841847263786,628 LORONG 1 TOA PAYOH CHIJ PRIMARY (TOA PAYOH) SINGAPORE 319765
CHIJ SECONDARY (TOA PAYOH),626 LORONG 1 TOA PAYOH   ,319764,63544573,na,CHIJTPSS@MOE.EDU.SG,TOA PAYOH MRT,"59, 141, 231",MADAM RACHEL ANG LAY KOON,MADAM CHRIS KOH,MADAM LIM LAY HOON,MISS KESAVAN PAULA ANNE,na,na,na,TOA PAYOH,SOUTH,GOVERNMENT-AIDED SCH,GIRLS' SCHOOL,SINGLE SESSION,SECONDARY (S1-S5),No,Yes,No,No,CHINESE,MALAY,TAMIL,1.33246079948303,103.843271625083,626 LORONG 1 TOA PAYOH CHIJ SECONDARY (TOA PAYOH) SINGAPORE 319764
CHIJ ST. JOSEPH'S CONVENT,62 SENGKANG EAST WAY   ,548595,64897589,na,CHIJSJCS@MOE.EDU.SG,SENGKANG MRT,"50, 82, 86, 88, 119, 136",MRS VALERIE PINTO,MISS HO WEI LING,MISS TAN LAI YEE MICHELLE,na,na,na,na,SENG KANG,NORTH,GOVERNMENT-AIDED SCH,GIRLS' SCHOOL,SINGLE SESSION,SECONDARY (S1-S5),No,No,No,No,CHINESE,MALAY,TAMIL,1.39175222260369,103.902464991543,62 SENGKANG EAST WAY CHIJ SAINT JOSEPH'S CONVENT SINGAPORE 548595
CHIJ ST. NICHOLAS GIRLS' SCHOOL,501 ANG MO KIO STREET 13   ,569405,64511335 (Secondary),64566169 (Primary),CHIJSNG@MOE.EDU.SG,"ANG MO KIO MRT, YIO CHU KANG MRT, MAYFLOWER MRT","76, 265, 268, 269",MISS TAN SIN WEI WINNIE,MADAM LOW CHIA YEE,MR NG WAI KIT KELVIN,MISS YEO TECK WOON,MADAM TAN LIH LIN (CHEN LILIN),MR LIM KAY WAH BENEDICT,MR THAM WAI KONG,ANG MO KIO,NORTH,GOVERNMENT-AIDED SCH,GIRLS' SCHOOL,SINGLE SESSION,MIXED LEVEL (P1-S4),Yes,Yes,No,Yes,CHINESE,na,na,1.37347687878916,103.834253269436,501 ANG MO KIO STREET 13 CHIJ SAINT NICHOLAS GIRLS' SCHOOL SINGAPORE 569405
CHIJ ST. THERESA'S CONVENT,160 LOWER DELTA ROAD   ,99138,64775700,na,CHIJSTCS@MOE.EDU.SG,"HARBOURFRONT MRT, TIONG BAHRU MRT","65, 121, 123, 123M, 124, 131, 131M, 195, 195A, 272, 855",MADAM TAN MEI MEI JENNY,MISS WEE MEI YEN JANICE,MR YEO NGEE YANG,na,na,na,na,BUKIT MERAH,SOUTH,GOVERNMENT-AIDED SCH,GIRLS' SCHOOL,SINGLE SESSION,SECONDARY (S1-S5),No,No,No,No,CHINESE,MALAY,TAMIL,1.27535177510054,103.822440701642,160 LOWER DELTA ROAD CHIJ SAINT THERESA'S CONVENT SINGAPORE 099138
CHONGFU SCHOOL,170 YISHUN AVENUE 6   ,768959,62579571,na,CFPS@MOE.EDU.SG,Yishun MRT station,Feeder Service 811,MR TAN KING MING,MISS LIM HWEE MIEN ANGELYNNA,MR SOON WOO SIN,na,na,na,na,YISHUN,NORTH,GOVERNMENT-AIDED SCH,CO-ED SCHOOL,SINGLE SESSION,PRIMARY,No,No,No,No,CHINESE,MALAY,TAMIL,1.43839562897006,103.839309173817,170 YISHUN AVENUE 6 CHONGFU SCHOOL SINGAPORE 768959
CHONGZHENG PRIMARY SCHOOL,1 TAMPINES STREET 21   ,529392,67845054,na,CZPS@MOE.EDU.SG,Tampines MRT Station; Tampines East MRT Station,"3,3A, 8, 17, 18, 20, 28, 34, 39, 59, 518",MR LIM WEE JAMES,MADAM RANJIT KAUR D/O MUKHTAR SINGH,MISS SHERRY OH SWEE LYN,na,na,na,na,TAMPINES,EAST,GOVERNMENT SCHOOL,CO-ED SCHOOL,SINGLE SESSION,PRIMARY,No,No,No,No,CHINESE,MALAY,TAMIL,1.35070739237744,103.951399541868,1 TAMPINES STREET 21 CHONGZHENG PRIMARY SCHOOL SINGAPORE 529392
CHRIST CHURCH SECONDARY SCHOOL,20 WOODLANDS DRIVE 17   ,737924,68932789,na,CCSS@MOE.EDU.SG,"WOODLANDS MRT, WOODLANDS SOUTH MRT","901, 901M, 665",MR TAY JUNCHENG ADRIAN,MADAM HENG EU LIN,MR ONG KAH HUI VICTOR,na,na,na,na,WOODLANDS,NORTH,GOVERNMENT-AIDED SCH,CO-ED SCHOOL,SINGLE SESSION,SECONDARY (S1-S5),No,No,No,No,CHINESE,MALAY,TAMIL,1.42656780901455,103.793451105242,20 WOODLANDS DRIVE 17 CHRIST CHURCH SECONDARY SCHOOL SINGAPORE 737924
CHUA CHU KANG PRIMARY SCHOOL,20 CHOA CHU KANG AVENUE 2   ,689905,67661583,na,CCKPS@MOE.EDU.SG,Choa Chu Kang MRT Station and Southview LRT Station,"Bus Service 300, 301 and NR3 along Chua Chu Kang Ave 2; Bus Service 172, 301, 991 along Chua Chu Kang Ave 1",MADAM KUEK YEN YEN SHEREE,MADAM CHEW BOON HWEE,MS LIM CHWEE ENG MRS ONG PI HOCK,MADAM PUSPHAALATHA D/O AYAVOO,na,na,na,CHOA CHU KANG,WEST,GOVERNMENT SCHOOL,CO-ED SCHOOL,SINGLE SESSION,PRIMARY,No,No,No,No,CHINESE,MALAY,TAMIL,1.37775890093367,103.741832917421,20 CHOA CHU KANG AVENUE 2 CHUA CHU KANG PRIMARY SCHOOL SINGAPORE 689905
CHUA CHU KANG SECONDARY SCHOOL,31 TECK WHYE CRESCENT   ,688848,67636807,na,CCKSS@MOE.EDU.SG,"CHOA CHU KANG MRT, PHOENIX LRT","190, 190A, 307, 975, 982E, 985",MR CHENG GHEE HOCK TIMOTHY,MADAM HARTATI BTE OSMAN,MADAM LEE EE LEI JANE,na,na,na,na,CHOA CHU KANG,WEST,GOVERNMENT SCHOOL,CO-ED SCHOOL,SINGLE SESSION,SECONDARY (S1-S5),No,No,No,No,CHINESE,MALAY,TAMIL,1.38333422637073,103.75510327583,31 TECK WHYE CRESCENT CHUA CHU KANG SECONDARY SCHOOL SINGAPORE 688848
CHUNG CHENG HIGH SCHOOL (MAIN),50 GOODMAN ROAD   ,439012,63449686,na,CCHMS@MOE.EDU.SG,DAKOTA MRT,"10, 12, 14, 14A, 14E 16, 16M, 30, 31, 32, 33, 40, 43, 43E 135, 134, 196, 196A 197, 401, 853M",MR YAO ZHIXUAN TERENCE,MR CHONG TENG YUAN,MADAM NG BEE LING,MADAM ONG LEE FONG,na,na,na,MARINE PARADE,EAST,GOVERNMENT-AIDED SCH,CO-ED SCHOOL,SINGLE SESSION,SECONDARY (S1-S4),Yes,Yes,No,No,CHINESE,na,na,1.30509154753048,103.891653229373,50 GOODMAN ROAD CHUNG CHENG HIGH SCHOOL (MAIN) SINGAPORE 439012
CHUNG CHENG HIGH SCHOOL (YISHUN),11 YISHUN STREET 61   ,768547,67587397,na,CCHBS@MOE.EDU.SG,KHATIB MRT,"Yishun Street 61 (opposite school) - 812; Yishun Ave 2 - 39, 85, 117, 851, 852, 853, 854, 855, 857, 858, 860, 965, 969",MR CHIA GUO HAO,MR WOO LEE YEN,MR CHEONG WING FOOK MELVIN,na,na,na,na,YISHUN,NORTH,GOVERNMENT-AIDED SCH,CO-ED SCHOOL,SINGLE SESSION,SECONDARY (S1-S5),No,No,No,No,CHINESE,MALAY,TAMIL,1.41922603586175,103.837390782849,11 YISHUN STREET 61 CHUNG CHENG HIGH SCHOOL (YISHUN) SINGAPORE 768547
CLEMENTI PRIMARY SCHOOL,8 CLEMENTI AVE 3   ,129903,67732898,na,CLEMENTI_PS@MOE.EDU.SG,Clementi MRT Station,We are just beside Clementi Bus Interchange.,MR VIMALENTHIRAN S/O VIJAYASINGAM,MADAM KHOO HENG OI CATHERINE,MADAM LEE SWEE MEI CHERYL,MADAM LOW TAN YING,MS TUNG AI JUI,na,na,CLEMENTI,WEST,GOVERNMENT SCHOOL,CO-ED SCHOOL,SINGLE SESSION,PRIMARY,No,No,No,No,CHINESE,MALAY,TAMIL,1.31506321827875,103.763144493687,8 CLEMENTI AVENUE 3 CLEMENTI PRIMARY SCHOOL SINGAPORE 129903
CLEMENTI TOWN SECONDARY SCHOOL,10 CLEMENTI AVE 3   ,129904,67789543,na,CTSS@MOE.EDU.SG,CLEMENTI MRT,"14, 105, 106, 147, 156, 165, 166, 173, 175, 184, 196, 282, 284, 285, 7, 96, 99",MADAM RASIDAH BTE RAHIM,MISS HUANG KEXIN,MR NG PING HWEE,na,na,na,na,CLEMENTI,WEST,GOVERNMENT SCHOOL,CO-ED SCHOOL,SINGLE SESSION,SECONDARY (S1-S5),No,No,No,No,CHINESE,MALAY,TAMIL,1.31553912945073,103.762020598524,10 CLEMENTI AVENUE 3 CLEMENTI TOWN SECONDARY SCHOOL SINGAPORE 129904
COMMONWEALTH SECONDARY SCHOOL,698 WEST COAST ROAD   ,608784,65645204,na,CWSS@MOE.EDU.SG,"JURONG EAST MRT, CLEMENTI MRT","30, 51, 78, 79, 143, 143M, 176, 201",MR ANG KAY YONG JEREMY,MRS CLAIRE TAN SHI YING,MR DANIEL ONG POH SOON,na,na,na,na,JURONG EAST,WEST,GOVERNMENT SCHOOL,CO-ED SCHOOL,SINGLE SESSION,SECONDARY (S1-S5),No,Yes,No,No,CHINESE,MALAY,TAMIL,1.31920395934801,103.745637393049,698 WEST COAST ROAD COMMONWEALTH SECONDARY SCHOOL SINGAPORE 608784
COMPASSVALE PRIMARY SCHOOL,21 COMPASSVALE ST   ,545091,63882798,na,CVPS@MOE.EDU.SG,Sengkang,"83 (along Compassvale Street); 27, 89, 89E & 965 (along Compassvale Road).",MR VINCENT LEE WEI YEE,MRS MARIA KOH,MR CHIN WENG KIT KELVIN,MR KHOU BENG CHEW,na,na,na,SENG KANG,NORTH,GOVERNMENT SCHOOL,CO-ED SCHOOL,SINGLE SESSION,PRIMARY,No,No,No,No,CHINESE,MALAY,TAMIL,1.39444529636566,103.897812229905,21 COMPASSVALE STREET COMPASSVALE PRIMARY SCHOOL SINGAPORE 545091
COMPASSVALE SECONDARY SCHOOL,51 COMPASSVALE CRESCENT   ,545083,68815998,na,CVSS@MOE.EDU.SG,"SENGKANG MRT, COMPASSVALE LRT","27, 27A, 82,  83,  86,  88,  89, 89E, 136, 161, 371, 965",MR CHUA TUNG KIAN,MADAM LEE WUI LIN JACQUELINE,MR SUKHDEV SINGH S/O GURDEEP SINGH,na,na,na,na,SENG KANG,NORTH,GOVERNMENT SCHOOL,CO-ED SCHOOL,SINGLE SESSION,SECONDARY (S1-S5),No,No,No,No,CHINESE,MALAY,TAMIL,1.39614083952009,103.899847164494,51 COMPASSVALE CRESCENT COMPASSVALE SECONDARY SCHOOL SINGAPORE 545083
CONCORD PRIMARY SCHOOL,3 CHOA CHU KANG AVE 4   ,689814,67632452,na,CONCORD_PS@MOE.EDU.SG,Choa Chu Kang MRT Station,Bus 300 and 983,MDM CHUA LENG YIN,MADAM GOH PUAY HOON JENNY,MADAM SALBIAH BTE ABAS,MR LEE ENG LOO,na,na,na,CHOA CHU KANG,WEST,GOVERNMENT SCHOOL,CO-ED SCHOOL,SINGLE SESSION,PRIMARY,No,No,No,No,CHINESE,MALAY,TAMIL,1.38000806197242,103.736225440727,3 CHOA CHU KANG AVENUE 4 CONCORD PRIMARY SCHOOL SINGAPORE 689814
CORPORATION PRIMARY SCHOOL,31 JURONG WEST STREET 24   ,648347,67957098,na,CPS@MOE.EDU.SG,BOON LAY STATION; LAKESIDE STATION,"157 (from Boon Lay Interchange), or 185",MR MUHAMMAD FADYLLA B RASHIMAN,MDM GOH MUI EE,MADAM NG SEOW WEI JOSEPHINE,na,na,na,na,JURONG WEST,WEST,GOVERNMENT SCHOOL,CO-ED SCHOOL,SINGLE SESSION,PRIMARY,No,No,No,No,CHINESE,MALAY,TAMIL,1.35099779872539,103.707593724342,31 JURONG WEST STREET 24 CORPORATION PRIMARY SCHOOL SINGAPORE 648347
CRESCENT GIRLS' SCHOOL,357 TANGLIN ROAD   ,247961,64741248,na,CRESCENTGIRL@MOE.EDU.SG,REDHILL MRT,"32, 111, 122, 132, 51, 139, 186, 970",MISS LOW SHIOK CHENG CINDY,MRS TAY PO LIN,MISS USHA JEYARAJAH,MR LIM HAN CHEE,na,na,na,BUKIT MERAH,SOUTH,GOVERNMENT SCHOOL,GIRLS' SCHOOL,SINGLE SESSION,SECONDARY (S1-S4),No,Yes,No,No,CHINESE,MALAY,TAMIL,1.29331947077104,103.817544461755,357 TANGLIN ROAD CRESCENT GIRLS' SCHOOL SINGAPORE 247961
CREST SECONDARY SCHOOL,561 JURONG EAST STREET 24   ,609561,68992668,na,info@crestsec.edu.sg,"BUKIT BATOK MRT, JURONG EAST MRT","41, 52, 98, 98M, 105, 176, 183, 187, 188, 188R, 333, 502, 868, 990",MR KWOK CHIN POH BENJAMIN,MR TEH TUAN ANN,MADAM LEE KEE MENG,MR OTHMAN ARSAN BIN MOHD ABUBAKAR,na,na,na,JURONG EAST,WEST,SPECIALISED SCHOOL,CO-ED SCHOOL,SINGLE SESSION,SECONDARY (S1-S4),No,No,No,No,CHINESE,MALAY,TAMIL,1.3431198045076,103.742628105304,561 JURONG EAST STREET 24 CREST SECONDARY SCHOOL SINGAPORE 609561
DAMAI PRIMARY SCHOOL,52 BEDOK RESERVOIR CRESCENT   ,479226,64499681,na,DAMAI_PS@MOE.EDU.SG,Bedok North MRT Station,"Bus 228,66,65,22,21,5 and 506",MRS LEONG- TAN LING LING JENNY,MADAM LIM PECK CHIN YENLYN,MR MOHAMED JURAIMI BIN ABDUL MUHIN,na,na,na,na,BEDOK,EAST,GOVERNMENT SCHOOL,CO-ED SCHOOL,SINGLE SESSION,PRIMARY,No,No,No,No,CHINESE,MALAY,TAMIL,1.33546106800406,103.921270169613,52 BEDOK RESERVOIR CRESCENT DAMAI PRIMARY SCHOOL SINGAPORE 479226
DAMAI SECONDARY SCHOOL,4800 BEDOK RESERVOIR ROAD   ,479229,64425629,na,DAMAI_SS@MOE.EDU.SG,"BEDOK RESERVOIR MRT, BEDOK MRT, TAMPINES MRT","5, 21, 22, 59, 65, 66, 228, 506, CT18",MADAM CHAN WAN SIONG,MR NG CHENG KEONG,MADAM PREMLATHA D/O SELVARAJ,na,na,na,na,BEDOK,EAST,GOVERNMENT SCHOOL,CO-ED SCHOOL,SINGLE SESSION,SECONDARY (S1-S5),No,No,No,No,CHINESE,MALAY,TAMIL,1.33692798510393,103.927091653438,4800 BEDOK RESERVOIR ROAD DAMAI SECONDARY SCHOOL SINGAPORE 479229
DAZHONG PRIMARY SCHOOL,35 BUKIT BATOK STREET 31   ,659441,65636421,na,DAZHONG_PS@MOE.EDU.SG,Bukit Gombak,"187, 188",MR CHRIS LOH KAI MUN,MR KOH KAH HOCK,MRS LIM SEOW KHIM MRS BOEY- LIM SEOW KHIM,MISS TAN HUI YAH,na,na,na,BUKIT BATOK,WEST,GOVERNMENT SCHOOL,CO-ED SCHOOL,SINGLE SESSION,PRIMARY,No,No,No,No,CHINESE,MALAY,TAMIL,1.3591797447277,103.74847210784,35 BUKIT BATOK STREET 31 DAZHONG PRIMARY SCHOOL SINGAPORE 659441
DE LA SALLE SCHOOL,11 Choa Chu Kang St 52   ,689285,67622075,na,DLSS@MOE.EDU.SG,YEW TEE MRT,"TIBS 302, 979",MADAM CHERYL CHOO SHUEH-LI,MISS CECILIA TAN LI HUA,MISS LIU JIAZHEN ADELINE,na,na,na,na,CHOA CHU KANG,WEST,GOVERNMENT-AIDED SCH,CO-ED SCHOOL,SINGLE SESSION,PRIMARY,No,No,No,No,CHINESE,MALAY,TAMIL,1.3947078296399,103.743201812831,11 CHOA CHU KANG STREET 52 DE LA SALLE SCHOOL SINGAPORE 689285
DEYI SECONDARY SCHOOL,1 ANG MO KIO STREET 42   ,569277,64583364,na,DEYI_SS@MOE.EDU.SG,ANG MO KIO MRT,"22, 24, 25, 45, 50, 55, 73, 74, 76, 88, 132, 135, 159, 162, 165, 261, 262, 268, 652, 853",MR CHOW WEISI,MR APOLLOS INDUCHOODAN PILLAI,MISS CHIANG HUIMIN,na,na,na,na,ANG MO KIO,SOUTH,GOVERNMENT SCHOOL,CO-ED SCHOOL,SINGLE SESSION,SECONDARY (S1-S5),No,No,No,No,CHINESE,MALAY,TAMIL,1.36599702567717,103.852545772422,1 ANG MO KIO STREET 42 DEYI SECONDARY SCHOOL SINGAPORE 569277
DUNEARN SECONDARY SCHOOL,21 BUKIT BATOK WEST AVENUE 2   ,659204,65668650,na,DUNEARN_SS@MOE.EDU.SG,"BUKIT BATOK MRT, BUKIT GOMBAK MRT","160, 180, 187, 188, 945, 947, 985",MADAM SOH BENG MUI,MR LEE KAH SIONG JIMMY,YAP KWEE CHYE,na,na,na,na,BUKIT BATOK,WEST,GOVERNMENT SCHOOL,CO-ED SCHOOL,SINGLE SESSION,SECONDARY (S1-S5),No,No,No,No,CHINESE,MALAY,TAMIL,1.36357900792871,103.74472109107,21 BUKIT BATOK WEST AVENUE 2 DUNEARN SECONDARY SCHOOL SINGAPORE 659204
DUNMAN HIGH SCHOOL,10 TANJONG RHU ROAD   ,436895,63442316,na,DHS@MOE.EDU.SG,"KATONG PARK MRT,ALJUNIED MRT, KALLANG MRT, MOUNTBATTEN MRT,","12, 14, 30, 158, 196",MR CHAN YING YIN,MADAM LEONG SOOK HING,MR MELVIN NG YONG HUI,MR PUAH YOU KAI,MR ONG QIU JIE,na,na,KALLANG,EAST,GOVERNMENT SCHOOL,CO-ED SCHOOL,SINGLE SESSION,MIXED LEVEL (S1-JC2),Yes,Yes,Yes,Yes,CHINESE,na,na,1.29996216014962,103.88294155989,10 TANJONG RHU ROAD DUNMAN HIGH SCHOOL SINGAPORE 436895
DUNMAN SECONDARY SCHOOL,21 TAMPINES STREET 45   ,529093,67842164,na,DUNMAN_SS@MOE.EDU.SG,TAMPINES EAST MRT,"28, 29, 293",MR TOH THIAM CHYE,MR FATHUL RAHMAN BIN KAMSANI,MISS PRIYA PRASAD,na,na,na,na,TAMPINES,EAST,GOVERNMENT SCHOOL,CO-ED SCHOOL,SINGLE SESSION,SECONDARY (S1-S5),No,Yes,No,No,CHINESE,MALAY,TAMIL,1.36065258337022,103.956213906966,21 TAMPINES STREET 45 DUNMAN SECONDARY SCHOOL SINGAPORE 529093
EAST SPRING PRIMARY SCHOOL,31 TAMPINES ST 33   ,529258,67866649,na,ESPS@MOE.EDU.SG,Tampines,"291, 28,18",MADAM NEO LAY WAH,MADAM FAZILAH MARICAR D/O MD ALI M,MS NG HUI ENG,na,na,na,na,TAMPINES,EAST,GOVERNMENT SCHOOL,CO-ED SCHOOL,SINGLE SESSION,PRIMARY,No,No,No,No,CHINESE,MALAY,TAMIL,1.35268400746357,103.961676849165,31 TAMPINES STREET 33 EAST SPRING PRIMARY SCHOOL SINGAPORE 529258
EAST SPRING SECONDARY SCHOOL,30 TAMPINES STREET 34   ,529231,65873804,na,ESSS@MOE.EDU.SG,"TAMPINES MRT, TAMPINES EAST MRT","3, 4, 9, 12, 17, 18, 19, 21, 28, 29, 34, 37, 39, 59, 81, 291, 518",MISS HO SUSIE,MR LIM PIA LEONG,MR KOH CHEE HUI,MR PHAY CHYE HOCK ADRIAN,na,na,na,TAMPINES,EAST,GOVERNMENT SCHOOL,CO-ED SCHOOL,SINGLE SESSION,SECONDARY (S1-S5),No,No,No,No,CHINESE,MALAY,TAMIL,1.35622508992581,103.960640700298,30 TAMPINES STREET 34 EAST SPRING SECONDARY SCHOOL SINGAPORE 529231
EDGEFIELD PRIMARY SCHOOL,41 EDGEFIELD PLAINS   ,828869,63126093,na,edgefield_ps@moe.edu.sg,Punggol MRT,"3, 34, 62, 82, 83, 136",MADAM RABIATHUL BAZRIYA D/O ABU BAKAR,MR YAP LIH MIN SAMUEL,MS TAN PEY SAN,TEH CHONG ANN,na,na,na,PUNGGOL,EAST,GOVERNMENT SCHOOL,CO-ED SCHOOL,SINGLE SESSION,PRIMARY,No,No,No,No,CHINESE,MALAY,TAMIL,1.40009139510996,103.907847599114,41 EDGEFIELD PLAINS EDGEFIELD PRIMARY SCHOOL SINGAPORE 828869
EDGEFIELD SECONDARY SCHOOL,36 PUNGGOL FIELD   ,828814,63153120,na,edgefield_ss@moe.edu.sg,PUNGGOL MRT,"3, 34, 62, 82, 83, 119, 136, 381, 382G",MR FOO JUNG HIN SIMON,MR BENSON TEO HONG GUAN (ZHANG HONGYUAN),MR HOW PUI SENG,na,na,na,na,PUNGGOL,EAST,GOVERNMENT SCHOOL,CO-ED SCHOOL,SINGLE SESSION,SECONDARY (S1-S5),No,No,No,No,CHINESE,MALAY,TAMIL,1.40059309981824,103.902687385465,36 PUNGGOL FIELD EDGEFIELD SECONDARY SCHOOL SINGAPORE 828814
ELIAS PARK PRIMARY SCHOOL,11 PASIR RIS STREET 52   ,518866,65844392,na,EPPS@MOE.EDU.SG,Pasir Ris MRT,"3, 15, 39, 53, 81, 88, 89, 357, 403, 518",MADAM CHUA PEI PEI,MR HO FU CHEW,PEH BEE KUAN,na,na,na,na,PASIR RIS,EAST,GOVERNMENT SCHOOL,CO-ED SCHOOL,SINGLE SESSION,PRIMARY,No,No,No,No,CHINESE,MALAY,TAMIL,1.37505696315817,103.945289416873,11 PASIR RIS STREET 52 AFTERSCHOOL @ ELIAS PARK PRIMARY SCHOOL SINGAPORE 518866
ENDEAVOUR PRIMARY SCHOOL,10 Admiralty Link   ,757521,64824670,na,endeavour_ps@moe.edu.sg,Sembawang MRT Station,"859, 962",MR KOH KIAN SENG THOMAS,MADAM CHUA HUI PIN,MISS FAUZIAH DAUD,MISS CELESTE LOH SHI MIN,na,na,na,SEMBAWANG,NORTH,GOVERNMENT SCHOOL,CO-ED SCHOOL,SINGLE SESSION,PRIMARY,No,No,No,No,CHINESE,MALAY,TAMIL,1.45403837499301,103.817436231731,10 ADMIRALTY LINK ENDEAVOUR PRIMARY SCHOOL SINGAPORE 757521
EUNOIA JUNIOR COLLEGE,2 Sin Ming Place   ,573838,63518399,na,eunoiajc@moe.edu.sg,"Bishan MRT Station, Marymount MRT Station, Ang Mo Kio MRT Station, Bright Hill MRT Station","13, 52, 74, 88, 130, 410G, 410W, 851, 852",MR TAN ENG HIAN ANDREW,MDM NEW YI CHEEN,MADAM PHUA KIA LING,na,na,na,na,BISHAN,NORTH,GOVERNMENT SCHOOL,CO-ED SCHOOL,FULL DAY,JUNIOR COLLEGE,No,No,No,Yes,CHINESE,MALAY,TAMIL,1.36213757183547,103.841286169122,2 SIN MING PLACE EUNOIA JUNIOR COLLEGE SINGAPORE 573838
EVERGREEN PRIMARY SCHOOL,31 WOODLANDS CIRCLE   ,738908,63688084,na,EVERGREEN_PS@MOE.EDU.SG,Admiralty,"913(front), 911 & 858(back)",MR JEFFREY AW,MR BOH CHUAN XIANG,MADAM ONG HWEE LENG,MR CHENG YOU NENG,na,na,na,WOODLANDS,NORTH,GOVERNMENT SCHOOL,CO-ED SCHOOL,SINGLE SESSION,PRIMARY,No,No,No,No,CHINESE,MALAY,TAMIL,1.44415332824735,103.794577787757,31 WOODLANDS CIRCLE EVERGREEN PRIMARY SCHOOL SINGAPORE 738908
EVERGREEN SECONDARY SCHOOL,11 WOODLANDS STREET 83   ,738489,63658083,na,EVERGREEN_SS@MOE.EDU.SG,WOODLANDS MRT,911,MS BIAN YU WEI,MR LIM KANGYU,MADAM TAY CHOR HWEE,na,na,na,na,WOODLANDS,NORTH,GOVERNMENT SCHOOL,CO-ED SCHOOL,SINGLE SESSION,SECONDARY (S1-S5),No,No,No,No,CHINESE,MALAY,TAMIL,1.44149131273737,103.794137756171,11 WOODLANDS STREET 83 EVERGREEN SECONDARY SCHOOL SINGAPORE 738489
FAIRFIELD METHODIST SCHOOL (PRIMARY),100 DOVER ROAD   ,139648,67762948,na,FMPS@MOE.EDU.SG,"One-North MRT, Buona Vista MRT & Dover MRT","SBS Bus 14,33,74,166 & 196",MADAM WONG MEI FOONG,MR HO KOK SOON,MADAM QUEK TSUI LAN PRISCA,MR KNG WEE BENG,na,na,na,QUEENSTOWN,SOUTH,GOVERNMENT-AIDED SCH,CO-ED SCHOOL,SINGLE SESSION,PRIMARY,No,No,No,No,CHINESE,MALAY,TAMIL,1.30100441916733,103.785455606827,100 DOVER ROAD COMMIT LEARNING SCHOOLHOUSE @ FAIRFIELD METHODIST SCHOOL (PRIMARY) SINGAPORE 139648
FAIRFIELD METHODIST SCHOOL (SECONDARY),102 DOVER ROAD   ,139649,67797482,na,FMSS@MOE.EDU.SG,"BUONA VISTA MRT, ONE-NORTH MRT","33, 74, 166, 196",MR WEE TAT CHUEN,MR JEROMY NGIAN KUN CHUAN,MISS STELLA KOH LI HUI,MADAM CHUA JIAYIN,na,na,na,QUEENSTOWN,SOUTH,GOVERNMENT-AIDED SCH,CO-ED SCHOOL,SINGLE SESSION,SECONDARY (S1-S5),No,Yes,No,No,CHINESE,MALAY,TAMIL,1.30163374395823,103.784099647149,102 DOVER ROAD FAIRFIELD METHODIST SCHOOL (SECONDARY) SINGAPORE 139649
FARRER PARK PRIMARY SCHOOL,2 FARRER PARK ROAD   ,217567,62942272,na,FPPS@MOE.EDU.SG,Farrer Park MRT Station,131,"MR YAP SWEE BENG, DENNIS",MADAM RAHIMA BTE ABDUL RAHMAN,MR YONG WEI LEONG,na,na,na,na,KALLANG,SOUTH,GOVERNMENT SCHOOL,CO-ED SCHOOL,SINGLE SESSION,PRIMARY,No,No,No,No,CHINESE,MALAY,TAMIL,1.31236867681371,103.850766402965,2 FARRER PARK ROAD FARRER PARK PRIMARY SCHOOL SINGAPORE 217567
FENGSHAN PRIMARY SCHOOL,307 BEDOK NORTH ROAD   ,469680,65860122,na,FSPS@MOE.EDU.SG,Bedok MRT,"18, 228, 222, 17, 69, 66, 67, 168, 28, 506, 14, 45",MISS WONG LIANG- JI TABITHA,MADAM LAI KAI CHING,MS SIEW GEOK LING (SHAO YULING),na,na,na,na,BEDOK,EAST,GOVERNMENT SCHOOL,CO-ED SCHOOL,SINGLE SESSION,PRIMARY,No,No,No,No,CHINESE,MALAY,TAMIL,1.32980598760785,103.931710293058,307 BEDOK NORTH ROAD FENGSHAN PRIMARY SCHOOL SINGAPORE 469680
FERN GREEN PRIMARY SCHOOL,70 Fernvale Link   Fern Green Primary School,797538,68343116,na,ferngreen_ps@moe.edu.sg,Kupang LRT Station (SW3),"85, 102",na,MADAM KYLICIA SOO GEOK LING,MISS CHOW CHIA MIN AGNES,"MADAM QUEK HWEE PENG, ANDREA (GUO HUIPING, ANDREA)",na,na,na,SENG KANG,NORTH,GOVERNMENT SCHOOL,CO-ED SCHOOL,SINGLE SESSION,PRIMARY,No,No,No,No,CHINESE,MALAY,TAMIL,1.39726966050479,103.880330305684,70 FERNVALE LINK FERN GREEN PRIMARY SCHOOL SINGAPORE 797538
FERNVALE PRIMARY SCHOOL,1 Fernvale Lane   ,797701,63153067,na,fernvale_ps@moe.edu.sg,Fernvale LRT (Sengkang West Loop),"Along Sengkang West Ave - Bus Services 50, 163; Along Yio Chu Kang Road - Bus Services 70, 86, 103 and 854.",MR LAU ENOCH,MISS YAP AI LI,MR RAMESH MUKUNDHAN,MR KEVIN PATT,na,na,na,SENG KANG,NORTH,GOVERNMENT SCHOOL,CO-ED SCHOOL,SINGLE SESSION,PRIMARY,No,No,No,No,CHINESE,MALAY,TAMIL,1.39030227963797,103.874445458032,1 FERNVALE LANE FERNVALE PRIMARY SCHOOL SINGAPORE 797701
FIRST TOA PAYOH PRIMARY SCHOOL,7 LORONG 8 TOA PAYOH   ,319252,62561102,na,FTPPS@MOE.EDU.SG,Braddell & Toa Payoh Stations,"157,153,105,159,88,FS238",MADAM JENNIFER HAN ENG JUAN,MR KOH PENG YEOW,MS TAY YAM ENG,na,na,na,na,TOA PAYOH,SOUTH,GOVERNMENT SCHOOL,CO-ED SCHOOL,SINGLE SESSION,PRIMARY,No,No,No,No,CHINESE,MALAY,TAMIL,1.34032299499938,103.855529906182,7 LORONG 8 TOA PAYOH FIRST TOA PAYOH PRIMARY SCHOOL SINGAPORE 319252
FRONTIER PRIMARY SCHOOL,20 Jurong West Street 61   ,648200,67908596,na,frontier_ps@moe.edu.sg,Pioneer MRT Station (EW28),"241, 974, 179",MADAM LEE YEW KOON TONNINE,MADAM CHAN YEE CHIN WILNA,MADAM WONG SHI-LEI,MR ANG BOON CHIN,na,na,na,JURONG WEST,WEST,GOVERNMENT SCHOOL,CO-ED SCHOOL,SINGLE SESSION,PRIMARY,No,No,No,No,CHINESE,MALAY,TAMIL,1.33641298743234,103.69970173931,20 JURONG WEST STREET 61 FRONTIER PRIMARY SCHOOL SINGAPORE 648200
FUCHUN PRIMARY SCHOOL,23 WOODLANDS AVENUE 1   ,739063,63670117,na,FCPS@MOE.EDU.SG,Marsiling,"187,856,912,925,950,960,961,963,963E,963R,966",MADAM EUNICE LIM,MR SUDHESH VASU DASH,MR TAN CHIN KEE,na,na,na,na,WOODLANDS,NORTH,GOVERNMENT SCHOOL,CO-ED SCHOOL,SINGLE SESSION,PRIMARY,No,No,No,No,CHINESE,MALAY,TAMIL,1.43047990810126,103.778192944298,23 WOODLANDS AVENUE 1 FUCHUN PRIMARY SCHOOL SINGAPORE 739063
FUHUA PRIMARY SCHOOL,65 JURONG EAST STREET 13   ,609647,65639542,na,FHPS@MOE.EDU.SG,JURONG EAST MRT STATION,"JURONG EAST CENTRAL (BS28441): 41,49,52,105,160,160A,160M,176,183,334,506; JURONG EAST CENTRAL (BS28431):51,66,78,79,143, 143M, 176, 335",MR GANESAN S/O RAMAN,MADAM SEOW SWEE NEO CHRISTINA,MS SAIMA HANIF D/O MOHAMED HANIF,na,na,na,na,JURONG EAST,WEST,GOVERNMENT SCHOOL,CO-ED SCHOOL,SINGLE SESSION,PRIMARY,No,No,No,No,CHINESE,MALAY,TAMIL,1.33659726465816,103.736089481883,65 JURONG EAST STREET 13 AMP-MERCU STUDENT CARE CENTRE @ FUHUA PRIMARY SCHOOL SINGAPORE 609647
FUHUA SECONDARY SCHOOL,5 JURONG WEST STREET 41   ,649410,65634379,na,FHSS@MOE.EDU.SG,"CHINESE GARDEN MRT, LAKESIDE MRT","49, 98, 99, 157, 180, 185, 187, 198, 334, 335, 502, 657",MRS LIM CAROL,MR CHNG PUAY KEONG,MISS PEH LEE CHIN,na,na,na,na,JURONG WEST,WEST,GOVERNMENT SCHOOL,CO-ED SCHOOL,SINGLE SESSION,SECONDARY (S1-S5),No,No,No,No,CHINESE,MALAY,TAMIL,1.34701408913756,103.72652089832,5 JURONG WEST STREET 41 FUHUA SECONDARY SCHOOL SINGAPORE 649410
GAN ENG SENG PRIMARY SCHOOL,100 REDHILL CLOSE   ,158901,64794152,na,GESPS@MOE.EDU.SG,Redhill,"14, 63, 147, 196, 197, 855, 961","MR LEE WEI YAP, ROY",MR KYAW SAW LYNN,MADAM WONG SEOK GHEE,na,na,na,na,BUKIT MERAH,SOUTH,GOVERNMENT SCHOOL,CO-ED SCHOOL,SINGLE SESSION,PRIMARY,No,No,No,No,CHINESE,MALAY,TAMIL,1.28559516494962,103.815547410064,100 REDHILL CLOSE GAN ENG SENG PRIMARY SCHOOL SINGAPORE 158901
GAN ENG SENG SCHOOL,1 HENDERSON ROAD   ,159561,64732479,na,GESS@MOE.EDU.SG,"REDHILL MRT, TIONG BAHRU MRT","14, 16, 32, 33, 51, 63, 64, 120, 122, 145, 139, 186, 851, 970",MISS TAN HWEE PIN,MADAM SARAWATHY D/O VARADARAJU,MR TAN TZE JWEE GLYNN,MR GOH THYE HENG,na,na,na,BUKIT MERAH,SOUTH,GOVERNMENT SCHOOL,CO-ED SCHOOL,SINGLE SESSION,SECONDARY (S1-S5),No,No,No,No,CHINESE,MALAY,TAMIL,1.28559516494962,103.815547410064,100 REDHILL CLOSE GAN ENG SENG PRIMARY SCHOOL SINGAPORE 158901
GEYLANG METHODIST SCHOOL (PRIMARY),4 Geylang East Central   ,389706,67488980,na,GMPS@MOE.EDU.SG,Aljunied,"80, 134, 155",MADAM LEONG BENG YUET DAPHNE,MR LUA EE PING,MADAM SHARON CHANTALE KOK YENG LING,na,na,na,na,GEYLANG,EAST,GOVERNMENT-AIDED SCH,CO-ED SCHOOL,SINGLE SESSION,PRIMARY,No,No,No,No,CHINESE,MALAY,TAMIL,1.31759126757284,103.883845744916,4 GEYLANG EAST CENTRAL GEYLANG METHODIST SCHOOL (PRIMARY) SINGAPORE 389706
GEYLANG METHODIST SCHOOL (SECONDARY),2 GEYLANG EAST CENTRAL   ,389705,67477317,na,GMSS@MOE.EDU.SG,ALJUNIED MRT,"40, 62, 63, 80, 100, 125, 134, 155, 158",MR OWYONG TUCK SING VICTOR,MR JOHN WU YIFAN,MISS TAY HUI CHENG,na,na,na,na,GEYLANG,EAST,GOVERNMENT-AIDED SCH,CO-ED SCHOOL,SINGLE SESSION,SECONDARY (S1-S5),No,No,No,No,CHINESE,MALAY,TAMIL,1.31764900474601,103.882661129303,2 GEYLANG EAST CENTRAL GEYLANG METHODIST SCHOOL (SECONDARY) SINGAPORE 389705
GONGSHANG PRIMARY SCHOOL,1 TAMPINES STREET 42   ,529176,67880004,na,GSPS@MOE.EDU.SG,Tampines (Downtown Line and East West Line) and Tampines East (Downtown Line),"4, 8, 18, 19, 21, 37, 38, 81, 293",MRS STELLA KWAN,MDM NORA BTE OSMAN,MRS YIO YEN LING SELINA,MR FONG WAI KHIN,na,na,na,TAMPINES,EAST,GOVERNMENT SCHOOL,CO-ED SCHOOL,SINGLE SESSION,PRIMARY,No,No,No,No,CHINESE,MALAY,TAMIL,1.35711606790292,103.949144797277,1 TAMPINES STREET 42 COMMIT LEARNING SCHOOLHOUSE @ GONGSHANG PRIMARY SCHOOL SINGAPORE 529176
GREENDALE PRIMARY SCHOOL,50 Edgedale Plains   ,828848,68861419,na,greendale_ps@moe.edu.sg,Punggol LRT:  Coral Edge,"3,62, 83, 85, 386",MADAM NOORISMAWATY BTE ISMAIL,MR SIM CHIN BENG WILSON,MR CHING KIN HIN,na,na,na,na,PUNGGOL,EAST,GOVERNMENT SCHOOL,CO-ED SCHOOL,SINGLE SESSION,PRIMARY,No,No,No,No,CHINESE,MALAY,TAMIL,1.39648195114256,103.91233462071,50 EDGEDALE PLAINS GREENDALE PRIMARY SCHOOL SINGAPORE 828848
GREENDALE SECONDARY SCHOOL,51 EDGEDALE PLAINS   ,828866,63158420,na,greendale_ss@moe.edu.sg,"PUNGGOL MRT, MERIDIAN LRT","3, 62, 83, 85, 136, 386",MR SULAIMAN B MOHAMAD YUSOF,MRS YU WEN YEN ANNE MRS ANNE CHAN,MR CHIA KENG HWEE,na,na,na,na,PUNGGOL,EAST,GOVERNMENT SCHOOL,CO-ED SCHOOL,SINGLE SESSION,SECONDARY (S1-S5),No,No,No,No,CHINESE,MALAY,TAMIL,1.39696019936894,103.91170014084,51 EDGEDALE PLAINS GREENDALE SECONDARY SCHOOL SINGAPORE 828866
GREENRIDGE PRIMARY SCHOOL,11 JELAPANG ROAD   ,677744,67620189,na,GRPS@MOE.EDU.SG,"Senja LRT station, Jelapang LRT Station","Bus 920, 922, 972",MADAM ONG FEI MIN,MR WONG SUNG LAI,MR ANG KONG BENG ANDY,na,na,na,na,BUKIT PANJANG,WEST,GOVERNMENT SCHOOL,CO-ED SCHOOL,SINGLE SESSION,PRIMARY,No,No,No,No,CHINESE,MALAY,TAMIL,1.3858892193692,103.767794469258,11 JELAPANG ROAD GREENRIDGE PRIMARY SCHOOL SINGAPORE 677744
GREENRIDGE SECONDARY SCHOOL,31 Gangsa Road   ,678972,na,na,GRSS@MOE.EDU.SG,"Bukit Panjang MRT, Bukit Panjang LRT, Petir LRT","65, 75, 170, 170A, 171, 176, 177, 178, 180, 180A, 920, 922, 960, 961, 963, 963E, 963R, 970, 972, 972A, 972, 972A, 972M, 973, 973A, 974, 975, 976, 979, 983",MR NG BOON KIAT,MRS DALINA BTE ABDULLAH,MR NGOH SING KIEN,na,na,na,na,BUKIT PANJANG,WEST,GOVERNMENT SCHOOL,CO-ED SCHOOL,SINGLE SESSION,SECONDARY (S1-S5),No,No,No,No,CHINESE,MALAY,TAMIL,1.375600053,103.763998914082,31 GANGSA ROAD GREENRIDGE SECONDARY SCHOOL SINGAPORE 678972
GREENWOOD PRIMARY SCHOOL,11 WOODLANDS  DR  62   ,737942,63666159,na,GREENWOOD_PS@MOE.EDU.SG,Admiralty MRT Station,"912, 913, 962",MADAM TANG PEI LU TRICILIA,MR KIRUPANANTHA KUMAR S/O PALAIYAN,MR LEE HUAN SIAK,MR TAN KAR WEE,na,na,na,WOODLANDS,NORTH,GOVERNMENT SCHOOL,CO-ED SCHOOL,SINGLE SESSION,PRIMARY,No,No,No,No,CHINESE,MALAY,TAMIL,1.43989958331782,103.804725587384,11 WOODLANDS DRIVE 62 GREENWOOD PRIMARY SCHOOL SINGAPORE 737942
GUANGYANG SECONDARY SCHOOL,8 BISHAN STREET 12   ,579807,63543108,na,GYSS@MOE.EDU.SG,BISHAN MRT,"13, 56, 57, 59, 71, 88, 93, 157, 163, 410",MISS TAN KE XIN,MR HAN WEE FONG (HAN WEIFENG),MISS WU XINPING JENNIFER,MR ANBALAGAN S/O THANGARAJAH,na,na,na,BISHAN,SOUTH,GOVERNMENT SCHOOL,CO-ED SCHOOL,SINGLE SESSION,SECONDARY (S1-S5),No,No,No,No,CHINESE,MALAY,TAMIL,1.34440856042912,103.850208933626,8 BISHAN STREET 12 GUANGYANG SECONDARY SCHOOL SINGAPORE 579807
HAI SING CATHOLIC SCHOOL,15 PASIR RIS STREET 21   ,518969,65822543,na,HSHS@MOE.EDU.SG,PASIR RIS MRT,"3, 5, 6, 89, 109",MISS LIM MUI MUI ADELINE,MISS SHEREEN WONG MINGRUI,"MADAM TAN PHUAY BOON, GWEN",MR KONG WEI FOONG,na,na,na,PASIR RIS,EAST,GOVERNMENT-AIDED SCH,CO-ED SCHOOL,SINGLE SESSION,SECONDARY (S1-S5),No,No,No,No,CHINESE,MALAY,TAMIL,1.36933055696636,103.962762942764,15 PASIR RIS STREET 21 HAI SING CATHOLIC SCHOOL (TILL 31 DEC 2025) SINGAPORE 518969
HAIG GIRLS' SCHOOL,51 Koon Seng Road   ,427072,64474169,na,HAIGGIRLSSCH@MOE.EDU.SG,"Eunos, Dakota","16,33",MS MARION DONNE TAY SZE LENG (ZHENG SHILING),MADAM GOH SWEE LIN EVELYN,MISS SEAH XIAO YUN SHERLYN,na,na,na,na,GEYLANG,EAST,GOVERNMENT SCHOOL,GIRLS' SCHOOL,SINGLE SESSION,PRIMARY,No,No,No,No,CHINESE,MALAY,TAMIL,1.31194344271383,103.902902557195,51 KOON SENG ROAD HAIG GIRLS' SCHOOL SINGAPORE 427072
HENRY PARK PRIMARY SCHOOL,1 HOLLAND GROVE ROAD   ,278790,64691840,na,HPPS@MOE.EDU.SG,"Buona Vista MRT, Clementi MRT","7, 61, 75, 156, 157, 165, 92",MR CHAN GEOK ANN CHARLES,MR CHUA CHYE HOCK,MRS JEAN TOH,MISS REGINA KIM LEE HOON,na,na,na,BUKIT TIMAH,WEST,GOVERNMENT SCHOOL,CO-ED SCHOOL,SINGLE SESSION,PRIMARY,No,No,Yes,No,CHINESE,MALAY,TAMIL,1.31667646178347,103.784296227747,1 HOLLAND GROVE ROAD HENRY PARK PRIMARY SCHOOL SINGAPORE 278790
HILLGROVE SECONDARY SCHOOL,10 BUKIT BATOK STREET 52   ,659250,65630920,na,HILLGROVE_SS@MOE.EDU.SG,"BUKIT BATOK MRT, BUKIT GOMBAK MRT","176, 985, 945",MADAM LEE CHING GUAN HELEN,MR ADAM BIN AHMAD,CHIANG HOCK YEE,na,na,na,na,BUKIT BATOK,WEST,GOVERNMENT SCHOOL,CO-ED SCHOOL,SINGLE SESSION,SECONDARY (S1-S5),No,No,No,No,CHINESE,MALAY,TAMIL,1.35273576615912,103.752986488399,10 BUKIT BATOK STREET 52 HILLGROVE SECONDARY SCHOOL SINGAPORE 659250
HOLY INNOCENTS' HIGH SCHOOL,1191 UPPER SERANGOON ROAD   ,534786,62831737,na,HIHS@MOE.EDU.SG,HOUGANG MRT,"27, 72, 74, 80, 87, 89, 101, 107, 113, 116, 119, 132, 136, 147, 153, 161, 165, 324, 325",MRS REBECCA CHEW,MISS CAROL ANN MARTIN,"MR TEO HAN WOON, DENNIS",MADAM ONG LEE LEE,na,na,na,HOUGANG,SOUTH,GOVERNMENT-AIDED SCH,CO-ED SCHOOL,SINGLE SESSION,SECONDARY (S1-S5),No,No,No,No,CHINESE,MALAY,TAMIL,1.37154508822261,103.896398814264,1191 UPPER SERANGOON ROAD HOLY INNOCENTS' HIGH SCHOOL SINGAPORE 534786
HOLY INNOCENTS' PRIMARY SCHOOL,5 Lorong Low Koon   ,536451,62876393,na,HOLYINNOCENT@MOE.EDU.SG,2km walk to Hougang MRT,"51,72,80,101,119,132,136,153.",MISS SEET ENG GEOK LENA,MADAM TOO SIEW HAN JOYCE,MADAM GOH HUI CHENG,MR NG CHEONG ANN,na,na,na,HOUGANG,SOUTH,GOVERNMENT-AIDED SCH,CO-ED SCHOOL,SINGLE SESSION,PRIMARY,Yes,No,No,No,CHINESE,na,na,1.36693830877349,103.894114899795,5 LORONG LOW KOON HOLY INNOCENTS' PRIMARY SCHOOL SINGAPORE 536451
HONG WEN SCHOOL,30 TOWNER ROAD   ,327829,62937625,na,HWS@MOE.EDU.SG,Boon Keng MRT,"Serangoon Road: 13, 23, 31, 64, 65, 66, 125, 133, 147, 857, 985; Balestier Road: 21, 125, 130, 139, 145",MRS THERESA HONG-NG,MR ONG SZE CHONG,MISS TEO AI LIN,MADAM CHRISTINE POON TZE MEI,na,na,na,KALLANG,SOUTH,GOVERNMENT-AIDED SCH,CO-ED SCHOOL,SINGLE SESSION,PRIMARY,Yes,No,No,No,CHINESE,na,na,1.32175999964553,103.857628468881,30 TOWNER ROAD HONG WEN SCHOOL SINGAPORE 327829
HORIZON PRIMARY SCHOOL,61 Edgedale Plains   ,828819,67523971,na,horizon_ps@moe.edu.sg,Punggol MRT Station (NE17); (LRT: Kadaloor [PE5] or Oasis [PE6]),"3, 50, 83, 85, 569",MADAM CHIA HUI KHIM,"MISS SEET SIEW LIN, PAMELA",MADAM SENTHIL POONKODI D/O R K,MR PHANG CHEE KHENG,na,na,na,PUNGGOL,EAST,GOVERNMENT SCHOOL,CO-ED SCHOOL,SINGLE SESSION,PRIMARY,No,No,No,No,CHINESE,MALAY,TAMIL,1.399550034,103.913404855665,61 EDGEDALE PLAINS HORIZON PRIMARY SCHOOL SINGAPORE 828819
HOUGANG PRIMARY SCHOOL,1 HOUGANG ST 93   ,534238,64897446,na,HOUGANG_PS@MOE.EDU.SG,"Ang Mo Kio, Buangkok, Hougang, Sengkang, Yio Chu Kang","SBS 43, 72, 88, 101, 109, 116, 156, 159, 325, 329","MR GOH WAI MIN, JASON",MISS LIEW PANG HAI,MADAM SHARIFAH FAIRUZ BTE S Y A,MADAM LIM SIEW GIM,na,na,na,HOUGANG,NORTH,GOVERNMENT SCHOOL,CO-ED SCHOOL,SINGLE SESSION,PRIMARY,No,No,No,No,CHINESE,MALAY,TAMIL,1.37738245231461,103.880805274557,1 HOUGANG STREET 93 HOUGANG PRIMARY SCHOOL SINGAPORE 534238
HOUGANG SECONDARY SCHOOL,2 HOUGANG STREET 93   ,534256,63852015,na,HOUGANG_SS@MOE.EDU.SG,"HOUGANG MRT, BUANGKOK MRT","43, 88, 101, 109, 156, 159, 161, 325, 329",MR LEE THUAN SIM,MR LIM SOON WAI,MR TAY YUAN ZHUANG,na,na,na,na,HOUGANG,NORTH,GOVERNMENT SCHOOL,CO-ED SCHOOL,SINGLE SESSION,SECONDARY (S1-S5),No,No,No,No,CHINESE,MALAY,TAMIL,1.37764019332164,103.882533963338,2 HOUGANG STREET 93 HOUGANG SECONDARY SCHOOL SINGAPORE 534256
HUA YI SECONDARY SCHOOL,60 JURONG WEST ST 42   ,649371,65634505,na,HYSS@MOE.EDU.SG,"LAKESIDE MRT, CHINESE GARDEN MRT","49, 98, 98B, 98M, 99, 157, 185, 187, 198, 198A, 334, 335, 502",DR. LIM SIEW YEE,MADAM TAN KAY BIN,MR NG JOO KOON,na,na,na,na,JURONG WEST,WEST,GOVERNMENT SCHOOL,CO-ED SCHOOL,SINGLE SESSION,SECONDARY (S1-S5),No,No,No,No,CHINESE,MALAY,TAMIL,1.35234365488339,103.721832320169,60 JURONG WEST STREET 42 HUA YI SECONDARY SCHOOL SINGAPORE 649371
HUAMIN PRIMARY SCHOOL,21 YISHUN AVENUE 11   ,768857,67552455,na,HUAMIN_PS@MOE.EDU.SG,Yishun MRT Station,"806, 804",MADAM LOE LAI PINK,MADAM BALAKRISHNAN CORINNE ANNE,MR HONG CHIN KEAT,MR LEE LIN CHIEH,na,na,na,YISHUN,NORTH,GOVERNMENT SCHOOL,CO-ED SCHOOL,SINGLE SESSION,PRIMARY,No,No,No,No,CHINESE,MALAY,TAMIL,1.42697284512936,103.844240226564,21 YISHUN AVENUE 11 HUAMIN PRIMARY SCHOOL SINGAPORE 768857
HWA CHONG INSTITUTION,661 BUKIT TIMAH ROAD   ,269734,67695857,na,admin@hci.edu.sg,TAN KAH KEE MRT,"66, 67, 74, 151, 154, 156, 157, 170, 170A, 174, 852, 961, 961M",MR LEE PECK PING,MR CHAN KWOK LEONG,MRS CHIN-LEOW BEE KUAN,MISS HO PING PING,DR LIM HONG SENG MELVYN,MISS HOW LAI YIN DEBORAH,MDM LIM MIAU TENG CHERYL,BUKIT TIMAH,WEST,INDEPENDENT SCHOOL,CO-ED SCHOOL,SINGLE SESSION,MIXED LEVEL (S1-JC2),Yes,No,Yes,Yes,CHINESE,na,na,1.32588867455552,103.800747204253,673 BUKIT TIMAH ROAD HWA CHONG INSTITUTION SINGAPORE 269735
INNOVA PRIMARY SCHOOL,80 Woodlands Drive 17   ,737888,68942573,na,innova_pri@moe.edu.sg,Woodlands,"900A (weekdays only - 7.00 am to 8.30 am & 4.30 pm to 6.30 pm), 901",MR YEE YEW LOONG,MR LAU YEAN HUI,na,na,na,na,na,WOODLANDS,NORTH,GOVERNMENT SCHOOL,CO-ED SCHOOL,SINGLE SESSION,PRIMARY,No,No,No,No,CHINESE,MALAY,TAMIL,1.42896700684852,103.790607539185,80 WOODLANDS DRIVE 17 INNOVA PRIMARY SCHOOL SINGAPORE 737888
JIEMIN PRIMARY SCHOOL,2 YISHUN STREET 71   ,768515,67559958,na,JIEMIN_PS@MOE.EDU.SG,Yishun MRT Station,"167, 169, 171, 800, 811, 812, 856, 858, 859, 969, 980",MR ANDY MICKEY CHOONG TEK CHOY,MRS NUR FATIMAH BTE ABDUL MALIK MRS NUR FATIMAH FRAUDER,MISS WONG KAH WAN JOY,na,na,na,na,YISHUN,NORTH,GOVERNMENT SCHOOL,CO-ED SCHOOL,SINGLE SESSION,PRIMARY,No,No,No,No,CHINESE,MALAY,TAMIL,1.42768847665227,103.830425490093,2 YISHUN STREET 71 JIEMIN PRIMARY SCHOOL SINGAPORE 768515
JING SHAN PRIMARY SCHOOL,5 ANG MO KIO ST 52   ,569228,64581619,na,JSPS@MOE.EDU.SG,Ang Mo Kio MRT,Bus 265,MADAM BOEY HUEY PENG SHARON,MISS NG SUAT THENG ANGELA,MR JONATHON LOH,MISS LIM EE LENG ELLEN,na,na,na,ANG MO KIO,SOUTH,GOVERNMENT SCHOOL,CO-ED SCHOOL,SINGLE SESSION,PRIMARY,No,No,No,No,CHINESE,MALAY,TAMIL,1.37223290983498,103.852132214306,5 ANG MO KIO STREET 52 JING SHAN PRIMARY SCHOOL SINGAPORE 569228
JUNYUAN PRIMARY SCHOOL,2 Tampines Street 91   ,528906,67887395,na,JUNYUAN_PS@MOE.EDU.SG,Tampines West (Downtown Line); Tampines (East-West Line),"76281: 46, 65, 129; 76061: 10, 15, 20, 21, 23, 27, 31, 34, 39, 67, 168, 292; 75051: 5, 8, 15, 18, 21, 23, 28, 59, 67, 118, 168, 513, 518",MR CHAN WENG CHEONG,MRS CHEANG MENG TSING,MADAM CHUT SHI LIN,MR WILLIAM CHUE WAI LEONG,na,na,na,TAMPINES,EAST,GOVERNMENT SCHOOL,CO-ED SCHOOL,SINGLE SESSION,PRIMARY,No,No,No,No,CHINESE,MALAY,TAMIL,1.34787074766746,103.939221709073,2 TAMPINES STREET 91 JUNYUAN PRIMARY SCHOOL SINGAPORE 528906
JUNYUAN SECONDARY SCHOOL,11 TAMPINES STREET 84   ,528933,na,na,JUNYUAN_SS@MOE.EDU.SG,"TAMPINES MRT, TAMPINES WEST MRT","69, 291, 293, 46",MR TAY MENG KIAT,MR LIN PEI,MR GAN THIAM SOON ALLAN,na,na,na,na,TAMPINES,EAST,GOVERNMENT SCHOOL,CO-ED SCHOOL,SINGLE SESSION,SECONDARY (S1-S5),No,No,No,No,CHINESE,MALAY,TAMIL,1.35361315263537,103.933886165824,11 TAMPINES STREET 84 JUNYUAN SECONDARY SCHOOL SINGAPORE 528933
JURONG PIONEER JUNIOR COLLEGE,21 Teck Whye Walk   ,688258,67651861,na,jpjc@moe.edu.sg,Choa Chu Kang / Bt Panjang / Phoenix Station (LRT),"975, 190, 985",MR KEVIN ANG,MRS LEE BEE CHEOW,MR NAH HONG LEONG,MR POW TIEN MIN JARON,MR PHUA YONG SWEE,na,na,CHOA CHU KANG,WEST,GOVERNMENT SCHOOL,CO-ED SCHOOL,FULL DAY,JUNIOR COLLEGE,No,No,No,No,CHINESE,MALAY,TAMIL,1.38437406410733,103.75437461519,21 TECK WHYE WALK JURONG PIONEER JUNIOR COLLEGE SINGAPORE 688258
JURONG PRIMARY SCHOOL,320 JURONG EAST Street 32   ,609476,65641964,na,JPS@MOE.EDU.SG,"Lakeside MRT Station, Jurong East MRT Station",333,MR LEONARD CHUA,MISS TAN PEIRU,MR TAN YUAN SHIN,na,na,na,na,JURONG EAST,WEST,GOVERNMENT SCHOOL,CO-ED SCHOOL,SINGLE SESSION,PRIMARY,No,No,No,No,CHINESE,MALAY,TAMIL,1.34843859698946,103.733156566858,320 JURONG EAST STREET 32 JURONG PRIMARY SCHOOL SINGAPORE 609476
JURONG SECONDARY SCHOOL,31 YUAN CHING ROAD   ,618652,62686414,na,JURONG_SS@MOE.EDU.SG,LAKESIDE MRT,"30, 49, 98, 154, 240, 246",MISS YEO SIOK EE,MADAM LER SIAH WOON JULIA,MR LU YEOW CHOR,na,na,na,na,JURONG WEST,WEST,GOVERNMENT SCHOOL,CO-ED SCHOOL,SINGLE SESSION,SECONDARY (S1-S5),No,No,No,No,CHINESE,MALAY,TAMIL,1.33002032220942,103.723952961648,31 YUAN CHING ROAD JURONG SECONDARY SCHOOL SINGAPORE 618652
JURONG WEST PRIMARY SCHOOL,30 JURONG WEST ST 61   ,648368,67936593,na,JWPS@MOE.EDU.SG,Pioneer MRT Station,192,MRS CHRISTINA LIM LAY LENG,MADAM SIM EE KOON PATRICIA,MISS TAN WAN KHENG,MR LIM CHIN GUAN,na,na,na,JURONG WEST,WEST,GOVERNMENT SCHOOL,CO-ED SCHOOL,SINGLE SESSION,PRIMARY,No,No,No,No,CHINESE,MALAY,TAMIL,1.33917519796104,103.698803732244,30 JURONG WEST STREET 61 JURONG WEST PRIMARY SCHOOL SINGAPORE 648368
JURONG WEST SECONDARY SCHOOL,61 JURONG WEST STREET 65   ,648348,62623587,na,JWSS@MOE.EDU.SG,"BOON LAY MRT, PIONEER MRT","30, 154, 157, 180, 187, 198, 242",MISS TAN MING MING,MS TAN JIING SHYUAN,MDM ZARINA BINTE AMIR,na,na,na,na,JURONG WEST,WEST,GOVERNMENT SCHOOL,CO-ED SCHOOL,SINGLE SESSION,SECONDARY (S1-S5),No,No,No,No,CHINESE,MALAY,TAMIL,1.33525634688323,103.702098904443,61 JURONG WEST STREET 65 JURONG WEST SECONDARY SCHOOL SINGAPORE 648348
JURONGVILLE SECONDARY SCHOOL,202 JURONG EAST AVENUE 1   ,609790,65662137,na,JURONGVILLE@MOE.EDU.SG,"JURONG EAST MRT, LAKESIDE MRT","98, 98M, 99, 157, 185, 187, 198, 334, 502",MR LEOW ZHI WEN PHILIBERT,MR YONG KEK SHOONG,MISS IBAIDAH BINTE IBRAHIM,na,na,na,na,JURONG EAST,WEST,GOVERNMENT SCHOOL,CO-ED SCHOOL,SINGLE SESSION,SECONDARY (S1-S5),No,No,No,No,CHINESE,MALAY,TAMIL,1.35128862770284,103.728907710089,202 JURONG EAST AVENUE 1 JURONGVILLE SECONDARY SCHOOL SINGAPORE 609790
JUYING SECONDARY SCHOOL,33 JURONG WEST STREET 91   ,649038,67932835,na,JUYING_SS@MOE.EDU.SG,"BOON LAY MRT, PIONEER MRT, JOO KOON MRT","99, 241",MR ANG CHERN KWANG,MR NG HAN MING,MR CHUA YEW WEI,na,na,na,na,JURONG WEST,WEST,GOVERNMENT SCHOOL,CO-ED SCHOOL,SINGLE SESSION,SECONDARY (S1-S5),No,No,No,No,CHINESE,MALAY,TAMIL,1.3387227734133,103.687310264575,33 JURONG WEST STREET 91 JUYING SECONDARY SCHOOL SINGAPORE 649038
MEE TOH SCHOOL,21 EDGEDALE PLAINS   ,828867,64893243,na,MEETOH_SCH@MOE.EDU.SG,Punggol Station,"3,62,83,381",MR TAY HSIEN CHUAN KELVIN,MISS HUANG YILAN LYNNE,MR LEE CHONG TART RONALD,MR NG KOK HENG,na,na,na,PUNGGOL,NORTH,GOVERNMENT-AIDED SCH,CO-ED SCHOOL,SINGLE SESSION,PRIMARY,No,No,No,No,CHINESE,MALAY,TAMIL,1.3946184538592,103.908589494228,21 EDGEDALE PLAINS MEE TOH SCHOOL SINGAPORE 828867
KEMING PRIMARY SCHOOL,90 BUKIT BATOK EAST AVENUE 6   ,659762,65632356,na,KMPS@MOE.EDU.SG,Bukit Batok,"61,66,77,106,157,174,178,963",MRS MRS YAP DAI JEE,MS LEOW MEI LENG (LIU MEICEN),MISS NG MEI YUN,na,na,na,na,BUKIT BATOK,WEST,GOVERNMENT SCHOOL,CO-ED SCHOOL,SINGLE SESSION,PRIMARY,No,No,No,No,CHINESE,MALAY,TAMIL,1.34552849960874,103.756449399351,90 BUKIT BATOK EAST AVENUE 6 KEMING PRIMARY SCHOOL SINGAPORE 659762
KENT RIDGE SECONDARY SCHOOL,147 WEST COAST ROAD   ,127368,67735119,na,KRSS@MOE.EDU.SG,"CLEMENTI MRT, HAW PAR VILLA MRT","30, 51, 143, 175, 176, 201, 282",MADAM GOH MIEN HUI VALERIE,MADAM YAP SHARON,"MR POH LEONG BERG, ALBERT",na,na,na,na,CLEMENTI,WEST,GOVERNMENT SCHOOL,CO-ED SCHOOL,SINGLE SESSION,SECONDARY (S1-S5),No,No,No,No,CHINESE,MALAY,na,1.30122773426098,103.764889617566,147 WEST COAST ROAD KENT RIDGE SECONDARY SCHOOL SINGAPORE 127368
KHENG CHENG SCHOOL,15 LORONG 3 TOA PAYOH   ,319580,62556569,na,KCS@MOE.EDU.SG,Braddell,"SBS 235,56,73,88,157,159,163,231,",MADAM TAN HUILING CHERYL,MR KHOO GHEE HAN,MR PUN KIAN PENG,na,na,na,na,TOA PAYOH,SOUTH,GOVERNMENT-AIDED SCH,CO-ED SCHOOL,SINGLE SESSION,PRIMARY,No,No,No,No,CHINESE,MALAY,TAMIL,1.3373381935639,103.847148501824,15 LORONG 3 TOA PAYOH KHENG CHENG SCHOOL SINGAPORE 319580
KONG HWA SCHOOL,350 GUILLEMARD ROAD   ,399772,63421120,na,KONGHWA_SCH@MOE.EDU.SG,Dakota,"Service 7,70,70M,197(to Guillemard Road)",MR POON SIOW LENG RAYMOND,MADAM UE TAY SZE YIN,MADAM TEO SIEW KHIM,MADAM NG BEE HOON,na,na,na,GEYLANG,EAST,GOVERNMENT-AIDED SCH,CO-ED SCHOOL,SINGLE SESSION,PRIMARY,Yes,No,No,No,CHINESE,na,na,1.31099674009193,103.888352029067,350 GUILLEMARD ROAD KONG HWA SCHOOL SINGAPORE 399772
KRANJI PRIMARY SCHOOL,11 CHOA CHU KANG STREET 54   ,689189,67634568,na,KRANJI_PS@MOE.EDU.SG,Yew Tee MRT,"Bus No 307, 302",MADAM GOH MEEI YUNN,MR SATHYA PRASAD S/O G,MADAM WONG SEOW LING,MADAM LEE LENG HUI (LI LINGHUI),na,na,na,CHOA CHU KANG,WEST,GOVERNMENT SCHOOL,CO-ED SCHOOL,SINGLE SESSION,PRIMARY,No,No,No,No,CHINESE,MALAY,TAMIL,1.39356050497104,103.747362720939,11 CHOA CHU KANG STREET 54 KRANJI PRIMARY SCHOOL SINGAPORE 689189
KRANJI SECONDARY SCHOOL,61 CHOA CHU KANG STREET 51   ,689333,67662095,na,KRANJI_SS@MOE.EDU.SG,"CHOA CHU KANG MRT, YEW TEE MRT","302, 974, 979",MR CHUA LEK HONG,MR KOO TIANNUO,MADAM ONG LAY LING,na,na,na,na,CHOA CHU KANG,WEST,GOVERNMENT SCHOOL,CO-ED SCHOOL,SINGLE SESSION,SECONDARY (S1-S5),No,No,No,No,CHINESE,MALAY,TAMIL,1.39005109871311,103.741190664845,61 CHOA CHU KANG STREET 51 KRANJI SECONDARY SCHOOL SINGAPORE 689333
KUO CHUAN PRESBYTERIAN PRIMARY SCHOOL,8 BISHAN STREET 13   ,579793,62588012,na,KCPPS@MOE.EDU.SG,Bishan MRT Station,"54, 56, 410, 410G",MADAM YEE-TOH GEK KHIAW,MISS LIN HUIXIN SHARON,MR TAN CHIN HENG,na,na,na,na,BISHAN,SOUTH,GOVERNMENT-AIDED SCH,CO-ED SCHOOL,SINGLE SESSION,PRIMARY,No,No,No,No,CHINESE,MALAY,TAMIL,1.34978223750981,103.85452928785,8B BISHAN STREET 13 KUO CHUAN PRESBYTERIAN PRIMARY SCHOOL SINGAPORE 579802
KUO CHUAN PRESBYTERIAN SECONDARY SCHOOL,10 BISHAN STREET 13   ,579795,63536535,na,KCPSS@MOE.EDU.SG,BISHAN MRT,"54, 56, 410G, 410W",MR JUSTIN TAN,MADAM LEE CHUI ENG,MR EKA TANU,MR PHANG TECK KING,na,na,na,BISHAN,SOUTH,GOVERNMENT-AIDED SCH,CO-ED SCHOOL,SINGLE SESSION,SECONDARY (S1-S5),No,No,No,No,CHINESE,MALAY,TAMIL,1.35017129930314,103.854983746416,10 BISHAN STREET 13 KUO CHUAN PRESBYTERIAN SECONDARY SCHOOL SINGAPORE 579795
LAKESIDE PRIMARY SCHOOL,161 Corporation Walk   ,618310,62621021,na,lakeside_ps@moe.edu.sg,Lakeside MRT,"30, 49, 98, 98M",MADAM YAP SIU LIN,MISS HAN MINGFANG CHARMAIN,MISS TAN HUI PING,MADAM CHUA LENG LENG (CAI LINGLING),na,na,na,JURONG WEST,WEST,GOVERNMENT SCHOOL,CO-ED SCHOOL,SINGLE SESSION,PRIMARY,No,No,No,No,CHINESE,MALAY,TAMIL,1.33820397704287,103.718089546664,161 CORPORATION WALK LAKESIDE PRIMARY SCHOOL SINGAPORE 618310
LIANHUA PRIMARY SCHOOL,2 BUKIT BATOK STREET 52   ,659243,65639591,na,LIANHUA_PS@MOE.EDU.SG,Bukit Gombak/Bukit Batok,945,MISS KIEW HUI LI PAMELA,MADAM MAVIS SIEW SOOK LING,MADAM TAN WAN PHING JANICE,"MR LEE TZE WEI, JEFFREY",na,na,na,BUKIT BATOK,WEST,GOVERNMENT SCHOOL,CO-ED SCHOOL,SINGLE SESSION,PRIMARY,No,No,No,No,CHINESE,MALAY,TAMIL,1.35424191127295,103.754165828711,2 BUKIT BATOK STREET 52 LIANHUA PRIMARY SCHOOL SINGAPORE 659243
LOYANG VIEW SECONDARY SCHOOL,12 PASIR RIS STREET 11   ,519073,65810557,na,loyangview_ss@moe.edu.sg,PASIR RIS MRT,"12, 21, 39, 53, 81, 109, 359, 518",MR LIN YUCHENG EUGENE,MS SAADIAH SAADON WYLDE,MADAM TAN SHAO MAY,MISS LIEW XUE TING ADELINE,na,na,na,PASIR RIS,EAST,GOVERNMENT SCHOOL,CO-ED SCHOOL,SINGLE SESSION,SECONDARY (S1-S5),No,No,No,No,CHINESE,MALAY,TAMIL,1.36658417167238,103.956944585725,12 PASIR RIS STREET 11 LOYANG VIEW SECONDARY SCHOOL SINGAPORE 519073
MAHA BODHI SCHOOL,10 UBI AVENUE 1   ,408931,67443752,na,MBS@MOE.EDU.SG,"Eunos Station (Transfer Bus No.63, 63M); Ubi Station (Transfer Bus No. 137)","5,8,15,22,25,45,51,55,59,61,63,63M,65,66,93,94,137,854",MADAM TENG LAI KWAN,MR WEE HOCK MENG VICTOR,MR YE JIAMING AARON,MADAM LENG BING LING (LIANG BINGLING),na,na,na,GEYLANG,EAST,GOVERNMENT-AIDED SCH,CO-ED SCHOOL,SINGLE SESSION,PRIMARY,Yes,No,No,No,CHINESE,na,na,1.32858023873554,103.901306904157,10 UBI AVENUE 1 AFTER SCHOOL @ MAHA BODHI SCHOOL SINGAPORE 408931
MANJUSRI SECONDARY SCHOOL,20 UBI AVENUE 1   ,408940,67454492,na,MANJUSRI_SS@MOE.EDU.SG,"UBI MRT, MACPHERSON MRT","5, 8, 15, 22, 25, 45, 51, 55, 59, 61, 63, 63M, 65, 66, 93, 94, 137, 854",MR SIM CHONG BOON,MR LIN JUNKAI,MR GOH PAI SHEN,na,na,na,na,GEYLANG,EAST,GOVERNMENT-AIDED SCH,CO-ED SCHOOL,SINGLE SESSION,SECONDARY (S1-S5),No,No,No,No,CHINESE,MALAY,na,1.32747123084846,103.901719963831,20 UBI AVENUE 1 MANJUSRI SECONDARY SCHOOL SINGAPORE 408940
MARIS STELLA HIGH SCHOOL,25 MOUNT VERNON ROAD   ,368051,62886905 (Sec),62827905 (Pri),MSH@MOE.EDU.SG,BARTLEY MRT,"28, 93, 129, 158",MR BOY ENG SENG,MRS LIM QING YI,MR PAN JINGLIU,MR TAN CHING HUAT,MDM ANG CHWEE YING PEARLY,MR LEE KO YONG,na,TOA PAYOH,NORTH,GOVERNMENT-AIDED SCH,BOYS' SCHOOL,SINGLE SESSION,MIXED LEVEL (P1-S4),Yes,Yes,No,No,CHINESE,na,na,1.34138832211757,103.877823816158,25 MOUNT VERNON ROAD MARIS STELLA HIGH SCHOOL SINGAPORE 368051
MARSILING PRIMARY SCHOOL,31 WOODLANDS CENTRE ROAD   ,738927,62699050,na,MARSILING_PS@MOE.EDU.SG,Marsiling MRT Station,"856, 911, 912",MADAM HEATHER SIM SIAW CHENG,MR JACKSON KEK,na,na,na,na,na,WOODLANDS,NORTH,GOVERNMENT SCHOOL,CO-ED SCHOOL,SINGLE SESSION,PRIMARY,No,No,No,No,CHINESE,MALAY,TAMIL,1.43383904037059,103.773643013846,31 WOODLANDS CENTRE ROAD MARSILING PRIMARY SCHOOL SINGAPORE 738927
MARSILING SECONDARY SCHOOL,12 MARSILING ROAD   ,739110,68946156,na,MARSILING_SS@MOE.EDU.SG,MARSILING MRT,"913, 911",MR KOH YIAK KHENG,MR MOHAMED NASIM S/O ABDUL RAHIM,MR TAN TONG AIK,na,na,na,na,WOODLANDS,NORTH,GOVERNMENT SCHOOL,CO-ED SCHOOL,SINGLE SESSION,SECONDARY (S1-S5),No,No,No,No,CHINESE,MALAY,TAMIL,1.43664424769955,103.776008090454,12 MARSILING ROAD MARSILING SECONDARY SCHOOL SINGAPORE 739110
MARYMOUNT CONVENT SCHOOL,20 Marymount Road   ,297754,6254 3080,na,MMCS@MOE.EDU.SG,Braddell MRT Station or Caldecott MRT Station,"141, 235",MISS CHEONG HWEE KHIM,MRS HING SZE MEING DEBBIE (XING SIMIN DEBBIE),MADAM TAN MEI MEI ANNA,MR LOH YEH CHANG HENRY,na,na,na,TOA PAYOH,SOUTH,GOVERNMENT-AIDED SCH,GIRLS' SCHOOL,SINGLE SESSION,PRIMARY,No,No,No,No,CHINESE,MALAY,TAMIL,1.34036676987375,103.840021064426,20 MARYMOUNT ROAD MARYMOUNT CONVENT SCHOOL SINGAPORE 297754
MAYFLOWER PRIMARY SCHOOL,200 Ang Mo Kio Avenue 5   ,569878,64534116,na,MAYFLOWER_PS@MOE.EDU.SG,Yio Chu Kang MRT Station.,"13,86,138,162,269,851,852,853.",MISS CECILIA LIM SEOK CHENG,MADAM CHNG HWUI LIN WINEFREDE,MRS SANTHI D/O K RAMACHANDRAN,MR KWOK KENG LIAN,na,na,na,ANG MO KIO,SOUTH,GOVERNMENT SCHOOL,CO-ED SCHOOL,SINGLE SESSION,PRIMARY,No,No,No,No,CHINESE,MALAY,TAMIL,1.37637683547682,103.843252803742,200 ANG MO KIO AVENUE 5 MAYFLOWER PRIMARY SCHOOL SINGAPORE 569878
MAYFLOWER SECONDARY SCHOOL,2 ANG MO KIO STREET 21   ,569384,64583284,na,MAYFLOWER_SS@MOE.EDU.SG,"ANG MO KIO MRT, MAYFLOWER MRT","71, 76, 132, 165, 166, 169, 262, 265, 268, 269",MR LIM YU KEE,MR GOH KENG TENG,MR PRASHANT S/O JAYAPRAGAS,MADAM NUR HIDAYANI IBRAHIM,na,na,na,ANG MO KIO,SOUTH,GOVERNMENT SCHOOL,CO-ED SCHOOL,SINGLE SESSION,SECONDARY (S1-S5),No,No,No,No,CHINESE,MALAY,TAMIL,1.36827266209722,103.835360726863,2 ANG MO KIO STREET 21 MAYFLOWER SECONDARY SCHOOL SINGAPORE 569384
MERIDIAN PRIMARY SCHOOL,20 PASIR RIS ST 71   ,518798,65834993,na,MERIDIAN_PS@MOE.EDU.SG,Pasir Ris MRT Station,"3,359",MDM CHEW SIANG JIUN,MR LIM KIM MIN (LIN JINMIN),MR WANG TAI WEE,na,na,na,na,PASIR RIS,EAST,GOVERNMENT SCHOOL,CO-ED SCHOOL,SINGLE SESSION,PRIMARY,No,No,No,No,CHINESE,MALAY,TAMIL,1.37552831658484,103.934889078518,20 PASIR RIS STREET 71 MERIDIAN PRIMARY SCHOOL SINGAPORE 518798
MERIDIAN SECONDARY SCHOOL,31 PASIR RIS STREET 51   ,518901,65836467,na,meridian_sec@moe.edu.sg,PASIR RIS MRT,"39, 53, 81, 89, 109, 359, 403, 518",MR MOHAMED RAZALI B ABDUL HAMED,MISS TAN LI PING,MRS TAY NGEE SEEW,na,na,na,na,PASIR RIS,EAST,GOVERNMENT SCHOOL,CO-ED SCHOOL,SINGLE SESSION,SECONDARY (S1-S5),No,No,No,No,CHINESE,MALAY,TAMIL,1.3672468492013,103.948972483629,31 PASIR RIS STREET 51 MERIDIAN SECONDARY SCHOOL SINGAPORE 518901
METHODIST GIRLS' SCHOOL (PRIMARY),11 Blackmore Drive   ,599986,64624166,na,MGPS@MOE.EDU.SG,King Albert Park MRT,"66, 67, 74, 77, 151, 154, 157, 170, 171, 174, 852, 961, 970",KOH MING-LI VALARIE,MADAM YEOW CHERN EE,"MR TENG TAT MENG, CHARLES",na,na,na,na,BUKIT TIMAH,WEST,GOVERNMENT-AIDED SCH,GIRLS' SCHOOL,SINGLE SESSION,PRIMARY,No,No,No,No,CHINESE,MALAY,TAMIL,1.34947276268396,103.884971343143,298 LORONG AH SOO PAYA LEBAR METHODIST GIRLS' SCHOOL (PRIMARY) SINGAPORE 536741
METHODIST GIRLS' SCHOOL (SECONDARY),11 BLACKMORE DRIVE   ,599986,64698717,na,MGSS@MOE.EDU.SG,KING ALBERT PARK MRT,"66, 67, 74, 77, 151, 154, 157, 170, 174, 852, 961, 970",MADAM KOH MING- LI VALARIE,MADAM CHNG YI NA @MRS WRIGHT YI NA,MDM TAN P'ENG DIANA,MR YIP WAI CHOONG,na,na,na,BUKIT TIMAH,WEST,INDEPENDENT SCHOOL,GIRLS' SCHOOL,SINGLE SESSION,SECONDARY (S1-S4),No,No,No,Yes,CHINESE,MALAY,TAMIL,1.35096755912522,103.885120050588,296 LORONG AH SOO PAYA LEBAR METHODIST GIRLS' SCHOOL (SECONDARY) SINGAPORE 536742
MILLENNIA INSTITUTE,60 Bukit Batok West Avenue 8   ,658965,63023767,na,millennia_inst@moe.edu.sg,Bukit Batok (NS 2),"157, 174, 174e, 178, 506, 870, 941, 991, 993",MR LOO MING YAW,MR LIN GUOJING,MR TAN KENG CHEONG,MR DAVID ALLAN D'SOUZA,na,na,na,BUKIT BATOK,WEST,GOVERNMENT SCHOOL,CO-ED SCHOOL,FULL DAY,CENTRALISED INSTITUTE,No,No,No,No,CHINESE,MALAY,TAMIL,1.35031939200985,103.741593577684,60 BUKIT BATOK WEST AVENUE 8 MILLENNIA INSTITUTE SINGAPORE 658965
MONTFORT JUNIOR SCHOOL,52 HOUGANG AVENUE 8   ,538786,65101599,na,MONTFORT_JS@MOE.EDU.SG,Hougang MRT & Bus Interchange,"74,88,101,147,161,",MR TAN BOON HONG VICTOR,MADAM POH LEE SIEW,MR TAN WEE BOON,na,na,na,na,HOUGANG,NORTH,GOVERNMENT-AIDED SCH,BOYS' SCHOOL,SINGLE SESSION,PRIMARY,No,No,No,No,CHINESE,MALAY,TAMIL,1.37382444075979,103.889307782925,52 HOUGANG AVENUE 8 MONTFORT JUNIOR SCHOOL SINGAPORE 538786
MONTFORT SECONDARY SCHOOL,50 HOUGANG AVENUE 8   ,538785,63862804,na,MONTFORT_SS@MOE.EDU.SG,HOUGANG MRT,"74, 74e, 88, 88A, 101, 147, 147A, 161","MADAM HENG SUE LIN, JANICE",MR WILSON TAY SWEE KIAT,MISS TAN MEI LING AUDREY,MADAM TAN LAY YEN,na,na,na,HOUGANG,NORTH,GOVERNMENT-AIDED SCH,BOYS' SCHOOL,SINGLE SESSION,SECONDARY (S1-S5),No,No,No,No,CHINESE,MALAY,TAMIL,1.37396131656912,103.888928372577,50 HOUGANG AVENUE 8 MONTFORT SECONDARY SCHOOL SINGAPORE 538785
NAN CHIAU HIGH SCHOOL,20 ANCHORVALE LINK   ,545079,64897970,na,NCHS@MOE.EDU.SG,"SENGKANG MRT, RENJONG LRT, TONGKANG LRT","43, 83, 85, 109, 156, 159, 161, 163, 372",MADAM LER JIA LUEN,MADAM CHOW NYET YOON,DR. OH BEE LENG HESTER,na,na,na,na,SENG KANG,NORTH,GOVERNMENT-AIDED SCH,CO-ED SCHOOL,SINGLE SESSION,SECONDARY (S1-S5),Yes,No,No,No,CHINESE,na,na,1.38879582498399,103.890004423764,20 ANCHORVALE LINK NAN CHIAU HIGH SCHOOL SINGAPORE 545079
NAN CHIAU PRIMARY SCHOOL,50 ANCHORVALE LINK   ,545080,64897906,na,NCPS@MOE.EDU.SG,Sengkang Station,"156, 159, 161, 371, 372",MRS ONG LOH JIA MIIN,"MDM HOE QUEE HIANG, BELINDA",MADAM LIM SHEUE TYUG,MR WINSTON TAN WEE SING,na,na,na,SENG KANG,NORTH,GOVERNMENT-AIDED SCH,CO-ED SCHOOL,SINGLE SESSION,PRIMARY,No,No,No,No,CHINESE,MALAY,TAMIL,1.39221149906592,103.891180928186,50 ANCHORVALE LINK NAN CHIAU PRIMARY SCHOOL SINGAPORE 545080
NAN HUA HIGH SCHOOL,41 CLEMENTI AVENUE 1   ,129956,67751956,na,NHSS@MOE.EDU.SG,CLEMENTI MRT,"14, 33, 52, 78, 96, 97, 105, 106, 147, 151, 154, 165, 166, 183, 185, 188, 189, 196, 197, 198, 282, 285, 963",MR CHIEW JING WEN,MISS TAY JIA MING JASMINE,MR LOO JIAMING,MR LEE KOK BOON,na,na,na,CLEMENTI,WEST,GOVERNMENT SCHOOL,CO-ED SCHOOL,SINGLE SESSION,SECONDARY (S1-S5),Yes,Yes,No,No,CHINESE,na,na,1.30809529518605,103.768561446725,41 CLEMENTI AVENUE 1 NAN HUA HIGH SCHOOL SINGAPORE 129956
NAN HUA PRIMARY SCHOOL,30 Jalan Lempeng   ,128806,67784127,na,NHPS@MOE.EDU.SG,Clementi MRT Station,"30, 51, 143, 175, 201, 533, 655, 727, 762",MADAM PHUA YIN LIN GRACE,MISS TEH LAY CHOO ANNE,"MR LIM PENG YUAN, ANDY",na,na,na,na,CLEMENTI,WEST,GOVERNMENT-AIDED SCH,CO-ED SCHOOL,SINGLE SESSION,PRIMARY,Yes,No,Yes,No,CHINESE,na,na,1.31920159956387,103.761095065761,30 JALAN LEMPENG NAN HUA PRIMARY SCHOOL SINGAPORE 128806
NANYANG GIRLS' HIGH SCHOOL,2 LINDEN DRIVE   ,288683,64667564,na,NYGHS@MOE.EDU.SG,"SIXTH AVENUE MRT, TAN KAH KEE MRT","67, 74, 151, 154, 156, 157, 170, 174, 852, 961",MISS SIAU FONG FUI,MS NG MIEN MIEN AGNES,MISS GAYNOR TEH,MS TAN MEEI YEE MAE PAULINE,na,na,na,BUKIT TIMAH,WEST,INDEPENDENT SCHOOL,GIRLS' SCHOOL,SINGLE SESSION,SECONDARY (S1-S4),Yes,No,Yes,Yes,CHINESE,na,na,1.33058326666479,103.802420979943,2 LINDEN DRIVE NANYANG GIRLS' HIGH SCHOOL SINGAPORE 288683
NANYANG JUNIOR COLLEGE,128 SERANGOON AVENUE 3   ,556111,62855147,na,NYJC@MOE.EDU.SG,Lorong Chuan (Circle Line/CC14); 3-minute walk via sheltered walkway,"22, 24, 45, 53, 58, 73, 105, 109, 133, 135, 136, 156, 853",MR PANG CHOON HOW,MISS JASMINE ONG PEISHAN,MRS OH-YOW SIHUA KEN,MADAM CHAN MEI FUNG JOYCE,na,na,na,SERANGOON,SOUTH,GOVERNMENT-AIDED SCH,CO-ED SCHOOL,FULL DAY,JUNIOR COLLEGE,No,No,No,No,CHINESE,MALAY,TAMIL,1.35028314949236,103.866498721912,128 SERANGOON AVENUE 3 NANYANG JUNIOR COLLEGE SINGAPORE 556111
NANYANG PRIMARY SCHOOL,52 KING'S ROAD   ,268097,64686913,na,NYPS@MOE.EDU.SG,Farrer Rd MRT Station,"66, 67, 74, 93, 151, 153, 154, 156, 157, 165, 170, 171, 174, 186, 852, 855, 961",MADAM WONG LI PENG,MS LIM KAR WAE FIONA,MISS SHARLENE CHYE HUI TING,MR JAMES CHONG KOK CHIANG,na,na,na,BUKIT TIMAH,WEST,GOVERNMENT-AIDED SCH,CO-ED SCHOOL,SINGLE SESSION,PRIMARY,Yes,No,Yes,No,CHINESE,na,na,1.32084749904532,103.807750155296,52 KING'S ROAD NANYANG PRIMARY SCHOOL SINGAPORE 268097
NATIONAL JUNIOR COLLEGE,37 HILLCREST ROAD   ,288913,64684535,na,NJC@MOE.EDU.SG,"BOTANIC GARDENS MRT, TAN KAH KEE MRT, SIXTH AVENUE MRT","67, 74, 151, 154, 156, 157, 170, 174, 852, 961",MRS TOH LUCY,MR HARESH S/O SIVARAM,MISS SIM SOO LENG AILEEN,MR CHONG CHEE KEONG ALVIN,na,na,na,BUKIT TIMAH,SOUTH,GOVERNMENT SCHOOL,CO-ED SCHOOL,FULL DAY,MIXED LEVEL (S1-JC2),No,No,No,Yes,CHINESE,MALAY,TAMIL,1.33029291072172,103.804110905425,37 HILLCREST ROAD NATIONAL JUNIOR COLLEGE SINGAPORE 288913
NAVAL BASE PRIMARY SCHOOL,7 YISHUN AVE 4   ,769028,67555355,na,NBPS@MOE.EDU.SG,Yishun MRT Station,Feeder bus No. 811 from Yishun Interchange.,MR CHIA CHEE WENG RICHARD CHRIS,MADAM LIM WAI CHOO MRS GOH WAI CHOO,MADAM WANG MING HWEE,MADAM THAM LAI PENG,na,na,na,YISHUN,NORTH,GOVERNMENT SCHOOL,CO-ED SCHOOL,SINGLE SESSION,PRIMARY,No,No,No,No,CHINESE,MALAY,TAMIL,1.41630663159387,103.838794077233,7 YISHUN AVENUE 4 NAVAL BASE PRIMARY SCHOOL SINGAPORE 769028
NAVAL BASE SECONDARY SCHOOL,901 YISHUN RING ROAD   ,768689,67557706,na,NBSS@MOE.EDU.SG,KHATIB MRT,"39, 85, 117, 670, 807, 811, 812, 851, 852, 853, 854, 855, 857, 858, 861, 965, 969",MADAM LINDA YEO SOCK KHOON,MR LIM SEOW KUAN,MR MUHAMMAD SHAHARI B ABU BAKAR,na,na,na,na,YISHUN,NORTH,GOVERNMENT SCHOOL,CO-ED SCHOOL,SINGLE SESSION,SECONDARY (S1-S5),No,No,No,No,CHINESE,MALAY,TAMIL,1.41937881620441,103.831050390247,901 YISHUN RING ROAD NAVAL BASE SECONDARY SCHOOL SINGAPORE 768689
NEW TOWN PRIMARY SCHOOL,300 Tanglin Halt Road   ,148812,64741249,na,NTPS@MOE.EDU.SG,Commonwealth MRT Station,"SBS Numbers 32, 100, 105, 111, 145, 147, 195, 196, 198, 855",MISS HANNAH CHIA CUI'E,MRS CHIN WEY LING LYNNE,MADAM FOO HUEY YING (FU HUIYING),na,na,na,na,QUEENSTOWN,SOUTH,GOVERNMENT SCHOOL,CO-ED SCHOOL,SINGLE SESSION,PRIMARY,No,No,No,No,CHINESE,MALAY,TAMIL,1.29964188181021,103.80010216304,300 TANGLIN HALT ROAD NEW TOWN PRIMARY SCHOOL SINGAPORE 148812
NEW TOWN SECONDARY SCHOOL,1020 DOVER ROAD   ,139657,67752310,na,NTSS@MOE.EDU.SG,"DOVER MRT, CLEMENTI MRT","33, 96, 96A, 151, 196, 183",MR ARIVAZHAGAN MANICKAM,MISS GOH YI LING ELISSA,MR LEONARD TAN SOON TECK,na,na,na,na,QUEENSTOWN,WEST,GOVERNMENT SCHOOL,CO-ED SCHOOL,SINGLE SESSION,SECONDARY (S1-S5),No,No,No,No,CHINESE,MALAY,TAMIL,1.30977590011357,103.77318863421,1020 DOVER ROAD NEW TOWN SECONDARY SCHOOL SINGAPORE 139657
NGEE ANN PRIMARY SCHOOL,344 MARINE TERRACE   ,449149,64417411,na,NAPS@MOE.EDU.SG,Nil,"13, 16, 16M, 31,36, 43, 47, 48, 55, 135, 196, 196E, 197, 853M (at Marine Parade road); 13, 16, 16M, 196 and 196E(at Marine Terrace)",MADAM PANG SIU SAN,MADAM LEE LI LI,MADAM LOW LEE CHERN,na,na,na,na,MARINE PARADE,EAST,GOVERNMENT-AIDED SCH,CO-ED SCHOOL,SINGLE SESSION,PRIMARY,No,No,No,No,CHINESE,MALAY,TAMIL,1.30552505910497,103.917463017497,344 MARINE TERRACE NGEE ANN PRIMARY SCHOOL SINGAPORE 449149
NGEE ANN SECONDARY SCHOOL,1 TAMPINES STREET 32   ,529283,67840453,na,NASS@MOE.EDU.SG,"TAMPINES MRT, SIMEI MRT, TAMPINES EAST MRT","3, 4, 8, 9, 12, 17, 18, 19, 21, 28, 29, 34, 37, 38, 39, 59, 81, 291, 293, 518, 552",MISS POH SHI HUI,MR GOH CHIN WEI,MADAM TAN LAY GIN,na,na,na,na,TAMPINES,EAST,GOVERNMENT-AIDED SCH,CO-ED SCHOOL,SINGLE SESSION,SECONDARY (S1-S5),No,Yes,No,No,CHINESE,MALAY,TAMIL,1.35447525755806,103.956747262496,1 TAMPINES STREET 32 NGEE ANN SECONDARY SCHOOL SINGAPORE 529283
NORTH SPRING PRIMARY SCHOOL,1 RIVERVALE STREET   ,545088,63851044,na,NSPS@MOE.EDU.SG,NEL - Sengkang Station; LRT - Bakau Station,"SBS Transit Services 82, 85, 86, 88, 119, 136, 163, 372",MADAM PHAN SWEE LIN SHERIN JACINTA,MR TAN YEW LEE,MADAM SALIEMA BINTE MOHAMED IQBAL,na,na,na,na,SENG KANG,NORTH,GOVERNMENT SCHOOL,CO-ED SCHOOL,SINGLE SESSION,PRIMARY,No,No,No,No,CHINESE,MALAY,TAMIL,1.38706146494859,103.903202683028,1 RIVERVALE STREET NORTH SPRING PRIMARY SCHOOL SINGAPORE 545088
NORTH VIEW PRIMARY SCHOOL,210 YISHUN AVENUE 6   ,768960,67593237,na,NVPS@MOE.EDU.SG,Yishun; Khatib,"Feeder Service 804, 806, 807, 860",MRS GRACE CHUA,MR RAJINDER SINGH S/O PIARA SINGH,MADAM LING SOOK LENG,MR CHAN SOON HUA,na,na,na,YISHUN,NORTH,GOVERNMENT SCHOOL,CO-ED SCHOOL,SINGLE SESSION,PRIMARY,No,No,No,No,CHINESE,MALAY,TAMIL,1.42752327193727,103.848190787869,210 YISHUN AVENUE 6 NORTH VIEW PRIMARY SCHOOL SINGAPORE 768960
NORTH VISTA PRIMARY SCHOOL,20 Compassvale Link   ,544974,64843568,na,nvtps@moe.edu.sg,"Buangkok MRT (NE15), Ranggung LRT (SE5)",na,MR ONG LYE WHATT,MR AMRAN B TASRIF,MISS GOH AI LING,MADAM KANG SIEW LENG AUDREY,na,na,na,SENG KANG,NORTH,GOVERNMENT SCHOOL,CO-ED SCHOOL,SINGLE SESSION,PRIMARY,No,No,No,No,CHINESE,MALAY,TAMIL,1.38282243016299,103.895961877928,20 COMPASSVALE LINK NORTH VISTA PRIMARY SCHOOL SINGAPORE 544974
NORTH VISTA SECONDARY SCHOOL,11 RIVERVALE LINK   ,545081,68793931,na,NORTHVISTASS@MOE.EDU.SG,"SENGKANG MRT, BUANGKOK MRT, RANGGUNG LRT","80, 82, 87, 88, 89, 119",MR YAP THIAM CHUAN,MR PILLAY P KRISHNAN,MISS WU XIAOYUAN,MR KWEK CHIN LEONG,na,na,na,SENG KANG,NORTH,GOVERNMENT SCHOOL,CO-ED SCHOOL,SINGLE SESSION,SECONDARY (S1-S5),No,No,No,No,CHINESE,MALAY,TAMIL,1.381131285,103.899188813886,11 RIVERVALE LINK NORTH VISTA SECONDARY SCHOOL SINGAPORE 545081
NORTHBROOKS SECONDARY SCHOOL,585 YISHUN RING ROAD   ,768692,67566110,na,NORTHBROOKS@MOE.EDU.SG,"YISHUN MRT, KHATIB MRT","804, 806, 807, 860, 103",MR CHEN XUANTING EDMUND,MISS GOH PEISHI,MR YIP KOK HOONG (YE GUOXIONG),MR LIM YANG CHERNG,na,na,na,YISHUN,NORTH,GOVERNMENT SCHOOL,CO-ED SCHOOL,SINGLE SESSION,SECONDARY (S1-S5),No,No,No,No,CHINESE,MALAY,TAMIL,1.42081285020652,103.845147332528,585 YISHUN RING ROAD NORTHBROOKS SECONDARY SCHOOL SINGAPORE 768692
NORTHLAND PRIMARY SCHOOL,15 YISHUN AVENUE 4   ,769026,67559196,na,NORTHLAND_PS@MOE.EDU.SG,Yishun MRT Station,812 (next to bus service number 171) at Yishun Interchange,MR JAY WESTLY MAHARDALE,MR CHONG CHOONG HIAN,MISS LEE QUEE CHOO GINA,na,na,na,na,YISHUN,NORTH,GOVERNMENT SCHOOL,CO-ED SCHOOL,SINGLE SESSION,PRIMARY,No,No,No,No,CHINESE,MALAY,TAMIL,1.42096989918951,103.840928424929,15 YISHUN AVENUE 4 NORTHLAND PRIMARY SCHOOL SINGAPORE 769026
NORTHLAND SECONDARY SCHOOL,3 YISHUN STREET 22   ,768578,62573634,na,NORTHLAND_SS@MOE.EDU.SG,YISHUN MRT,"811, 804, 800",MR LIM KOK HWA,MR PETERSON JOSEPH STANLEY,MR LOW CHEE WAI,MR CHEEN HSIEN HONG,na,na,na,YISHUN,NORTH,GOVERNMENT SCHOOL,CO-ED SCHOOL,SINGLE SESSION,SECONDARY (S1-S5),No,No,No,No,CHINESE,MALAY,TAMIL,1.43580183362637,103.840104687784,3 YISHUN STREET 22 NORTHLAND SECONDARY SCHOOL SINGAPORE 768578
NORTHLIGHT SCHOOL,151 Towner Road   ,327830,62912423,na,nls@moe.edu.sg,BOON KENG (NE9),"21, 125, 130, 139, 145, 13, 23, 31, 64, 65, 133, 147, 857, 985",MADAM SUNG MEE HAR,MR GAN KOK SOON SIMON,MR HSU YU CHIH TOMMY,na,na,na,na,KALLANG,SOUTH,SPECIALISED SCHOOL,CO-ED SCHOOL,FULL DAY,SECONDARY (S1-S4),No,No,No,No,CHINESE,MALAY,TAMIL,1.3191002158167,103.85575955353,151 TOWNER ROAD NORTHLIGHT SCHOOL SINGAPORE 327830
NORTHOAKS PRIMARY SCHOOL,61 Sembawang Drive   ,757622,6753 8864,na,northoaks_ps@moe.edu.sg,Sembawang MRT,Bus number 962,"MR CHER TECK YIANG, LUKE MELVIN",MADAM KOMATHI D/O GOVINDASAMY,MR OW EU GENE JOHN,na,na,na,na,SEMBAWANG,NORTH,GOVERNMENT SCHOOL,CO-ED SCHOOL,SINGLE SESSION,PRIMARY,No,No,No,No,CHINESE,MALAY,TAMIL,1.45660782030102,103.814196981329,61 SEMBAWANG DRIVE NORTHOAKS PRIMARY SCHOOL SINGAPORE 757622
NORTHSHORE PRIMARY SCHOOL,30 Northshore Drive   ,828671,62026491,na,northhshore_ps@moe.edu.sg,Puggol Point LRT Station,"84, 384",MADAM LEE YEN PING CHRISTINE,MADAM GAN SER MIN,MADAM ONG YIN PENG,na,na,na,na,PUNGGOL,EAST,GOVERNMENT SCHOOL,CO-ED SCHOOL,SINGLE SESSION,PRIMARY,No,No,No,No,CHINESE,MALAY,TAMIL,1.41813803336667,103.904416909742,30 NORTHSHORE DRIVE NORTHSHORE PRIMARY SCHOOL SINGAPORE 828671
NUS HIGH SCHOOL OF MATHEMATICS AND SCIENCE,20 Clementi Avenue 1   ,129957,67756910,na,einstein@highsch.nus.edu.sg,Nearest MRT Stations - Clementi and Dover,"96, 97, 151, 183, 188, 189, 196, 197, 198",MADAM SOH LAI LENG MAGDALEN,MR GOH HOCK LEONG,"MS KHOO LEE YONG, SHARON",MRS LAI SOO HONG,na,na,na,CLEMENTI,WEST,SPECIALISED INDEPENDENT SCHOOL,CO-ED SCHOOL,FULL DAY,MIXED LEVEL (S1-JC2),No,No,Yes,Yes,CHINESE,MALAY,TAMIL,1.30600678096247,103.770152807737,20 CLEMENTI AVENUE 1 NUS HIGH SCHOOL OF MATHEMATICS AND SCIENCE SINGAPORE 129957
OASIS PRIMARY SCHOOL,71 Edgefield Plains   ,828716,6320 9856,na,oasis_ps@moe.edu.sg,Damai LRT Station,"50, 386",MR POH LEONG KIAT DANNY,MADAM HO JUN- LYNN,MR MOHAMED IMRAN B MOHAMED IHSAN,MISS CHUA MAY CHING,na,na,na,PUNGGOL,EAST,GOVERNMENT SCHOOL,CO-ED SCHOOL,SINGLE SESSION,PRIMARY,No,No,No,No,CHINESE,MALAY,TAMIL,1.40462413200793,103.911120600638,71 EDGEFIELD PLAINS OASIS PRIMARY SCHOOL SINGAPORE 828716
OPERA ESTATE PRIMARY SCHOOL,48 FIDELIO STREET   ,458436,64493042,na,OEPS@MOE.EDU.SG,"Bedok, Kembangan",42,MADAM HOO WAI LING,MR KENNY RAPHAEL REYES,MR RAYMOND TAY KOON MING,MR GOH LENG SENG,na,na,na,BEDOK,EAST,GOVERNMENT SCHOOL,CO-ED SCHOOL,SINGLE SESSION,PRIMARY,No,No,No,No,CHINESE,MALAY,TAMIL,1.31931914436255,103.923788259248,48 FIDELIO STREET OPERA ESTATE PRIMARY SCHOOL SINGAPORE 458436
ORCHID PARK SECONDARY SCHOOL,10 YISHUN STREET 81   ,768454,67588770,na,OPSS@MOE.EDU.SG,KHATIB MRT,811,MR CHUNG KWOK LEONG DANIEL,MADAM TEO MEI LIN YVONNE,MR NG KOK WING,na,na,na,na,YISHUN,NORTH,GOVERNMENT SCHOOL,CO-ED SCHOOL,SINGLE SESSION,SECONDARY (S1-S5),No,No,No,No,CHINESE,MALAY,TAMIL,1.41532032779634,103.837859241343,10 YISHUN STREET 81 ORCHID PARK SECONDARY SCHOOL SINGAPORE 768454
OUTRAM SECONDARY SCHOOL,3 YORK HILL   ,168622,62352337,na,OSS@MOE.EDU.SG,"OUTRAM PARK MRT, CHINATOWN MRT","174 , 123, 16, 175, 195, 33, 5, 63, 75, 851, 970, 123, 186, 51, 64",MR TAN KOK HONG,MISS TAN YEE LIN ELAINE,na,na,na,na,na,CENTRAL,SOUTH,GOVERNMENT SCHOOL,CO-ED SCHOOL,SINGLE SESSION,SECONDARY (S1-S5),No,No,No,No,CHINESE,MALAY,TAMIL,1.28651357464735,103.837127264403,3 YORK HILL OUTRAM SECONDARY SCHOOL SINGAPORE 168622
PALM VIEW PRIMARY SCHOOL,150 Compassvale Bow   ,544822,68754150,na,palmview_ps@moe.edu.sg,Buangkok,"27,43,109,156,159,161,163,163M,550",MRS MING KUM,MR ANG WEI TECK,MISS KHAIRIAH BTE HAIROMAN,MISS CHUA CHEW HIANG,na,na,na,SENG KANG,NORTH,GOVERNMENT SCHOOL,CO-ED SCHOOL,SINGLE SESSION,PRIMARY,No,No,No,No,CHINESE,MALAY,TAMIL,1.38376923022123,103.891354675017,150 COMPASSVALE BOW PALM VIEW PRIMARY SCHOOL SINGAPORE 544822
PARK VIEW PRIMARY SCHOOL,60 PASIR RIS DRIVE 1   ,519524,65851401,na,PVPS@MOE.EDU.SG,Pasir Ris MRT Station,"358,39,53,81,89",MISS LIE SUYIN JAMIE,MADAM HO FUI FONG,MADAM LIM CHIU EE,na,na,na,na,PASIR RIS,EAST,GOVERNMENT SCHOOL,CO-ED SCHOOL,SINGLE SESSION,PRIMARY,No,No,No,No,CHINESE,MALAY,TAMIL,1.37738069854249,103.939541695654,60 PASIR RIS DRIVE 1 PARK VIEW PRIMARY SCHOOL SINGAPORE 519524
PASIR RIS CREST SECONDARY SCHOOL,11 PASIR RIS STREET 41   ,518934,65813226,na,PRCSS@MOE.EDU.SG,PASIR RIS MRT,"358, 17, 81, 12, 3",MRS KOH CAIYU,MR HANSEL LIN DAOYANG,MR LEE SENG LEE,na,na,na,na,PASIR RIS,EAST,GOVERNMENT SCHOOL,CO-ED SCHOOL,SINGLE SESSION,SECONDARY (S1-S5),No,No,No,No,CHINESE,MALAY,TAMIL,1.37284060102246,103.959728202919,11 PASIR RIS STREET 41 PASIR RIS CREST SECONDARY SCHOOL SINGAPORE 518934
PASIR RIS PRIMARY SCHOOL,5 PASIR RIS STREET 21   ,518968,65828492,na,PRPS@MOE.EDU.SG,Pasir Ris MRT,"3,5,6,89",MS LIZA BTE RAHMAT,MADAM HENG WEI SHAN,MADAM THILAGAMANI D/O T SIVANANDAM,na,na,na,na,PASIR RIS,EAST,GOVERNMENT SCHOOL,CO-ED SCHOOL,SINGLE SESSION,PRIMARY,No,No,No,No,CHINESE,MALAY,TAMIL,1.37241870245531,103.962807212116,5 PASIR RIS STREET 21 PASIR RIS PRIMARY SCHOOL SINGAPORE 518968
PASIR RIS SECONDARY SCHOOL,390 TAMPINES STREET 21   ,529400,65010900,na,PRSS@MOE.EDU.SG,"TAMPINES MRT, TAMPINES EAST MRT,  TAMPINES WEST MRT","3, 4, 8, 10, 15, 18, 19, 20, 21, 22, 23, 27, 28, 29, 31, 37, 38, 39, 46, 65, 67, 68, 69, 72, 81, 127, 129, 168, 291, 292, 293, 298, 969",MADAM GRACE TAN BEE SIM,MS S SANTHA D/O SUKUMARAN,MADAM LEE BENG CHOO,na,na,na,na,TAMPINES,EAST,GOVERNMENT SCHOOL,CO-ED SCHOOL,SINGLE SESSION,SECONDARY (S1-S5),No,No,No,No,CHINESE,MALAY,TAMIL,1.35422732653396,103.948962626204,390 TAMPINES STREET 21 PASIR RIS SECONDARY SCHOOL SINGAPORE 529400
PAYA LEBAR METHODIST GIRLS' SCHOOL (PRIMARY),298 LORONG AH SOO   ,536741,62803915,na,PLMGPS@MOE.EDU.SG,"Kovan (NE13), Serangoon(NE12/CC13)","45, 53, 53M, 62, 113",MRS MRS JOYCE ANG,MADAM TANG WAI YUE,MRS ESTHER SEE-LING SZENGEN,na,na,na,na,HOUGANG,EAST,GOVERNMENT-AIDED SCH,GIRLS' SCHOOL,SINGLE SESSION,PRIMARY,No,No,No,No,CHINESE,MALAY,TAMIL,1.34947276268396,103.884971343143,298 LORONG AH SOO PAYA LEBAR METHODIST GIRLS' SCHOOL (PRIMARY) SINGAPORE 536741
PAYA LEBAR METHODIST GIRLS' SCHOOL (SECONDARY),296 LOR AH SOO   ,536742,63820558,na,PLMGSS@MOE.EDU.SG,"KOVAN MRT, SERANGOON MRT","45, 53, 53M, 62, 113",MISS NG AMY,MADAM TAN MAY LIN SELINA,MS TOH SUSAN,MR NING TAU YEE,na,na,na,HOUGANG,EAST,GOVERNMENT-AIDED SCH,GIRLS' SCHOOL,SINGLE SESSION,SECONDARY (S1-S5),No,Yes,No,No,CHINESE,MALAY,TAMIL,1.35096755912522,103.885120050588,296 LORONG AH SOO PAYA LEBAR METHODIST GIRLS' SCHOOL (SECONDARY) SINGAPORE 536742
PEI CHUN PUBLIC SCHOOL,16 LORONG 7 TOA PAYOH   ,319320,63538418,na,PCPS@MOE.EDU.SG,Toa Payoh MRT Station and Braddell MRT Station,"Bus Service 232, 57",MISS ONG LEE CHOO,MR LIM JIT HIN,MISS YANG JINGYU,MR REEVE SIM (SHEN GUANZE),na,na,na,TOA PAYOH,SOUTH,GOVERNMENT-AIDED SCH,CO-ED SCHOOL,SINGLE SESSION,PRIMARY,Yes,No,No,No,CHINESE,na,na,1.33737358725951,103.855585578061,16 LORONG 7 TOA PAYOH PEI CHUN PUBLIC SCHOOL SINGAPORE 319320
PEI HWA PRESBYTERIAN PRIMARY SCHOOL,7 PEI WAH AVENUE   ,597610,64621944,na,PHPPS@MOE.EDU.SG,Beauty World,"970, 852, 174, 173, 157, 77, 61",MRS ALLISON LIM,MR LEONG WEI MING CALEB,MADAM YONG MING WOEI CHLOE,na,na,na,na,BUKIT TIMAH,WEST,GOVERNMENT-AIDED SCH,CO-ED SCHOOL,SINGLE SESSION,PRIMARY,Yes,No,No,No,CHINESE,na,na,1.33805634613048,103.776106448614,7 PEI WAH AVENUE PEI HWA PRESBYTERIAN PRIMARY SCHOOL SINGAPORE 597610
PEI HWA SECONDARY SCHOOL,21 FERNVALE LINK   ,797702,63438326,na,peihwasec@moe.edu.sg,"SENGKANG MRT, LAYAR LRT","50, 70, 86, 103, 163, 854",MR MOHD AZHAR B TERIMO,MRS MICHELLE RAJARATHNAM,MR OW WENG KEONG,na,na,na,na,SENG KANG,NORTH,GOVERNMENT SCHOOL,CO-ED SCHOOL,SINGLE SESSION,SECONDARY (S1-S5),No,No,No,No,CHINESE,MALAY,TAMIL,1.39037504993234,103.878461745339,21 FERNVALE LINK PEI HWA SECONDARY SCHOOL SINGAPORE 797702
PEI TONG PRIMARY SCHOOL,15 CLEMENTI AVENUE 5   ,129857,67789784,na,PTPS@MOE.EDU.SG,Clementi,"7, 184, 282",MRS ONG-CHEW LU SEE,MR JASON WONG QI HUA,MR MOHAMED YAZEED BIN MOHAMED SAID,MR KOH SEE CHOON,na,na,na,CLEMENTI,WEST,GOVERNMENT SCHOOL,CO-ED SCHOOL,SINGLE SESSION,PRIMARY,No,No,No,No,CHINESE,MALAY,TAMIL,1.31619786415976,103.767599818844,15 CLEMENTI AVENUE 5 PEI TONG PRIMARY SCHOOL SINGAPORE 129857
PEICAI SECONDARY SCHOOL,10 SERANGOON AVENUE 4   ,556094,na,na,PEICAI_SS@MOE.EDU.SG,SERANGOON MRT,"22, 24, 43, 53, 70, 76, 103, 109, 116, 147, 156, 315, 317, 853",MR MICHAEL MUHUNTHAN S/O SUBRAMANIAM,MADAM JESMINE CHUNG KAH MIN,MR SHUE PEI YAN,na,na,na,na,SERANGOON,SOUTH,GOVERNMENT SCHOOL,CO-ED SCHOOL,SINGLE SESSION,SECONDARY (S1-S5),No,No,No,No,CHINESE,MALAY,TAMIL,1.35951583222214,103.870010749055,10 SERANGOON AVENUE 4 PEICAI SECONDARY SCHOOL SINGAPORE 556094
PEIRCE SECONDARY SCHOOL,10 SIN MING WALK   ,575566,64576448,na,PEIRCE_SS@MOE.EDU.SG,"ANG MO KIO MRT, BISHAN MRT, MARYMOUNT MRT, BRIGHT HILL MRT","52, 132, 162, 163, 165, 166, 167, 410, 855, 980",MR KEH CHIN CHUAN BENEDICT,MR JIN SEBASTIAN,MS NG BOON MIN,MADAM PEH TZU FENG,na,na,na,BISHAN,SOUTH,GOVERNMENT SCHOOL,CO-ED SCHOOL,SINGLE SESSION,SECONDARY (S1-S5),No,No,No,No,CHINESE,MALAY,TAMIL,1.36665944653812,103.83021606804,10 SIN MING WALK PEIRCE SECONDARY SCHOOL SINGAPORE 575566
PEIYING PRIMARY SCHOOL,651 YISHUN RING ROAD   ,768687,67558802,na,PYPS@MOE.EDU.SG,Khatib,"851, 852, 853, 854, 855",MADAM WONG WEI YONG,MR ABDUL RANI BIN IDRIS,MISS NG PEI SUN,na,na,na,na,YISHUN,NORTH,GOVERNMENT SCHOOL,CO-ED SCHOOL,SINGLE SESSION,PRIMARY,No,No,No,No,CHINESE,MALAY,TAMIL,1.41741627551251,103.830143209875,651 YISHUN RING ROAD COMMIT LEARNING SCHOOLHOUSE @ PEIYING PRIMARY SCHOOL SINGAPORE 768687
PIONEER PRIMARY SCHOOL,80 TENGAH GARDEN AVENUE   ,699915,67932040,na,PIONEER_PS@MOE.EDU.SG,Boon Lay Station,"219, 241",MADAM LOKE WAI LING,MR TAN HOCK CHYE CHARLES,MADAM WONG WEI YI,na,na,na,na,TENGAH,WEST,GOVERNMENT SCHOOL,CO-ED SCHOOL,SINGLE SESSION,PRIMARY,No,No,No,No,CHINESE,MALAY,TAMIL,1.33902264667589,103.687769623983,31 JURONG WEST STREET 91 PIONEER PRIMARY SCHOOL SINGAPORE 649037
POI CHING SCHOOL,21 TAMPINES STREET 71   ,529067,67857198,na,POICHING_SCH@MOE.EDU.SG,Tampines MRT,"Bus 293, 72, 27 and 168",MADAM LIM TZYY SHIUAN,MISS CHAN JING JING,MRS TAN MEI LING IRENE MRS IRENE GOH HOCK NGUAN,na,na,na,na,TAMPINES,EAST,GOVERNMENT-AIDED SCH,CO-ED SCHOOL,SINGLE SESSION,PRIMARY,Yes,No,No,No,CHINESE,na,na,1.35765122315688,103.935246477199,21 TAMPINES STREET 71 POI CHING SCHOOL SINGAPORE 529067
PRESBYTERIAN HIGH SCHOOL,5209 ANG MO KIO AVENUE 6   ,569845,64543430,na,PRESBYTERIAN@MOE.EDU.SG,YIO CHU KANG MRT,"45, 70, 70M, 71, 76, 86, 668, 825, 851, 851e, 852, 853, 853M",MADAM ONG HUI MIIN ANGELINE,MR CHENG CHI EN,MR TAY SOON INN TIMOTHY,na,na,na,na,ANG MO KIO,SOUTH,GOVERNMENT-AIDED SCH,CO-ED SCHOOL,SINGLE SESSION,SECONDARY (S1-S5),No,No,No,No,CHINESE,MALAY,TAMIL,1.38201194250223,103.843149382823,5209 ANG MO KIO AVENUE 6 PRESBYTERIAN HIGH SCHOOL SINGAPORE 569845
PRINCESS ELIZABETH PRIMARY SCHOOL,30 BUKIT BATOK WEST AVENUE 3   ,659163,65637859,na,PEPS@MOE.EDU.SG,Bukit Batok MRT Station,"Bus 174, 157, 178, 66, 941",MR BUCKTHA SEELAN,MADAM CHU SING EE,MISS NGIAM WEE HENG,MISS TOH CUI LIN,na,na,na,BUKIT BATOK,WEST,GOVERNMENT SCHOOL,CO-ED SCHOOL,SINGLE SESSION,PRIMARY,No,No,No,No,CHINESE,MALAY,TAMIL,1.349203513,103.74101964471,30 BUKIT BATOK WEST AVENUE 3 PRINCESS ELIZABETH PRIMARY SCHOOL SINGAPORE 659163
PUNGGOL COVE PRIMARY SCHOOL,52 Sumang Walk   ,828674,63857261,na,punggolcove_ps@moe.edu.sg,Nibong LRT Station,"382W, 84",MADAM SEAH WHYE CHOO,MR ANDREW CHONG WENYI,MADAM CAI XIRUI,MISS CHNG SHI HUA,na,na,na,PUNGGOL,EAST,GOVERNMENT SCHOOL,CO-ED SCHOOL,SINGLE SESSION,PRIMARY,No,No,No,No,CHINESE,MALAY,TAMIL,1.41159923273069,103.898803921164,52 SUMANG WALK PUNGGOL COVE PRIMARY SCHOOL SINGAPORE 828674
PUNGGOL GREEN PRIMARY SCHOOL,98 Punggol Walk   ,828772,65383210,na,admin_punggolgreen_ps@moe.edu.sg,Punggol MRT Station,"117, 117M, 119, 381, 382G, 666",MR HANAFI B ASMORE,MRS TAY CHAI HONG,MR JASBIR SINGH,MADAM CHRISTINA TEE SIEW PING,na,na,na,PUNGGOL,EAST,GOVERNMENT SCHOOL,CO-ED SCHOOL,SINGLE SESSION,PRIMARY,No,No,No,No,CHINESE,MALAY,TAMIL,1.40187220643293,103.898801330302,98 PUNGGOL WALK PUNGGOL GREEN PRIMARY SCHOOL SINGAPORE 828772
PUNGGOL PRIMARY SCHOOL,61 HOUGANG AVENUE 8   ,538787,63877793,na,PUNGGOL_PS@MOE.EDU.SG,"Hougang, Buangkok",62 74 88 113 147 325,MADAM NORLIZA BTE A RAHIM,MR GOH CHANG CHUEN,MADAM LIM HUI MEOW ANNIE,MISS USHA RANI HENRY,na,na,na,HOUGANG,SOUTH,GOVERNMENT SCHOOL,CO-ED SCHOOL,SINGLE SESSION,PRIMARY,No,No,No,No,CHINESE,MALAY,TAMIL,1.37820062547641,103.894667159512,61 HOUGANG AVENUE 8 AFTERSCHOOL @ PUNGGOL PRIMARY SCHOOL SINGAPORE 538787
PUNGGOL SECONDARY SCHOOL,51 EDGEFIELD PLAINS   ,828870,64897859,na,PUNGGOL_SS@MOE.EDU.SG,"PUNGGOL MRT, COVE LRT","3, 34, 62, 82, 83, 85, 136, 965, 386",MS TNG YA WEN VALERIE,MR ANITH KUMAR S/O NADESAN,MADAM GOH YEONG JING,MR NG CHEE KIANG,na,na,na,PUNGGOL,EAST,GOVERNMENT SCHOOL,CO-ED SCHOOL,SINGLE SESSION,SECONDARY (S1-S5),No,No,No,No,CHINESE,MALAY,TAMIL,1.40205738421399,103.909213706482,51 EDGEFIELD PLAINS PUNGGOL SECONDARY SCHOOL SINGAPORE 828870
PUNGGOL VIEW PRIMARY SCHOOL,9 Punggol Place   ,828845,6570 3680,na,punggolview_ps@moe.edu.sg,Punggol MRT Station,50; 382,MR WONG KIN MUN,MDM DE SOUZA SANDRA ANNE,MADAM SHARIFAH SAMIRAH BTE SYED MOHAMAD,MR CHONG WEE MING,na,na,na,PUNGGOL,EAST,GOVERNMENT SCHOOL,CO-ED SCHOOL,SINGLE SESSION,PRIMARY,No,No,No,No,CHINESE,MALAY,TAMIL,1.40514582647962,103.905156371376,9 PUNGGOL PLACE PUNGGOL VIEW PRIMARY SCHOOL SINGAPORE 828845
QIFA PRIMARY SCHOOL,50 WEST COAST AVENUE   ,128104,67761485,na,QIFA_PS@MOE.EDU.SG,Clementi MRT Station,"30,51,78,143,285,655",MRS CATHERINE CHIANG,MADAM CHOO SIEW HONG,MADAM NORAINI BTE MANSOOR,na,na,na,na,CLEMENTI,WEST,GOVERNMENT SCHOOL,CO-ED SCHOOL,SINGLE SESSION,PRIMARY,No,No,No,No,CHINESE,MALAY,TAMIL,1.3132658326807,103.756629101811,50 WEST COAST AVENUE AMP-MERCU STUDENT CARE CENTRE @ QIFA PRIMARY SCHOOL SINGAPORE 128104
QIHUA PRIMARY SCHOOL,5 WOODLANDS STREET 81   ,738525,62693114,na,QIHUA_PS@MOE.EDU.SG,Woodlands MRT Station,"911, 900",MRS LEE HUI FENG,MR FOO CHUAN KAI,MISS NURUL SUHANA BINTE SULAIMAN,na,na,na,na,WOODLANDS,NORTH,GOVERNMENT SCHOOL,CO-ED SCHOOL,SINGLE SESSION,PRIMARY,No,No,No,No,CHINESE,MALAY,TAMIL,1.44203596557592,103.788339762066,5 WOODLANDS STREET 81 POWERLIFE STUDENT SERVICES @ QIHUA PRIMARY SCHOOL SINGAPORE 738525
QUEENSTOWN PRIMARY SCHOOL,310 MARGARET DR   ,149303,64713640,na,QTPS@MOE.EDU.SG,Queenstown MRT,"32, 111, 145, 195",MADAM LIM PEI LIN OLIVIA MRS OLIVIA CHEONG,MISS CHEW MAY,MR LOW KAY KIAT,na,na,na,na,QUEENSTOWN,SOUTH,GOVERNMENT SCHOOL,CO-ED SCHOOL,SINGLE SESSION,PRIMARY,No,No,No,No,CHINESE,MALAY,TAMIL,1.29559365009015,103.807548617332,310 MARGARET DRIVE QUEENSTOWN PRIMARY SCHOOL SINGAPORE 149303
QUEENSTOWN SECONDARY SCHOOL,1 STRATHMORE ROAD   ,148800,64741295,na,QTSS@MOE.EDU.SG,"REDHILL MRT, QUEENSTOWN MRT","33, 51, 64, 111, 120, 139, 145, 186, 970",MR SIM HOW CHONG,MRS CHANG TECK HUI,MR TAN TAI HUAT,na,na,na,na,QUEENSTOWN,SOUTH,GOVERNMENT SCHOOL,CO-ED SCHOOL,SINGLE SESSION,SECONDARY (S1-S5),No,No,No,No,CHINESE,MALAY,TAMIL,1.29352126774652,103.813190980055,1 STRATHMORE ROAD QUEENSTOWN SECONDARY SCHOOL SINGAPORE 148800
QUEENSWAY SECONDARY SCHOOL,2A MARGARET DRIVE   ,149295,64741302,na,QWSS@MOE.EDU.SG,"COMMONWEALTH MRT, QUEENSTOWN MRT","32, 51, 93, 100, 105, 111, 122, 123, 145, 147, 153, 186, 195, 196, 198, 855, 961, 970",MS CHEN LI YING AUDREY,MR TEO WEIHONG,MADAM V PRIYA RAJAN,na,na,na,na,QUEENSTOWN,SOUTH,GOVERNMENT SCHOOL,CO-ED SCHOOL,SINGLE SESSION,SECONDARY (S1-S5),No,No,No,No,CHINESE,MALAY,TAMIL,1.30022271592188,103.802207291625,2A MARGARET DRIVE QUEENSWAY SECONDARY SCHOOL SINGAPORE 149295
RADIN MAS PRIMARY SCHOOL,1 BUKIT PURMEI AVENUE   ,99840,62763083,na,RMPS@MOE.EDU.SG,Tiong Bahru MRT; HarbourFront MRT,"SBS 123, 123M, 131, 131M; SBS 65, 121, 195, 855",MADAM TAN SUN SUN,MADAM NG LI YI,MS GOH CHIU KENG,na,na,na,na,BUKIT MERAH,SOUTH,GOVERNMENT SCHOOL,CO-ED SCHOOL,SINGLE SESSION,PRIMARY,No,No,No,No,CHINESE,MALAY,TAMIL,1.27495823622634,103.824188270373,1 BUKIT PURMEI AVENUE RADIN MAS PRIMARY SCHOOL SINGAPORE 099840
RAFFLES GIRLS' PRIMARY SCHOOL,21 Hillcrest Road   ,289072,64692024,na,RGPS@MOE.EDU.SG,TAN KAH KEE MRT STATION,"66, 67, 74, 151, 154, 156, 157, 170, 171, 174, 852, 961",MADAM ELAINE QUEK-LIM HWEE BIN,MISS KONG SU MAY,MISS SUJATHA PARAMATHAYALAN,MR LOH YUH POR,na,na,na,BUKIT TIMAH,SOUTH,GOVERNMENT SCHOOL,GIRLS' SCHOOL,SINGLE SESSION,PRIMARY,No,No,Yes,No,CHINESE,MALAY,TAMIL,1.3294042600012,103.806442915912,21 HILLCREST ROAD RAFFLES GIRLS' PRIMARY SCHOOL SINGAPORE 289072
RAFFLES GIRLS' SCHOOL (SECONDARY),2 BRADDELL RISE   ,318871,62353731,na,RGSS@MOE.EDU.SG,"BRADDELL MRT, CALDECOTT MRT","59, 93, 129, 156, 157, 163, 231, 232, 235",MADAM LIM HONG PENG,MS TAN HWEE MIAN MAY,MS YEO XIUTING VALERIE,MISS MAGDALENE SUEY,na,na,na,TOA PAYOH,SOUTH,INDEPENDENT SCHOOL,GIRLS' SCHOOL,SINGLE SESSION,SECONDARY (S1-S4),No,No,Yes,Yes,CHINESE,MALAY,TAMIL,1.34217479932295,103.84313404727,2 BRADDELL RISE RAFFLES GIRLS' SCHOOL (SECONDARY) SINGAPORE 318871
RAFFLES INSTITUTION,1 RAFFLES INSTITUTION LANE   ,575954,64199238,na,RAFFLES_INST@MOE.EDU.SG,"BISHAN MRT, MARYMOUNT MRT","410,13,50,52,53,54,55,56,57,58,59,71,74,88,93,128,130,132,156,157,162,163,165,166,167,851,852,855,980","MR LOH HONG OON, AARON",MR ANG PENG SIONG BRIAN LAGMAN,MR EDWARD NG,MS MELISSA LIM AI LIN,MS NG MEI SZE,TAN MENG FONG DESMOND,MISS SEE PEI LOO,BISHAN,SOUTH,INDEPENDENT SCHOOL,CO-ED SCHOOL,SINGLE SESSION,MIXED LEVEL (S1-JC2),No,No,Yes,Yes,CHINESE,MALAY,TAMIL,1.34618775847486,103.845875110532,1 RAFFLES INSTITUTION LANE RAFFLES INSTITUTION SINGAPORE 575954
RED SWASTIKA SCHOOL,350 BEDOK NORTH AVENUE 3   ,469719,62448391,na,REDSWASTIKA@MOE.EDU.SG,Bedok Reservoir MRT,"Bus 14, 17, 28, 46, 66, 67, 69, 222, 228",MR LIM MENG WEI,MS ANGELA GOH BEE LIAN,MADAM ESTHER E TZY KWEI,MR TAN MENG KHIANG,na,na,na,BEDOK,EAST,GOVERNMENT-AIDED SCH,CO-ED SCHOOL,SINGLE SESSION,PRIMARY,Yes,No,No,No,CHINESE,na,na,1.33405659580859,103.934317528484,350 BEDOK NORTH AVENUE 3 COMMIT LEARNING SCHOOLHOUSE @ RED SWASTIKA SCHOOL SINGAPORE 469719
REGENT SECONDARY SCHOOL,50 CHOA CHU KANG NORTH 5   ,689621,67653413,na,REGENT_SS@MOE.EDU.SG,"YEW TEE MRT, CHOA CHU KANG MRT","307, 160, 170, 178, 925, 927, 960, 961, 979",MADAM TAN SIEW HONG (MRS SNG),MISS NG TZE FANG,MR THANGARASU PUBALAN,na,na,na,na,CHOA CHU KANG,WEST,GOVERNMENT SCHOOL,CO-ED SCHOOL,SINGLE SESSION,SECONDARY (S1-S5),No,No,No,No,CHINESE,MALAY,TAMIL,1.39327908335682,103.751034411529,50 CHOA CHU KANG NORTH 5 REGENT SECONDARY SCHOOL SINGAPORE 689621
RIVER VALLEY HIGH SCHOOL,6 BOON LAY AVENUE   ,649961,65677351,na,RVHS@MOE.EDU.SG,"BOON LAY MRT, LAKESIDE MRT","99, 157, 172, 174, 174E, 198, 240, 502, 974",na,MS CHUA SHI QIAN,MR LAU WAI CHI ALVIN,MR NG HONG PENG,MR MICHAEL JOHN PETER LAU CHONG LUM,na,na,JURONG WEST,WEST,GOVERNMENT SCHOOL,CO-ED SCHOOL,SINGLE SESSION,MIXED LEVEL (S1-JC2),Yes,Yes,No,Yes,CHINESE,na,na,1.34407801149725,103.709022156436,6 BOON LAY AVENUE RIVER VALLEY HIGH SCHOOL SINGAPORE 649961
RIVER VALLEY PRIMARY SCHOOL,2 RIVER VALLEY GREEN   ,237993,67321951,na,RVPS@MOE.EDU.SG,Somerset MRT,"5, 16, 32, 54, 65, 75, 175, 970",MRS JENNIFER PANG CHEE CHYN,MRS LOH SOK HIANG JACQUELINE,MADAM NUR RASHIDAH BTE ABDUL RASHID,na,na,na,na,CENTRAL,SOUTH,GOVERNMENT SCHOOL,CO-ED SCHOOL,SINGLE SESSION,PRIMARY,No,No,No,No,CHINESE,MALAY,TAMIL,1.29418347842837,103.836018941571,2 RIVER VALLEY GREEN AFTERSCHOOL @ RIVER VALLEY PRIMARY SCHOOL SINGAPORE 237993
RIVERSIDE PRIMARY SCHOOL,110 Woodlands Crescent   ,737803,63654460,na,riverside_ps@moe.edu.sg,Admiralty MRT Station,Bus No 913 and Bus No 964,MR TAN CHOON KHENG,MADAM KHOO PHAIK HOON REGINA,MRS RANUKA PALANIVELU,na,na,na,na,WOODLANDS,NORTH,GOVERNMENT SCHOOL,CO-ED SCHOOL,SINGLE SESSION,PRIMARY,No,No,No,No,CHINESE,MALAY,TAMIL,1.44700426493785,103.801889031334,110 WOODLANDS CRESCENT MERCU STUDENT CARE CENTRE @ RIVERSIDE PRIMARY SCHOOL SINGAPORE 737803
RIVERSIDE SECONDARY SCHOOL,3 WOODLANDS STREET 81   ,738524,63683677,na,RIVERSIDE_SS@MOE.EDU.SG,WOODLANDS MRT,"169, 858, 900, 900A, 903, 904, 911, 913, 964, 965, 969",MISS THAM YOKE CHUN,MR CHAN KOK TUNG TOM,MISS HUI AI LIN,na,na,na,na,WOODLANDS,NORTH,GOVERNMENT SCHOOL,CO-ED SCHOOL,SINGLE SESSION,SECONDARY (S1-S5),No,No,No,No,CHINESE,MALAY,TAMIL,1.44110157139127,103.78830823641,3 WOODLANDS STREET 81 RIVERSIDE SECONDARY SCHOOL SINGAPORE 738524
UNITY PRIMARY SCHOOL,21 CHOA CHU KANG CRESCENT   ,688268,67676751,na,UNITY_PS@MOE.EDU.SG,Yew Tee MRT,TIBs 302,MRS LEE-KOH SIEW CHENG,MR SYAMSUL ANWAR BIN AWANG,MRS JASMINE TAN RODRIGO,na,na,na,na,CHOA CHU KANG,WEST,GOVERNMENT SCHOOL,CO-ED SCHOOL,SINGLE SESSION,PRIMARY,No,No,No,No,CHINESE,MALAY,TAMIL,1.40285481877246,103.746822625758,21 CHOA CHU KANG CRESCENT UNITY PRIMARY SCHOOL SINGAPORE 688268
RIVERVALE PRIMARY SCHOOL,80 RIVERVALE DRIVE   ,545092,63887449,na,RIVERVALE_PS@MOE.EDU.SG,Nearest LRT Station : Rumbia,"Bus Service 86, 371.",MISS RADHA D/O G SUBRAMANIAM,MRS GOH SIEW LING MARIA,MR CHIA SENG CHIANG AARON,na,na,na,na,SENG KANG,NORTH,GOVERNMENT SCHOOL,CO-ED SCHOOL,SINGLE SESSION,PRIMARY,No,No,No,No,CHINESE,MALAY,TAMIL,1.39340997767762,103.904559511997,80 RIVERVALE DRIVE RIVERVALE PRIMARY SCHOOL SINGAPORE 545092
ROSYTH SCHOOL,21 Serangoon North Avenue 4   ,555855,64831102,na,ROSYTH_SCH@MOE.EDU.SG,"Ang Mo Kio, Serangoon","73, 315, 116",MR SURAJ NAIR S/O VENUGOPAL,MISS KWAN RUIYING KAREN,MADAM TAN LAY WAH,MR TAN BOON SENG,na,na,na,SERANGOON,NORTH,GOVERNMENT SCHOOL,CO-ED SCHOOL,SINGLE SESSION,PRIMARY,No,No,Yes,No,CHINESE,MALAY,TAMIL,1.37289067499064,103.875001549174,21 SERANGOON NORTH AVENUE 4 ROSYTH SCHOOL SINGAPORE 555855
RULANG PRIMARY SCHOOL,6 JURONG WEST STREET 52   ,649295,65632382,na,RULANG_PS@MOE.EDU.SG,Lakeside,SBS 335,MS TRACY TAN I- LIAN,MR TAN JIAN ZHONG ADRIAN,MR TOH JIN TIAN,"MR TAN KOK LENG, STEVEN",na,na,na,JURONG WEST,WEST,GOVERNMENT SCHOOL,CO-ED SCHOOL,SINGLE SESSION,PRIMARY,No,No,No,No,CHINESE,MALAY,TAMIL,1.34673868889096,103.718457955487,6 JURONG WEST STREET 52 RULANG PRIMARY SCHOOL SINGAPORE 649295
"SCHOOL OF SCIENCE AND TECHNOLOGY, SINGAPORE",1 Technology Drive   ,138572,68720856,na,contactus@sst.edu.sg,Dover,"14, 74, 105, 106, 147, 166, 185",MR CHAN CHOON LOONG,MR SZE GUAN KIAT,MR TAN BOON TIONG VINCENT,na,na,na,na,CLEMENTI,WEST,SPECIALISED INDEPENDENT SCHOOL,CO-ED SCHOOL,FULL DAY,SECONDARY (S1-S4),No,No,No,No,CHINESE,MALAY,TAMIL,1.31292810600277,103.774011529322,"1 TECHNOLOGY DRIVE SCHOOL OF SCIENCE AND TECHNOLOGY, SINGAPORE SINGAPORE 138572"
SEMBAWANG PRIMARY SCHOOL,10 SEMBAWANG DRIVE   ,757715,67560367,na,SEMBAWANG_PS@MOE.EDU.SG,Sembawang MRT (6 to 8-minute walk),"656, 859, 859B, 962, 980",MR NG AIK BOON,MR SEE KOK KIONG,MISS TIFFANY CHONG,MR TAN THIAM SIONG,na,na,na,SEMBAWANG,NORTH,GOVERNMENT SCHOOL,CO-ED SCHOOL,SINGLE SESSION,PRIMARY,No,No,No,No,CHINESE,MALAY,TAMIL,1.4450737155262,103.821042374036,10 SEMBAWANG DRIVE SEMBAWANG PRIMARY SCHOOL SINGAPORE 757715
SEMBAWANG SECONDARY SCHOOL,30 SEMBAWANG CRESCENT   ,757704,67585380,na,SEMBAWANG_SS@MOE.EDU.SG,SEMBAWANG MRT,"859, 859A, 962",MADAM KOH HOON CHOO JESSIE,MR CHAN YING CHUNG,MR LEE YONG KIANG JUSTIN,na,na,na,na,SEMBAWANG,NORTH,GOVERNMENT SCHOOL,CO-ED SCHOOL,SINGLE SESSION,SECONDARY (S1-S5),No,No,No,No,CHINESE,MALAY,TAMIL,1.44531502131387,103.816843258118,30 SEMBAWANG CRESCENT SEMBAWANG SECONDARY SCHOOL SINGAPORE 757704
SENG KANG PRIMARY SCHOOL,21 COMPASSVALE WALK   ,545166,63840839,na,SKPS@MOE.EDU.SG,Sengkang MRT,"27, 80, 82, 83, 86, 87, 88, 89, 119, 156, 163, 371, 372 & 965",MRS LEE SIEW HONG,MR MOHAMED AZHAR BIN MOHAMED NOOR,MISS THIEN LI CHIN,na,na,na,na,SENG KANG,NORTH,GOVERNMENT SCHOOL,CO-ED SCHOOL,SINGLE SESSION,PRIMARY,No,No,No,No,CHINESE,MALAY,TAMIL,1.38949740422462,103.899767112047,21 COMPASSVALE WALK SENG KANG PRIMARY SCHOOL SINGAPORE 545166
SENG KANG SECONDARY SCHOOL,10 COMPASSVALE LANE   ,545090,63887254,na,SKSS@MOE.EDU.SG,"SENGKANG MRT, RANGGUNG LRT","27, 80, 85, 86, 87, 89, 89E, 163, 163M, 372",MR N SIVARAJAN,"MR NG CHENG SONG, JEREMY",MR LAK YAU HUI,na,na,na,na,SENG KANG,NORTH,GOVERNMENT SCHOOL,CO-ED SCHOOL,SINGLE SESSION,SECONDARY (S1-S5),No,No,No,No,CHINESE,MALAY,TAMIL,1.38659683143747,103.898365036709,10 COMPASSVALE LANE SENG KANG SECONDARY SCHOOL SINGAPORE 545090
SENGKANG GREEN PRIMARY SCHOOL,15 Fernvale Road   ,797636,62428796,na,sengkanggreen_ps@moe.edu.sg,Fernvale LRT (SW5) - (Sengkang West Loop),"Sengkang and Toa Payoh Interchange - no 163, Along Yio Chu Kang Road - no 70, 86, 103 and 854, Punggol Interchange to Bishan Interchange - no 50, Hougang Central Interchange - no 102",MR GAU POH TECK,MADAM ADILA ONG KIM LUAN,MR TAN KENG LIM JEREMY,MADAM GINNY CHUA GEOK HONG,na,na,na,SENG KANG,NORTH,GOVERNMENT SCHOOL,CO-ED SCHOOL,SINGLE SESSION,PRIMARY,No,No,No,No,CHINESE,MALAY,TAMIL,1.39284606680477,103.875217666486,15 FERNVALE ROAD SENGKANG GREEN PRIMARY SCHOOL SINGAPORE 797636
SERANGOON GARDEN SECONDARY SCHOOL,21 SERANGOON NORTH AVENUE 1   ,555889,62888695,na,sgss@moe.edu.sg,"SERANGOON MRT, ANG MO KIO MRT","25, 55, 73, 74, 76, 132, 165, 315",MADAM MAH PATSY,MS HO GEOK LAN,MR NG SONG LIM STEVEN,MR ZAINAL ABIDIN BIN MAHMOOD,na,na,na,SERANGOON,SOUTH,GOVERNMENT SCHOOL,CO-ED SCHOOL,SINGLE SESSION,SECONDARY (S1-S5),No,No,No,No,CHINESE,MALAY,TAMIL,1.36932570490947,103.869270301476,21 SERANGOON NORTH AVENUE 1 SERANGOON GARDEN SECONDARY SCHOOL SINGAPORE 555889
SERANGOON SECONDARY SCHOOL,11 UPPER SERANGOON VIEW   ,534237,63851635,na,SERANGOON_SS@MOE.EDU.SG,"HOUGANG MRT, KANGKAR LRT","62, 74, 102, 113, 119, 136, 147, 324",MR CHEN FOOK PANG,MR LIM KAH LEONG MARC,MADAM LIM PUAY KHENG,MR MEYYAPPAN NADARAJAN THEVAR,na,na,na,HOUGANG,SOUTH,GOVERNMENT SCHOOL,CO-ED SCHOOL,SINGLE SESSION,SECONDARY (S1-S5),No,No,No,No,CHINESE,MALAY,TAMIL,1.37465538827443,103.902138740699,11 UPPER SERANGOON VIEW SERANGOON SECONDARY SCHOOL SINGAPORE 534237
SHUQUN PRIMARY SCHOOL,8 JURONG WEST STREET 51   ,649332,65637418,na,SQPS@MOE.EDU.SG,W11 Lakeside,"98, 187, 335",MRS SARA DE SOUZA,MDM SO KAH LAY,DR. CHOONG PEK LAN,MS LEE KOON HAR ANGELA (LI KUNXIA),na,na,na,JURONG WEST,WEST,GOVERNMENT SCHOOL,CO-ED SCHOOL,SINGLE SESSION,PRIMARY,No,No,No,No,CHINESE,MALAY,TAMIL,1.34765311431632,103.721523713379,8 JURONG WEST STREET 51 SHUQUN PRIMARY SCHOOL SINGAPORE 649332
SI LING PRIMARY SCHOOL,61 WOODLANDS AVENUE 1   ,739067,63675516,na,SLPS@MOE.EDU.SG,Woodlands,912 from Woodlands Interchange,MR KOE EE TIONG,MADAM NURAZIAN BINTE BAJURI,MR RAJ KUMAR S/O V SIVALINGAM,na,na,na,na,WOODLANDS,NORTH,GOVERNMENT SCHOOL,CO-ED SCHOOL,SINGLE SESSION,PRIMARY,No,No,No,No,CHINESE,MALAY,TAMIL,1.43240935732525,103.786035065192,61 WOODLANDS AVENUE 1 SI LING PRIMARY SCHOOL SINGAPORE 739067
SINGAPORE CHINESE GIRLS' PRIMARY SCHOOL,190 DUNEARN ROAD   ,309437,62523076,na,SCGPS@MOE.EDU.SG,Stevens,"66, 67, 105, 132, 151, 153, 154, 156, 170, 171, 186, 190, 605, 700, 960",MRS LINDA CHAN,MADAM LIM YING YING,MADAM PEH TAN WEE,MADAM SIA YAN SAN,na,na,na,NOVENA,SOUTH,GOVERNMENT-AIDED SCH,GIRLS' SCHOOL,SINGLE SESSION,PRIMARY,No,No,No,No,CHINESE,MALAY,TAMIL,1.32080725235992,103.827744749548,190 DUNEARN ROAD SINGAPORE CHINESE GIRLS' SCHOOL (PRIMARY) SINGAPORE 309437
SINGAPORE CHINESE GIRLS' SCHOOL,190 DUNEARN ROAD   ,309437,62523076,na,SCGSS@MOE.EDU.SG,STEVENS MRT,"48, 67, 105, 132, 151, 153, 154, 156, 170, 186, 190, 960, 960E, 972, 972M",MRS LINDA CHAN,MISS LEONG KAI LING,MRS SHERMAINE TANG,na,na,na,na,NOVENA,SOUTH,INDEPENDENT SCHOOL,GIRLS' SCHOOL,SINGLE SESSION,SECONDARY (S1-S4),No,No,No,Yes,CHINESE,MALAY,TAMIL,1.30239915719716,103.839055904985,H.S. OF SINGAPORE CHINESE GIRLS' SCHOOL (HISTORIC SITE)
SINGAPORE SPORTS SCHOOL,1 Champions Way   ,737913,67662100,na,enquire@sportsschool.edu.sg,Woodlands South MRT,901,MR ONG KIM SOON,MR EDMUND SONG,MR HO BENG KIAT,MDM QUEK YAU KENN LYNN,MR LIM HOW CHUEN CLEMENT,MISS TAN HUI HUI JEANIE,na,WOODLANDS,NORTH,SPECIALISED INDEPENDENT SCHOOL,CO-ED SCHOOL,FULL DAY,"MIXED LEVEL (S1-S5, JC1-JC2)",No,No,No,No,CHINESE,MALAY,TAMIL,1.42641140556342,103.789444793951,1 CHAMPIONS WAY SINGAPORE SPORTS SCHOOL SINGAPORE 737913
SOUTH VIEW PRIMARY SCHOOL,6 Choa Chu Kang Central   ,689762,67631091,na,SVPS@MOE.EDU.SG,Choa Chu Kang MRT Station,307 / South View LRT Station,MISS ANG MUI KHOONG,MISS GOH JIA LI,MR ONG HONG GHEE,MR RAMESH TIWARI S/O RAMADHAR TIWARI,na,na,na,CHOA CHU KANG,WEST,GOVERNMENT SCHOOL,CO-ED SCHOOL,SINGLE SESSION,PRIMARY,No,No,No,No,CHINESE,MALAY,TAMIL,1.38166664389749,103.746275846011,6 CHOA CHU KANG CENTRAL SOUTH VIEW PRIMARY SCHOOL SINGAPORE 689762
SPECTRA SECONDARY SCHOOL,1 WOODLANDS DRIVE 64   ,737758,64623928,na,spectra@schools.gov.sg,ADMIRALTY,"901M, 962 (Bus Stop IDs: 47549 or 47541); 904 (Bus Stop IDs: 47649 or 47641)",MR TAN TECK HOCK,MS GRACE HO CHEN YEE,MISS GUO XINHUI,MR NG E-HIAN,MISS LOW YING XIU,na,na,WOODLANDS,NORTH,SPECIALISED SCHOOL,CO-ED SCHOOL,SINGLE SESSION,SECONDARY (S1-S4),No,No,No,No,CHINESE,MALAY,TAMIL,1.43703750789961,103.804100467487,1 WOODLANDS DRIVE 64 SPECTRA SECONDARY SCHOOL SINGAPORE 737758
SPRINGDALE PRIMARY SCHOOL,71 Anchorvale Link   ,544799,63153351,na,springdale_ps@moe.edu.sg,Sengkang Station (NE16); Nearest LRT station: Farmway; *10-15 min walk from either station,"50, 85, 102, 372; Nearest Bus Stop: In front of Blk 326 Car Park; *1-2 min walk from bus stop; enter by Main Gate along Anchorvale Link or Rear Gate",MRS QUEK-SIM KIM LIANG ANNE,MR SHOEB BURHANUDDIN,MISS SONG XIUHUA SHAFIQAH NADIAH,MADAM LIM BEE TIN,na,na,na,SENG KANG,NORTH,GOVERNMENT SCHOOL,CO-ED SCHOOL,SINGLE SESSION,PRIMARY,No,No,No,No,CHINESE,MALAY,TAMIL,1.39467010299293,103.889926221247,71 ANCHORVALE LINK SPRINGDALE PRIMARY SCHOOL SINGAPORE 544799
SPRINGFIELD SECONDARY SCHOOL,30 TAMPINES AVENUE 8   ,529593,63183050,na,SPRINGFIELDS@MOE.EDU.SG,"TAMPINES MRT, TAMPINES WEST MRT","8, 15, 23, 58, 69, 118, 129, 291, 293, 298, 513, 518",MISS CHIA SHUEN LI ELEANOR,MADAM YEHIDAAH BEEVI D/O SHAIK A,MR WU CHE VUN STEVEN (WU QIWEN),na,na,na,na,TAMPINES,EAST,GOVERNMENT SCHOOL,CO-ED SCHOOL,SINGLE SESSION,SECONDARY (S1-S5),No,No,No,No,CHINESE,MALAY,na,1.34957303471476,103.930354460693,30 TAMPINES AVENUE 8 SPRINGFIELD SECONDARY SCHOOL SINGAPORE 529593
ST ANDREW'S SCHOOL (JUNIOR),2 FRANCIS THOMAS DRIVE   ,359337,62895242,na,SAJS@MOE.EDU.SG,"Potong Pasir, Toa Payoh","8,13,26,31,90,90A,107,133,142,147,853,NR6",MRS ELSIE POEY,MISS HEW YI QIAN CAROLINE,MRS STEPHANIE GOH,MR BOEY WENG YUE,na,na,na,TOA PAYOH,SOUTH,GOVERNMENT-AIDED SCH,BOYS' SCHOOL,SINGLE SESSION,PRIMARY,No,No,No,No,CHINESE,MALAY,TAMIL,1.33140255308868,103.865117134385,2 FRANCIS THOMAS DRIVE ST ANDREW'S SCHOOL (JUNIOR) SINGAPORE 359337
ST ANDREW'S SCHOOL (SECONDARY),15 FRANCIS THOMAS DRIVE   ,359342,63823779,na,SASS@MOE.EDU.SG,POTONG PASIR MRT,"8, 13, 26, 31, 90, 90A, 107, 133, 142, 147, 853",MR LEE HAN HWA,MISS TEO PEK HOON AGNES,MADAM GUINIEVE YEO LI-LYN,TEO PENG YONG DANNY,na,na,na,TOA PAYOH,SOUTH,GOVERNMENT-AIDED SCH,BOYS' SCHOOL,SINGLE SESSION,SECONDARY (S1-S5),No,No,No,No,CHINESE,MALAY,TAMIL,1.33069360968075,103.866249138562,15 FRANCIS THOMAS DRIVE ST ANDREW'S SCHOOL (SECONDARY) SINGAPORE 359342
ST. ANDREW'S JUNIOR COLLEGE,5 Sorby Adams Drive   ,357691,62850037,na,SAJC@MOE.EDU.SG,Potong Pasir NE10,"SBSTransit: 8, 26, 31, 90, 142 ,151, 154 (Diocese of Singapore); SMRT Buses: 857, 966, 985 (Diocese of Singapore), 853 (Upper Serangoon Road)",MR THAM KINE THONG,MR ANG KHENG SAN CECIL,MRS TEE AI LEE,na,na,na,na,TOA PAYOH,SOUTH,GOVERNMENT-AIDED SCH,CO-ED SCHOOL,FULL DAY,JUNIOR COLLEGE,No,No,No,No,CHINESE,MALAY,TAMIL,1.33306515740956,103.863576377056,5 SORBY ADAMS DRIVE SAINT ANDREW'S JUNIOR COLLEGE SINGAPORE 357691
ST. ANTHONY'S CANOSSIAN PRIMARY SCHOOL,1602 BEDOK NORTH AVE 4   ,469701,64492146,na,SACPS@MOE.EDU.SG,Bedok MRT,"17, 18",MRS SHARON CLARISSA FOO,MISS LEE XINYUN FELICIA,MISS THIA HWEI LING SHARON,na,na,na,na,BEDOK,EAST,GOVERNMENT-AIDED SCH,GIRLS' SCHOOL,SINGLE SESSION,PRIMARY,No,No,No,No,CHINESE,MALAY,TAMIL,1.3347253730189,103.941234868202,1602 BEDOK NORTH AVENUE 4 SAINT ANTHONY'S CANOSSIAN PRIMARY SCHOOL SINGAPORE 469701
ST. ANTHONY'S CANOSSIAN SECONDARY SCHOOL,1600 BEDOK NORTH AVENUE 4   ,469700,64490162,na,SACSS@MOE.EDU.SG,"BEDOK MRT, BEDOK RESERVOIR MRT","17, 14, 46, 222",MADAM KOH TYNG YUANN FIONA,MISS CHIONH CHEW PENG,MRS YEO SHU WEN MELISSA MARY,MISS CHEN HUIQING CHRISTINE,na,na,na,BEDOK,EAST,GOVERNMENT-AIDED SCH,GIRLS' SCHOOL,SINGLE SESSION,SECONDARY (S1-S5),No,Yes,No,No,CHINESE,MALAY,TAMIL,1.33466313498855,103.941977166932,1600 BEDOK NORTH AVENUE 4 SAINT ANTHONY'S CANOSSIAN SECONDARY SCHOOL SINGAPORE 469700
ST. ANTHONY'S PRIMARY SCHOOL,30 Bukit Batok St 32   ,659401,65690811,na,SAPS@MOE.EDU.SG,Bukit Gombak MRT Station,945,MADAM GOH LUNG ENG,MISS MATHEW ANNA,MR TEE LENG TECK,na,na,na,na,BUKIT BATOK,WEST,GOVERNMENT-AIDED SCH,CO-ED SCHOOL,SINGLE SESSION,PRIMARY,No,No,No,No,CHINESE,MALAY,TAMIL,1.3347253730189,103.941234868202,1602 BEDOK NORTH AVENUE 4 SAINT ANTHONY'S CANOSSIAN PRIMARY SCHOOL SINGAPORE 469701
ST. GABRIEL'S PRIMARY SCHOOL,220 Lorong Chuan   ,556742,63820344,na,STGPS@MOE.EDU.SG,Lor Chuan MRT Station (Circle Line),"73, 105, 159",MR MARTIN TAN SIEW KIN,MADAM CHUA WANG LING IRENE,MR LIM CHONG ENG,na,na,na,na,SERANGOON,SOUTH,GOVERNMENT-AIDED SCH,BOYS' SCHOOL,SINGLE SESSION,PRIMARY,No,No,No,No,CHINESE,MALAY,TAMIL,1.34947192653862,103.862561037707,220 LORONG CHUAN SAINT GABRIEL'S PRIMARY SCHOOL SINGAPORE 556742
ST. GABRIEL'S SECONDARY SCHOOL,24 SERANGOON AVENUE 1   ,556140,62898615,na,STGSS@MOE.EDU.SG,SERANGOON MRT,158,MR LIM CHEE KOON SHAWN,MR CHRISTOPHER THOMAS,MADAM YEE WHOY CHONG,na,na,na,na,SERANGOON,SOUTH,GOVERNMENT-AIDED SCH,BOYS' SCHOOL,SINGLE SESSION,SECONDARY (S1-S5),No,No,No,No,CHINESE,MALAY,TAMIL,1.34648798732177,103.876094163287,24 SERANGOON AVENUE 1 SAINT GABRIEL'S SECONDARY SCHOOL SINGAPORE 556140
ST. HILDA'S PRIMARY SCHOOL,2 Tampines Ave 3   ,529706,67830527,na,SHPS@MOE.EDU.SG,"Tampines West, Tampines Central",Feeder Bus service: 293 from Tampines Interchange (towards St 71),MADAM LAW LI MEI,MADAM LOW AI LING,MADAM NG YIN SZE JOSEPHINE,MADAM POH LYE IMM,na,na,na,TAMPINES,EAST,GOVERNMENT-AIDED SCH,CO-ED SCHOOL,SINGLE SESSION,PRIMARY,No,No,Yes,No,CHINESE,MALAY,TAMIL,1.34938565036336,103.937007133662,2 TAMPINES AVENUE 3 SAINT HILDA'S PRIMARY SCHOOL SINGAPORE 529706
ST. HILDA'S SECONDARY SCHOOL,2 TAMPINES STREET 82   ,528986,67865011,na,SHSS@MOE.EDU.SG,"TAMPINES MRT, TAMPINES WEST MRT","22, 129, 293, 298",MR LEW KING LUN JULIAN,MADAM SO MUN YEE,MR GOH WEE SIONG JARED,MR LOY WEE JIN,na,na,na,TAMPINES,EAST,GOVERNMENT-AIDED SCH,CO-ED SCHOOL,SINGLE SESSION,SECONDARY (S1-S5),No,No,No,No,CHINESE,MALAY,TAMIL,1.34973922385379,103.937608032148,2 TAMPINES STREET 82 SAINT HILDA'S SECONDARY SCHOOL SINGAPORE 528986
ST. JOSEPH'S INSTITUTION,38 MALCOLM ROAD   ,308274,62533640,na,SJI@MOE.EDU.SG,STEVENS MRT,"105, 132, 151, 153, 154, 156, 186, 190, 960, 972",MR JUSTIN ARUL PIERRE,MR DOMINIC ANG SWEE KENG,MR LAM CHUEN SENG ERIC,MR TSAO WEN JIE NICHOLAS,MDM SHIRLEY YONG WAI YEE,na,na,NOVENA,SOUTH,INDEPENDENT SCHOOL,CO-ED SCHOOL,SINGLE SESSION,MIXED LEVEL (S1-JC2),No,No,No,Yes,CHINESE,MALAY,TAMIL,1.29725759853987,103.851023580389,71 BRAS BASAH ROAD FORMER SAINT JOSEPH'S INSTITUTION SINGAPORE 189555
ST. JOSEPH'S INSTITUTION JUNIOR,3 ESSEX ROAD   ,309331,62557455,na,STMICHAELSCH@MOE.EDU.SG,Novena,21;54;56;57;124;131;141;166;518;851;980,MR LEONG YEW HON ERIC,"MISS YAK HIOK WOON, FAITH (YE YUYUN)",MISS SNG WAN XIAN,MR LIM YEW TEE COLLIN,na,na,na,NOVENA,SOUTH,GOVERNMENT-AIDED SCH,BOYS' SCHOOL,SINGLE SESSION,PRIMARY,No,No,No,No,CHINESE,MALAY,TAMIL,1.31781476118551,103.845633334522,3 ESSEX ROAD MORNING STAR COMMUNITY SERVICES (ST JOSEPH'S INSTITUTION JUNIOR) SINGAPORE 309331
ST. MARGARET'S SCHOOL (PRIMARY),136 Sophia Road   ,228197,63394264,na,STMARGARETPS@MOE.EDU.SG,Little India MRT Station (NE7/DT12); Dhoby Ghaut MRT Station (NS24/NE6/CC1),"64, 65, 131, 139, 147, 857, 166 (alight at the bus stop after Parklane Shopping Mall)",MADAM KO-TAN LI LING,MDM WENDY SENG GEK CHENG,MRS NEO HUI EN CHERLYN,MISS TAN CHER LANG,na,na,na,CENTRAL,SOUTH,GOVERNMENT-AIDED SCH,GIRLS' SCHOOL,SINGLE SESSION,PRIMARY,No,No,No,No,CHINESE,MALAY,TAMIL,1.30390355715254,103.845955315605,136 SOPHIA ROAD SAINT MARGARET'S PRIMARY SCHOOL SINGAPORE 228197
ST. MARGARET'S SCHOOL (SECONDARY),111 FARRER ROAD   ,259240,64666709,na,STMARGARETSS@MOE.EDU.SG,FARRER ROAD MRT,"48, 93, 153, 165, 174, 186, 855, 961",MISS LIM HUI KHENG LINDA,MDM CHIN YIH MIN,MS WOON CHIN FONG CHRYSTINE,na,na,na,na,BUKIT TIMAH,SOUTH,GOVERNMENT-AIDED SCH,GIRLS' SCHOOL,SINGLE SESSION,SECONDARY (S1-S5),No,Yes,No,No,CHINESE,MALAY,TAMIL,1.32006821363359,103.80995114006,111 FARRER ROAD SAINT MARGARET'S SCHOOL (SECONDARY) SINGAPORE 259240
UNITY SECONDARY SCHOOL,20 CHOA CHU KANG STREET 62   ,689143,67654189,na,UNITY_SS@MOE.EDU.SG,YEW TEE MRT,307,MADAM ONG LIANG FUNG,MR LIM YONG CHAI ALAN,MS YUEN CHAI LIN,na,na,na,na,CHOA CHU KANG,WEST,GOVERNMENT SCHOOL,CO-ED SCHOOL,SINGLE SESSION,SECONDARY (S1-S5),No,No,No,No,CHINESE,MALAY,TAMIL,1.40001524119441,103.74602091483,20 CHOA CHU KANG STREET 62 UNITY SECONDARY SCHOOL SINGAPORE 689143
ST. PATRICK'S SCHOOL,490 EAST COAST ROAD   ,429058,63445152,na,STPATRICKSCH@MOE.EDU.SG,MARINE TERRACE MRT (TEL),"10, 10E, 12, 13, 14, 14E, 15, 16, 31, 32, 36, 40, 43, 47, 48, 55, 135, 150, 155, 196, 197",MR MARK GERARD MINJOOT,MR TAN YII HSIEN BARNABAS,MR KWAN YEW MENG,na,na,na,na,BEDOK,EAST,GOVERNMENT-AIDED SCH,BOYS' SCHOOL,SINGLE SESSION,SECONDARY (S1-S5),No,No,No,No,CHINESE,MALAY,TAMIL,1.30788341871801,103.917638193713,490 EAST COAST ROAD SAINT PATRICK'S SCHOOL SINGAPORE 429058
ST. STEPHEN'S SCHOOL,20 SIGLAP VIEW   ,455789,64422576,na,STSTEPHENSCH@MOE.EDU.SG,Kembangan MRT Station,"2,7,24,25,26,28,30,32,33,67,854",MR GOH HENG LIANG TIMOTHY,MR EDWIN HENG TOW YANG,MR CHEW SOO KWANG,na,na,na,na,BEDOK,EAST,GOVERNMENT-AIDED SCH,BOYS' SCHOOL,SINGLE SESSION,PRIMARY,No,No,No,No,CHINESE,MALAY,TAMIL,1.31878997295135,103.917258129598,20 SIGLAP VIEW SAINT STEPHEN'S SCHOOL SINGAPORE 455789
SWISS COTTAGE SECONDARY SCHOOL,3 BUKIT BATOK STREET 34   ,659322,65693028,na,SCSS@MOE.EDU.SG,BUKIT GOMBAK MRT,"187, 188, 985, 945",MDM MANDY CHENG MUN YI,MR TAN BOON PIANG,na,na,na,na,na,BUKIT BATOK,WEST,GOVERNMENT SCHOOL,CO-ED SCHOOL,SINGLE SESSION,SECONDARY (S1-S5),No,No,No,No,CHINESE,MALAY,TAMIL,1.36471742697475,103.750396136688,3 BUKIT BATOK STREET 34 SWISS COTTAGE SECONDARY SCHOOL SINGAPORE 659322
TAMPINES MERIDIAN JUNIOR COLLEGE,21 Pasir Ris Street 71   ,518799,63493667,na,tmjc@moe.edu.sg,Pasir Ris MRT Station,"3, 39, 53, 68, 81, 89, 109, 358, 359, 518, 518A",MR SIN KIM HO,MADAM TOH LAY HAR,MR ANG YEOU PENG,MDM YASMINE D/O KAMALUDHEEN,na,na,na,PASIR RIS,EAST,GOVERNMENT SCHOOL,CO-ED SCHOOL,FULL DAY,JUNIOR COLLEGE,No,No,No,No,CHINESE,MALAY,TAMIL,1.37633346909682,103.936990723441,21 PASIR RIS STREET 71 TAMPINES MERIDIAN JUNIOR COLLEGE SINGAPORE 518799
TAMPINES NORTH PRIMARY SCHOOL,30 TAMPINES AVENUE 9   ,529565,67863117,na,TNPS@MOE.EDU.SG,Tampines MRT,"SBS Transit 28, 29, 293",MADAM RATNA KUMARI D/O R RAMACHANDRA,MR MOHAMED YUSUFF MOHAMED ALLIE,MISS CHARMAINE TAY,na,na,na,na,TAMPINES,EAST,GOVERNMENT SCHOOL,CO-ED SCHOOL,SINGLE SESSION,PRIMARY,No,No,No,No,CHINESE,MALAY,TAMIL,1.36047641484682,103.948725782833,30 TAMPINES AVENUE 9 TAMPINES NORTH PRIMARY SCHOOL SINGAPORE 529565
TAMPINES PRIMARY SCHOOL,250 TAMPINES STREET 12   ,529426,67843521,na,TPPS@MOE.EDU.SG,Tampines MRT,"8, 10, 17,18, 27, 31, 65, 292, 293, or any bus going into Tampines Interchange",MADAM LEE LAY SEE/ MRS LAY SEE NEUFELD,MADAM ARIKEN CHARMAINE CARRIE,MR HO WEE MIN  KELVIN,MR TIN CHEE KUANG EDMUND,na,na,na,TAMPINES,EAST,GOVERNMENT SCHOOL,CO-ED SCHOOL,SINGLE SESSION,PRIMARY,No,No,No,No,CHINESE,MALAY,TAMIL,1.3504863946694,103.943573098509,250 TAMPINES STREET 12 AMP-MERCU STUDENT CARE CENTRE @ TAMPINES PRIMARY SCHOOL SINGAPORE 529426
TAMPINES SECONDARY SCHOOL,252 TAMPINES ST 12   ,529427,67843059,na,TPSS@MOE.EDU.SG,TAMPINES MRT,"3,  8,  10,  15,  17,  18,  20,  21,  23,  27,  28,  31,  34,  39,  59,  65,  129,  168,  292,  298,  518",MADAM TAN YANG FERN,MR MOHAMED FAHIZEL S/O M EGUEYAMAREC,MS LEE PECK WEN AMANDA (LI BIWEN),na,na,na,na,TAMPINES,EAST,GOVERNMENT SCHOOL,CO-ED SCHOOL,SINGLE SESSION,SECONDARY (S1-S5),No,No,No,No,CHINESE,MALAY,TAMIL,1.34926094811197,103.944263709507,252 TAMPINES STREET 12 TAMPINES SECONDARY SCHOOL SINGAPORE 529427
TANJONG KATONG GIRLS' SCHOOL,20 Dunman Lane   ,439272,63451487,64409187(from 2017),TKGS@MOE.EDU.SG,"PAYA LEBAR MRT, DAKOTA MRT","10, 16, 31, 32, 33, 40, 43, 134, 135, 197",MISS CHEW ING LIM,MS XU WANJING,MR CHAI CHI YANG MOSES,na,na,na,na,MARINE PARADE,EAST,GOVERNMENT SCHOOL,GIRLS' SCHOOL,SINGLE SESSION,SECONDARY (S1-S4),No,Yes,No,No,CHINESE,MALAY,TAMIL,1.30821274627283,103.895820094229,20 DUNMAN LANE TANJONG KATONG GIRLS' SCHOOL SINGAPORE 439272
TANJONG KATONG PRIMARY SCHOOL,10 Seraya Road   ,437259,63445370,na,TKPS@MOE.EDU.SG,na,na,MS TAN SEOK KUAN,MISS ONG CHUXIAN,MADAM TOH LENG LENG,MRS VIJAYA GANESH,na,na,na,MARINE PARADE,EAST,GOVERNMENT SCHOOL,CO-ED SCHOOL,SINGLE SESSION,PRIMARY,No,No,No,No,CHINESE,MALAY,TAMIL,1.30498489044822,103.899999965407,10 SERAYA ROAD AFTERSCHOOL @ TANJONG KATONG PRIMARY SCHOOL SINGAPORE 437259
TANJONG KATONG SECONDARY SCHOOL,130 HAIG ROAD   ,438796,64409624,na,TKSS@MOE.EDU.SG,"PAYA LEBAR MRT, DAKOTA MRT","10, 16, 31, 32, 33, 40, 76, 135, 197",MADAM TAN YOK CHING RUBY,MADAM NG SIEW CHIN,MR ARUUMUGAM SAMIKKANNU,na,na,na,na,MARINE PARADE,EAST,GOVERNMENT SCHOOL,CO-ED SCHOOL,SINGLE SESSION,SECONDARY (S1-S4),No,Yes,No,No,CHINESE,MALAY,TAMIL,1.30873515955341,103.897225196199,130 HAIG ROAD TANJONG KATONG SECONDARY SCHOOL SINGAPORE 438796
TAO NAN SCHOOL,49 MARINE CRESCENT   ,449761,64435973,na,TAONAN_SCH@MOE.EDU.SG,"Marine Parade, Marine Terrace","13, 16, 31, 36, 43, 48, 55, 134, 196, 197",MADAM POH QINYU,MS NG HUI MIN,MR CHAN TUCK CHEONG,MADAM FOO MEI PING,MRS TEO CHAI HIAH,na,na,MARINE PARADE,EAST,GOVERNMENT-AIDED SCH,CO-ED SCHOOL,SINGLE SESSION,PRIMARY,Yes,No,Yes,No,CHINESE,na,na,1.2943321052493,103.849026157822,39 ARMENIAN STREET FORMER TAO NAN SCHOOL SINGAPORE 179941
TECK GHEE PRIMARY SCHOOL,1 ANG MO KIO STREET 32   ,569299,64589886,na,TGPS@MOE.EDU.SG,Ang Mo Kio & Bishan,"22,24,135,853,162,262,159",MISS REZIA RAHUMATHULLAH,MADAM CHOH THIAN JENG CELIA,MR TAN CHUAN YANG,na,na,na,na,ANG MO KIO,SOUTH,GOVERNMENT SCHOOL,CO-ED SCHOOL,SINGLE SESSION,PRIMARY,No,No,No,No,CHINESE,MALAY,TAMIL,1.36558782075966,103.850957126982,1 ANG MO KIO STREET 32 TECK GHEE PRIMARY SCHOOL SINGAPORE 569299
TECK WHYE PRIMARY SCHOOL,11 TECK WHYE WALK   ,688261,67635191,na,TWPS@MOE.EDU.SG,Choa Chu Kang MRT & LRT,"975, 190 & 985",MADAM WONG SU MAY,MRS LIM GEK NOI,MR MURALIDHARAN S/O NARAYANAN,na,na,na,na,CHOA CHU KANG,WEST,GOVERNMENT SCHOOL,CO-ED SCHOOL,SINGLE SESSION,PRIMARY,No,No,No,No,CHINESE,MALAY,TAMIL,1.38364996834457,103.753291857016,11 TECK WHYE WALK TECK WHYE PRIMARY SCHOOL SINGAPORE 688261
TELOK KURAU PRIMARY SCHOOL,50 BEDOK RESERVOIR RD   ,479239,62442182,na,TELOKKRAU_PS@MOE.EDU.SG,Kaki Bukit MRT (nearest),"8, 21, 60 & 65",MADAM GRACE HO LI JUN,MDM SHANTHI D/O VEERASWAMY,MADAM TAN KIM YAN,na,na,na,na,BEDOK,EAST,GOVERNMENT SCHOOL,CO-ED SCHOOL,SINGLE SESSION,PRIMARY,No,No,No,No,CHINESE,MALAY,TAMIL,1.33104585441349,103.910934011337,50 BEDOK RESERVOIR ROAD TELOK KURAU PRIMARY SCHOOL SINGAPORE 479239
TEMASEK JUNIOR COLLEGE,2 Tampines Avenue 9   Temasek Junior College,529564,64428762,na,TEMASEK_JC@MOE.EDU.SG,TAMPINES EAST MRT,"Bus Service along Tampines Ave 9: 18, 29 and 29A; Bus Service along Tampines Ave 7: 3, 3A, 4, 9, 9A, 12, 12e, 17, 18, 19, 21, 29, 29A, 34, 34B, 37, 39, 59, 81, 293 and 518.",MR LIU EARNLER,MRS WENDY GOH,"MR QUEK POH BENG, KENNETH",MR CHAN KOK YEW MARK,na,na,na,TAMPINES,EAST,GOVERNMENT SCHOOL,CO-ED SCHOOL,FULL DAY,MIXED LEVEL (S1-JC2),No,No,No,Yes,CHINESE,MALAY,TAMIL,1.35728017255861,103.956185936394,2 TAMPINES AVENUE 9 TEMASEK JUNIOR COLLEGE SINGAPORE 529564
TEMASEK PRIMARY SCHOOL,501 BEDOK SOUTH AVE 3   ,469300,64495871,na,TEMASEK_PS@MOE.EDU.SG,Tanah Merah MRT,"25,46, 48, 229",MADAM ANG GEK LENG ALISON AMANDA,MADAM ONG SEOW PENG,MADAM HASLINDAH BTE BAHROM,na,na,na,na,BEDOK,EAST,GOVERNMENT SCHOOL,CO-ED SCHOOL,SINGLE SESSION,PRIMARY,No,No,No,No,CHINESE,MALAY,TAMIL,1.31770677551333,103.945590669163,501 BEDOK SOUTH AVENUE 3 TEMASEK PRIMARY SCHOOL SINGAPORE 469300
TEMASEK SECONDARY SCHOOL,600 UPPER EAST COAST ROAD   ,465561,64491450,na,TEMASEK_SS@MOE.EDU.SG,"BEDOK MRT, TANAH MERAH MRT","10, 10E, 13, 14, 25, 43, 46, 55, 137, 229, 506, 531, 853",MR TAN SHUN LOONG,MR PONG WEN LONG,MR CHANDRASEKARAN S/O AMMIAPPAN,na,na,na,na,BEDOK,EAST,GOVERNMENT SCHOOL,CO-ED SCHOOL,SINGLE SESSION,SECONDARY (S1-S5),No,Yes,No,No,CHINESE,MALAY,TAMIL,1.31591673150616,103.947564112022,600 UPPER EAST COAST ROAD TEMASEK SECONDARY SCHOOL SINGAPORE 465561
TOWNSVILLE PRIMARY SCHOOL,3 ANG MO KIO AVE 10   ,569730,64570141,na,TOWNSVILLEPS@MOE.EDU.SG,"Bishan MRT, Ang Mo Kio MRT Stations","45, 50, 55, 261, 548, 22, 24, 128, 135, 159, 162, 162M, 262, 853",MR EDDIE FOO CHIT CHEONG,MR HO SENG TAT SUNNY,MADAM LYNETTE FERNANDEZ,MR MARTIN VELAN ANTHONY,na,na,na,ANG MO KIO,SOUTH,GOVERNMENT SCHOOL,CO-ED SCHOOL,SINGLE SESSION,PRIMARY,No,No,No,No,CHINESE,MALAY,TAMIL,1.36003263746623,103.853826048327,3 ANG MO KIO AVENUE 10 TOWNSVILLE PRIMARY SCHOOL SINGAPORE 569730
VICTORIA JUNIOR COLLEGE,20 MARINE VISTA   ,449035,64438337,na,VICTORIA_JC@MOE.EDU.SG,"Nearest MRT Stations:  Marine Terrace, Kembangan, Eunos","13, 16, 16M, 31, 36, 36A, 36B, 43, 47, 48, 55, 196, 196A, 196e, 197, 853M",MR LOW SWEE HENG JEFFREY,MR KOH WEINING,MS LEE YUN YUN GRACE,MRS KAREN TAY,MR LIM KWEE HONG KYLE,na,na,BEDOK,EAST,GOVERNMENT SCHOOL,CO-ED SCHOOL,FULL DAY,JUNIOR COLLEGE,No,No,No,Yes,CHINESE,MALAY,TAMIL,1.30670174177479,103.919982704149,20 MARINE VISTA VICTORIA JUNIOR COLLEGE SINGAPORE 449035
VICTORIA SCHOOL,2 SIGLAP LINK   ,448880,64452609,na,VICTORIA_SCH@MOE.EDU.SG,"SIGLAP, BEDOK MRT, PAYA LEBAR MRT","31, 36, 43, 47, 48, 55, 155, 196, 196E, 197, 401, 853M",MR LOW CHUN MENG,MR LIM WEI ZHONG CLARENCE,"MR WU BIWEI, IVAN",MR ANG JOHNNY,na,na,na,BEDOK,EAST,GOVERNMENT SCHOOL,BOYS' SCHOOL,SINGLE SESSION,SECONDARY (S1-S4),No,Yes,No,Yes,CHINESE,MALAY,TAMIL,1.3087130270751,103.927980966639,2 SIGLAP LINK VICTORIA SCHOOL SINGAPORE 448880
WATERWAY PRIMARY SCHOOL,70 Punggol Drive   ,828802,6315 3451,na,waterway_ps@moe.edu.sg,Kadaloor LRT Station,"50, 381",MR WONG KENG YUIN WILBUR,MADAM TAN GEK SIM MAGELLA,MADAM CHUA KIM LAN JUDY,MADAM SHARIFAH MASTURAH BTE S OSMAN,na,na,na,PUNGGOL,EAST,GOVERNMENT SCHOOL,CO-ED SCHOOL,SINGLE SESSION,PRIMARY,No,No,No,No,CHINESE,MALAY,TAMIL,1.39882800626578,103.918621581556,70 PUNGGOL DRIVE WATERWAY PRIMARY SCHOOL SINGAPORE 828802
WELLINGTON PRIMARY SCHOOL,10 WELLINGTON CIRCLE   ,757702,67533765,na,WELLINGTONPS@MOE.EDU.SG,Sembawang MRT,"980, 856, 859",MR ALCANTARA ALBERT ALFRED,MADAM HOONG WHEE SIEN,MADAM SHAHRULHANA BTE MOHAMED,MR NG WEE MING DENNIS,na,na,na,SEMBAWANG,NORTH,GOVERNMENT SCHOOL,CO-ED SCHOOL,SINGLE SESSION,PRIMARY,No,No,No,No,CHINESE,MALAY,TAMIL,1.45192019155475,103.822303719094,10 WELLINGTON CIRCLE WELLINGTON PRIMARY SCHOOL SINGAPORE 757702
WEST GROVE PRIMARY SCHOOL,1 JURONG WEST ST 72   ,649223,62679235,na,WGPS@MOE.EDU.SG,Boon Lay MRT,"Bus 99, 242",MISS MABEL GOH,MADAM GOH XUEMIN CHERMAINE,"MADAM TAY SOOK HIAN, AUDREY",na,na,na,na,JURONG WEST,WEST,GOVERNMENT SCHOOL,CO-ED SCHOOL,SINGLE SESSION,PRIMARY,No,No,No,No,CHINESE,MALAY,TAMIL,1.3448790560014,103.699286360581,1 JURONG WEST STREET 72 WEST GROVE PRIMARY SCHOOL SINGAPORE 649223
WEST SPRING PRIMARY SCHOOL,60 Bukit Panjang Ring Road   ,679946,na,63140648,westspring_ps@moe.edu.sg,Jelapang LRT,"920, 922",MR WILLY TAN,MR WILLY TAN NGUAN PENG,MADAM KUM LAI MENG,MR SIM KOOI SUEN,MR CHIN HONG FAI HUMPHREY,na,na,BUKIT PANJANG,WEST,GOVERNMENT SCHOOL,CO-ED SCHOOL,SINGLE SESSION,PRIMARY,No,No,No,No,CHINESE,MALAY,TAMIL,1.38944145898943,103.766195711835,60 BUKIT PANJANG RING ROAD WEST SPRING PRIMARY SCHOOL SINGAPORE 679946
WEST SPRING SECONDARY SCHOOL,61 SENJA  ROAD   ,677737,68929468,na,WESTSPRINGSS@MOE.EDU.SG,"BUKIT PANJANG MRT, JELAPANG LRT, SENJA LRT","920, 972, 976",MADAM YONG LI LING BELINDA,MR MALVIN CHAN HUAN JIAN,MADAM SIM BEE LIAN (SHEN MEILIAN),na,na,na,na,BUKIT PANJANG,WEST,GOVERNMENT SCHOOL,CO-ED SCHOOL,SINGLE SESSION,SECONDARY (S1-S5),No,No,No,No,CHINESE,MALAY,TAMIL,1.38782283303782,103.760128840155,61 SENJA ROAD WEST SPRING SECONDARY SCHOOL SINGAPORE 677737
WEST VIEW PRIMARY SCHOOL,31 SENJA ROAD   ,677742,67600147,na,WVPS@MOE.EDU.SG,"Bukit Panjang MRT, SENJA LRT (A13)","170,171,176,178,180,000,000,000,000,000",MR LEE FOOK LOONG EUGENE,MADAM ONG POH CHOO DORIS,MADAM SITI SUHAILA BTE SAPIHE,na,na,na,na,BUKIT PANJANG,WEST,GOVERNMENT SCHOOL,CO-ED SCHOOL,SINGLE SESSION,PRIMARY,No,No,No,No,CHINESE,MALAY,TAMIL,1.3836758200336,103.760240434318,31 SENJA ROAD WEST VIEW PRIMARY SCHOOL SINGAPORE 677742
WESTWOOD PRIMARY SCHOOL,1 Jurong West Street 73   ,649188,67945084,na,westwood_ps@moe.edu.sg,Boon Lay MRT Station,"181, 502 & 243",MR MAH SENG THONG ANDREW,MR CHEE CHIT YENG,MR LOW MIN CHYE,MISS CHONG HUAY LENG,na,na,na,JURONG WEST,WEST,GOVERNMENT SCHOOL,CO-ED SCHOOL,SINGLE SESSION,PRIMARY,No,No,No,No,CHINESE,MALAY,TAMIL,1.34718456606375,103.70053420978,1 JURONG WEST STREET 73 WESTWOOD PRIMARY SCHOOL SINGAPORE 649188
WESTWOOD SECONDARY SCHOOL,11 JURONG WEST STREET 25   ,648350,67929738,na,WESTWOOD_SS@MOE.EDU.SG,BOON LAY MRT,"172, 181, 181M, 185, 199, 405, 974, 974A",MR ABDUL HARRIS B SUMARDI,MR HOI WENG KIT DERRICK,MISS THEODORA HUANG XINYI,na,na,na,na,JURONG WEST,WEST,GOVERNMENT SCHOOL,CO-ED SCHOOL,SINGLE SESSION,SECONDARY (S1-S5),No,No,No,No,CHINESE,MALAY,TAMIL,1.35373698510994,103.701772102139,11 JURONG WEST STREET 25 WESTWOOD SECONDARY SCHOOL SINGAPORE 648350
WHITE SANDS PRIMARY SCHOOL,2 PASIR RIS ST 11   ,519075,65815013,na,WSPS@MOE.EDU.SG,Pasir Ris MRT Station,"12, 17, 21, 39, 53, 81, 518, 109",MADAM WONG LIN LIN AUDREY,MS REZINA KHAN D/O ABDUL RAHIM,MISS TIONG LINA,na,na,na,na,PASIR RIS,EAST,GOVERNMENT SCHOOL,CO-ED SCHOOL,SINGLE SESSION,PRIMARY,No,No,No,No,CHINESE,MALAY,TAMIL,1.36555714668553,103.960918869319,2 PASIR RIS STREET 11 WHITE SANDS PRIMARY SCHOOL SINGAPORE 519075
WHITLEY SECONDARY SCHOOL,30 BISHAN STREET 24   ,579747,64591330,na,WHITLEY_SS@MOE.EDU.SG,"BISHAN MRT, MARYMOUNT MRT","13, 52, 54, 74, 74E, 88, 162, 162M,  588, 410, 851, 852",MISS KOH LIN LYNN,MR TAN YIT KEE,MR TAY KIM SENG,na,na,na,na,BISHAN,SOUTH,GOVERNMENT SCHOOL,CO-ED SCHOOL,SINGLE SESSION,SECONDARY (S1-S5),No,No,No,No,CHINESE,MALAY,TAMIL,1.35505208480649,103.842552378136,30 BISHAN STREET 24 WHITLEY SECONDARY SCHOOL SINGAPORE 579747
WOODGROVE PRIMARY SCHOOL,2 WOODLANDS DRIVE 14   ,738079,68943372,na,WOODGROVE_PS@MOE.EDU.SG,Woodlands MRT Station,901,MS ADELINE TAN WEE KIAW,MR PHANG TECK HOW,MR SIM YONG MING,na,na,na,na,WOODLANDS,NORTH,GOVERNMENT SCHOOL,CO-ED SCHOOL,SINGLE SESSION,PRIMARY,No,No,No,No,CHINESE,MALAY,TAMIL,1.43273620725049,103.79023031392,2 WOODLANDS DRIVE 14 COMMIT LEARNING SCHOOLHOUSE @ WOODGROVE PRIMARY SCHOOL SINGAPORE 738079
WOODGROVE SECONDARY SCHOOL,3 WOODLANDS AVENUE 6   ,738990,68934458,na,WOODGROVE_SS@MOE.EDU.SG,"WOODLANDS MRT, WOODLANDS SOUTH MRT","901, 901M",MR CHUA CHOR HUAT,MADAM TAN PHAIK HOON (CHEN BIHONG),MRS VENKATRAMAN CHITHRA,MR LOKE KOK LEONG,na,na,na,WOODLANDS,NORTH,GOVERNMENT SCHOOL,CO-ED SCHOOL,SINGLE SESSION,SECONDARY (S1-S5),No,No,No,No,CHINESE,MALAY,TAMIL,1.42831828137013,103.79604758539,3 WOODLANDS AVENUE 6 WOODGROVE SECONDARY SCHOOL SINGAPORE 738990
WOODLANDS PRIMARY SCHOOL,10 WOODLANDS DRIVE 50   ,738853,63671165,na,WPS@MOE.EDU.SG,Woodlands,912 & 912E,MISS KUCK LI LIAN LILLIAN,MR RAZALI B SENIN,MISS SUSANNA CHAU,na,na,na,na,WOODLANDS,NORTH,GOVERNMENT SCHOOL,CO-ED SCHOOL,SINGLE SESSION,PRIMARY,No,No,No,No,CHINESE,MALAY,TAMIL,1.43658270720199,103.791791282236,10 WOODLANDS DRIVE 50 COMMIT LEARNING SCHOOLHOUSE @ WOODLANDS PRIMARY SCHOOL SINGAPORE 738853
WOODLANDS RING PRIMARY SCHOOL,11 WOODLANDS RING ROAD   ,738240,63643490,na,WRPS@MOE.EDU.SG,Admiralty MRT Station,912,MISS GEETHA D/O DORAISAMY,MR LIM KIM THYE,MR CHEW CHIN MING,na,na,na,na,WOODLANDS,NORTH,GOVERNMENT SCHOOL,CO-ED SCHOOL,SINGLE SESSION,PRIMARY,No,No,No,No,CHINESE,MALAY,TAMIL,1.43495229315857,103.797435733144,11 WOODLANDS RING ROAD WOODLANDS RING PRIMARY SCHOOL SINGAPORE 738240
WOODLANDS RING SECONDARY SCHOOL,21 WOODLANDS AVENUE 1   ,739062,na,na,WRSS@MOE.EDU.SG,ADMIRALTY MRT,912,MR LAM YUI- P'NG,MR TAY YONG SEAH MELVIN,"MR SIM KOK HIAN, KENNETH",MR HEE JUAY AY,na,na,na,WOODLANDS,NORTH,GOVERNMENT SCHOOL,CO-ED SCHOOL,SINGLE SESSION,SECONDARY (S1-S5),No,No,No,No,CHINESE,MALAY,TAMIL,1.43070452883799,103.777625748539,21 WOODLANDS AVENUE 1 WOODLANDS RING SECONDARY SCHOOL (TILL JAN 2029) SINGAPORE 739062
WOODLANDS SECONDARY SCHOOL,11 MARSILING ROAD   ,739111,62691774,na,WSS@MOE.EDU.SG,"MARSILING MRT, WOODLANDS MRT","913, 913M, 913, 913T, 178, 856, 903",MISS MOH CUI RONG REBECCA,MADAM MASAYU BINTE MAHMUD,MR TAY HONG JOO STEVEN,na,na,na,na,WOODLANDS,NORTH,GOVERNMENT SCHOOL,CO-ED SCHOOL,SINGLE SESSION,SECONDARY (S1-S5),No,No,No,No,CHINESE,MALAY,TAMIL,1.43912528141356,103.774586410437,11 MARSILING ROAD WOODLANDS SECONDARY SCHOOL SINGAPORE 739111
XINGHUA PRIMARY SCHOOL,45 HOUGANG AVENUE 1   ,538882,62838831,na,XINGHUA_PS@MOE.EDU.SG,Kovan MRT Station,"Bus services 53, 62, 112, 113, 115",MR LEOW YEN MIN,MISS PHUA AI LEI,MS TAN BEE YIN (CHEN MEIYING),na,na,na,na,HOUGANG,SOUTH,GOVERNMENT SCHOOL,CO-ED SCHOOL,SINGLE SESSION,PRIMARY,No,No,No,No,CHINESE,MALAY,TAMIL,1.35790893589535,103.890472887906,45 HOUGANG AVENUE 1 XINGHUA PRIMARY SCHOOL SINGAPORE 538882
XINGNAN PRIMARY SCHOOL,5 JURONG WEST STREET 91   ,649036,67921493,na,XINGNAN_PS@MOE.EDU.SG,Pioneer MRT Station,Bus 99 & 241,"MADAM CHAN SIN LI, CINDY",MDM ANG HWEE LOO,MADAM S ANITHA,na,na,na,na,JURONG WEST,WEST,GOVERNMENT SCHOOL,CO-ED SCHOOL,SINGLE SESSION,PRIMARY,No,No,No,No,CHINESE,MALAY,TAMIL,1.34254744877694,103.687950252103,5 JURONG WEST STREET 91 XINGNAN PRIMARY SCHOOL SINGAPORE 649036
XINMIN PRIMARY SCHOOL,9 HOUGANG AVENUE 8   ,538784,62880334,na,XINMIN_PS@MOE.EDU.SG,Nil,"74, 147, 165, 112",MADAM TAN KAY LING,MRS AHKEELA JULIA BEE D/O HANIFAH,MR LIM BOON TECK,na,na,na,na,HOUGANG,NORTH,GOVERNMENT SCHOOL,CO-ED SCHOOL,SINGLE SESSION,PRIMARY,No,No,No,No,CHINESE,MALAY,TAMIL,1.37139548941931,103.883080767491,9 HOUGANG AVENUE 8 XINMIN PRIMARY SCHOOL SINGAPORE 538784
XINMIN SECONDARY SCHOOL,11 HOUGANG AVENUE 8   ,538789,63851068,na,XINMIN_SS@MOE.EDU.SG,HOUGANG MRT,"25, 43, 43M, 55, 70, 70A, 70B, 70M, 72, 72A, 73, 73A, 74, 88, 88A, 103, 109, 109A, 112, 116, 132, 147, 159, 159A, 161, 165, 329, 660, 854, 854E",MR TAN SOON HUI,MR GOH KAR WHEE,MADAM KOMATHI D/O P KESAVAN,MR TAN KOK KWANG,na,na,na,HOUGANG,NORTH,GOVERNMENT SCHOOL,CO-ED SCHOOL,SINGLE SESSION,SECONDARY (S1-S5),No,Yes,No,No,CHINESE,MALAY,TAMIL,1.37255884700002,103.88305161385,11 HOUGANG AVENUE 8 XINMIN SECONDARY SCHOOL SINGAPORE 538789
XISHAN PRIMARY SCHOOL,8 YISHUN STREET 21   ,768611,67588361,na,XISHAN_PS@MOE.EDU.SG,Alight at Yishun MRT Station; Take Exit C; Walk towards Yishun Street 21,"Along Yishun Ave 2,take Bus Service 117, 169, 804, 812, 965. Alight at Blk 220. Along Yishun Ring Road,take Bus Service 1N, 800, 804, NR1. Alight at Blk 227 or 236.","MADAM NGOH YING LI, JANE",MISS LATHA D/O SINASAMY,MADAM LEE WEE LING (LI WEILIN),na,na,na,na,YISHUN,NORTH,GOVERNMENT SCHOOL,CO-ED SCHOOL,SINGLE SESSION,PRIMARY,No,No,No,No,CHINESE,MALAY,TAMIL,1.43347186925064,103.837755319448,8 YISHUN STREET 21 XISHAN PRIMARY SCHOOL SINGAPORE 768611
YANGZHENG PRIMARY SCHOOL,15 SERANGOON AVENUE 3   ,556108,62879778,na,YZPS@MOE.EDU.SG,Serangoon Station,"58 & 105 (Outside the school, Serangoon Ave 3); 133 & 135(Serangoon Ave 2)",MRS LIM- FOO BOON CHING,MR ERIC LEE WEI TAT,MISS MICHELLE HUANG,MADAM TAN ENG ENG JENNY,na,na,na,SERANGOON,SOUTH,GOVERNMENT SCHOOL,CO-ED SCHOOL,SINGLE SESSION,PRIMARY,No,No,No,No,CHINESE,MALAY,TAMIL,1.34864575840923,103.868595527042,15 SERANGOON AVENUE 3 YANGZHENG PRIMARY SCHOOL SINGAPORE 556108
YEW TEE PRIMARY SCHOOL,10 CHOA CHU KANG ST 64   ,689100,67675450,na,YTPS@MOE.EDU.SG,Yew Tee MRT Station,307,MADAM NUR SABARIAH BTE MOHD IBRAHIM,MR NG SIOK KWANG ANDREW,MADAM TOH GUAT HWA PAULINE,na,na,na,na,CHOA CHU KANG,WEST,GOVERNMENT SCHOOL,CO-ED SCHOOL,SINGLE SESSION,PRIMARY,No,No,No,No,CHINESE,MALAY,TAMIL,1.39676600905037,103.750985967346,10 CHOA CHU KANG STREET 64 YEW TEE PRIMARY SCHOOL SINGAPORE 689100
YIO CHU KANG PRIMARY SCHOOL,1 HOUGANG STREET 51   ,538720,63855915,na,YCKPS@MOE.EDU.SG,Hougang MRT Station; Yio Chu Kang MRT Station,"88,101,109,159,161 and 325",MS POH HWEE THING,MADAM RAMACHANDRA SUGUNA,MR TAN TECK MING,na,na,na,na,HOUGANG,NORTH,GOVERNMENT SCHOOL,CO-ED SCHOOL,SINGLE SESSION,PRIMARY,No,No,No,No,CHINESE,MALAY,TAMIL,1.37793264345276,103.885643682171,1 HOUGANG STREET 51 YIO CHU KANG PRIMARY SCHOOL SINGAPORE 538720
YIO CHU KANG SECONDARY SCHOOL,3063 ANG MO KIO AVENUE 5   ,569868,65522927,na,YCKSS@MOE.EDU.SG,YIO CHU KANG MRT,"13, 45, 86, 138, 162, 269, 851, 852, 853",MADAM BETTY CHANG,MR LIM HOCK CHYE KEVIN,"MR PEK XU HAO, ALVIN",na,na,na,na,ANG MO KIO,SOUTH,GOVERNMENT SCHOOL,CO-ED SCHOOL,SINGLE SESSION,SECONDARY (S1-S5),No,No,No,No,CHINESE,MALAY,TAMIL,1.37797597740925,103.84213696352,3063 ANG MO KIO AVENUE 5 YIO CHU KANG SECONDARY SCHOOL SINGAPORE 569868
YISHUN INNOVA JUNIOR COLLEGE,3 YISHUN RING ROAD   ,768675,62574373,na,yijc@moe.edu.sg,"Yishun, Khatib","167, 169, 171, 800, 812",MR MICHAEL DE SILVA,MRS LEE HUI XIN,MR LOI GUANG YOU,MISS CHOY WEN JU JULIEANNE,MR LONG TIEN HO,na,na,YISHUN,NORTH,GOVERNMENT SCHOOL,CO-ED SCHOOL,FULL DAY,JUNIOR COLLEGE,No,No,No,No,CHINESE,MALAY,TAMIL,1.42426692572335,103.83003171149,3 YISHUN RING ROAD YISHUN INNOVA JUNIOR COLLEGE SINGAPORE 768675
YISHUN PRIMARY SCHOOL,500 YISHUN RING ROAD   ,768679,67554198,na,YPS@MOE.EDU.SG,Yishun,Translink Feeder Service 800 & 812,MR CHAN WENG YEW MARVIN,MADAM FARLINAH SUPAAH,"MISS WONG PEI LI, PAMELA",MR LEE HAN KEONG,na,na,na,YISHUN,NORTH,GOVERNMENT SCHOOL,CO-ED SCHOOL,SINGLE SESSION,PRIMARY,No,No,No,No,CHINESE,MALAY,TAMIL,1.43338602975674,103.834087115915,500 YISHUN RING ROAD YISHUN PRIMARY SCHOOL SINGAPORE 768679
YISHUN SECONDARY SCHOOL,4 YISHUN STREET 71   ,768516,67557748,na,YISHUN_SS@MOE.EDU.SG,"YISHUN MRT, KHATIB MRT","167,  169,  171,  800,  807, 811, 812,  856,  858,  859,  860,  969, 980",MRS REGINA LEE,MRS CHAN WEE MING,MR TAY HIANG SOON,MR JAYAKUMAR S/O NAVARETNAM,na,na,na,YISHUN,NORTH,GOVERNMENT SCHOOL,CO-ED SCHOOL,SINGLE SESSION,SECONDARY (S1-S5),No,No,No,No,CHINESE,MALAY,TAMIL,1.42813324276086,103.828764316679,4 YISHUN STREET 71 YISHUN SECONDARY SCHOOL SINGAPORE 768516
YISHUN TOWN SECONDARY SCHOOL,6 YISHUN STREET 21   ,768610,67559112,na,YTSS@MOE.EDU.SG,YISHUN MRT,"39, 85, 171, 800, 803, 804, 806, 811, 812, 851, 852, 853, 853C, 854, 854E, 855, 856, 857, 859, 860",MR NG TEO HENG,MADAM CH'NG YUEN PING,MR GOH YINGLUN ALLAN,na,na,na,na,YISHUN,NORTH,GOVERNMENT SCHOOL,CO-ED SCHOOL,SINGLE SESSION,SECONDARY (S1-S5),No,Yes,No,No,CHINESE,MALAY,TAMIL,1.43232156717386,103.838094226361,6 YISHUN STREET 21 YISHUN TOWN SECONDARY SCHOOL SINGAPORE 768610
YU NENG PRIMARY SCHOOL,56 BEDOK NORTH ST 3   ,469623,64498564,na,YNPS@MOE.EDU.SG,"Bedok MRT Station (East-West Line), Bedok Reservoir MRT STation (Downtown line)","14, 17, 18, 28, 66, 67, 69, 225",MR NG YEOW LING,MISS ONG PEI FEN JAMIE,MR EDWIN ONG YOKE YAM,MR SATIISH SATHASILVAM,na,na,na,BEDOK,EAST,GOVERNMENT SCHOOL,CO-ED SCHOOL,SINGLE SESSION,PRIMARY,No,No,No,No,CHINESE,MALAY,TAMIL,1.33388930344069,103.932144857355,56 BEDOK NORTH STREET 3 YU NENG PRIMARY SCHOOL SINGAPORE 469623
YUAN CHING SECONDARY SCHOOL,103 YUAN CHING ROAD   ,618654,62616275,na,YCSS@MOE.EDU.SG,LAKESIDE MRT,"49, 98, 98M, 154, 180, 187, 240, 240M, 246",MR SHAWAL BIN HUSSIN,MR TANG HSIN WEI,MISS TANG SHIEN YIN,"MR TEO HUI YAO, JULIUS",na,na,na,JURONG WEST,WEST,GOVERNMENT SCHOOL,CO-ED SCHOOL,SINGLE SESSION,SECONDARY (S1-S5),No,No,No,No,CHINESE,MALAY,TAMIL,1.34200635764467,103.72089870437,103 YUAN CHING ROAD YUAN CHING SECONDARY SCHOOL SINGAPORE 618654
YUHUA PRIMARY SCHOOL,158 JURONG EAST STREET 24   ,609558,65648278,na,YUHUA_PS@MOE.EDU.SG,"Jurong East, Bukit Batok","98,98A,187,333,502,507,NR5",MRS RUTH TAI MEI FEN,MADAM ZOEY LIM CHING SIA,na,na,na,na,na,JURONG EAST,WEST,GOVERNMENT SCHOOL,CO-ED SCHOOL,SINGLE SESSION,PRIMARY,No,No,No,No,CHINESE,MALAY,TAMIL,1.34280230475033,103.741105772644,158 JURONG EAST STREET 24 YUHUA PRIMARY SCHOOL SINGAPORE 609558
YUHUA SECONDARY SCHOOL,35 JURONG WEST STREET 41   ,649406,65696689,na,YUHUA_SS@MOE.EDU.SG,LAKESIDE MRT,"49, 98, 99, 157, 180, 185, 187, 198, 334, 335, 502","MR PANG CHIN KEAT, KEVIN",MR TAN CHIN GUAN,MISS CHIA KEL- LI,na,na,na,na,JURONG WEST,WEST,GOVERNMENT SCHOOL,CO-ED SCHOOL,SINGLE SESSION,SECONDARY (S1-S5),No,No,No,No,CHINESE,MALAY,TAMIL,1.34718626876968,103.722687235839,35 JURONG WEST STREET 41 YUHUA SECONDARY SCHOOL SINGAPORE 649406
YUMIN PRIMARY SCHOOL,3 TAMPINES STREET 21   ,529393,67845554,na,YUMIN_PS@MOE.EDU.SG,Tampines MRT Station,3,MRS NG- TEO SOCK HUA,MR ABDUL MUTALIB B MOHAMMED AMIN,MADAM TAN BETTY,na,na,na,na,TAMPINES,EAST,GOVERNMENT SCHOOL,CO-ED SCHOOL,SINGLE SESSION,PRIMARY,No,No,No,No,CHINESE,MALAY,TAMIL,1.35129177656981,103.950461927088,3 TAMPINES STREET 21 YUMIN PRIMARY SCHOOL SINGAPORE 529393
YUSOF ISHAK SECONDARY SCHOOL,8 SUMANG WALK   ,828676,65675502,na,YISS@MOE.EDU.SG,PUNGGOL MRT,"117, 382W, 43",MR CHEN ZIYANG,MISS LOH SEIN LING,MR CHEONG TIEN BENG,"LIN ZHEN JIANG, TEDDY",na,na,na,PUNGGOL,EAST,GOVERNMENT SCHOOL,CO-ED SCHOOL,SINGLE SESSION,SECONDARY (S1-S5),No,No,No,No,CHINESE,MALAY,TAMIL,1.40693702458178,103.896275149571,8 SUMANG WALK YUSOF ISHAK SECONDARY SCHOOL SINGAPORE 828676
YUYING SECONDARY SCHOOL,47 HOUGANG AVENUE 1   ,538884,62871607,na,YUYING_SS@MOE.EDU.SG,"KOVAN MRT, SERANGOON MRT, HOUGANG MRT","25, 51, 53, 53M, 55, 62, 87, 113, 119, 151, 854",MR CHONG JACK SHENG,MR CHAN IVIN,MR CHEONG KAH KAY GABRIEL,MADAM TAN HUI LING,na,na,na,HOUGANG,SOUTH,GOVERNMENT-AIDED SCH,CO-ED SCHOOL,SINGLE SESSION,SECONDARY (S1-S5),No,No,No,No,CHINESE,MALAY,TAMIL,1.35713595302467,103.890194755287,47 HOUGANG AVENUE 1 YUYING SECONDARY SCHOOL SINGAPORE 538884
ZHANGDE PRIMARY SCHOOL,51 Jalan Membina   ,169485,62763042,na,ZHANGDE_PS@MOE.EDU.SG,Tiong Bahru MRT Station,"16,33,63,123,195,605,851,14,65,147,167,196,197,961",MADAM RITA RAJ LAL,MRS LIM PEGGY,MR CHAN CHEONG CHEONG,MADAM WOO LI SAN,na,na,na,BUKIT MERAH,SOUTH,GOVERNMENT SCHOOL,CO-ED SCHOOL,SINGLE SESSION,PRIMARY,No,No,No,No,CHINESE,MALAY,TAMIL,1.28421153335379,103.825951875662,51 JALAN MEMBINA ZHANGDE PRIMARY SCHOOL SINGAPORE 169485
ZHENGHUA PRIMARY SCHOOL,9 Fajar Road   ,679002,67636459,na,ZHENGHUA_PS@MOE.EDU.SG,LRT: Fajar Station,"190, 184, 187, 700, 700A, 921",MADAM WONG HIAN HWEE CONSTANCE,MR YANG PECK CHIONG TOMMY,MISS SANTHANA MARY D/O POOBALAN,MADAM SNG YEE YEE,na,na,na,BUKIT PANJANG,WEST,GOVERNMENT SCHOOL,CO-ED SCHOOL,SINGLE SESSION,PRIMARY,No,No,No,No,CHINESE,MALAY,TAMIL,1.37954887512229,103.769313521752,9 FAJAR ROAD ZHENGHUA PRIMARY SCHOOL SINGAPORE 679002
ZHENGHUA SECONDARY SCHOOL,62 Bukit Panjang Ring Road   ,679962,67633577,na,ZHENGHUA_SS@MOE.EDU.SG,JELAPANG LRT,"920, 922, 976",MR NG HOCK SOON,MADAM TAN PEI LEE ELAINE,MR SAMUEL LIM KOK BOON,MISS HE AIFEN,na,na,na,BUKIT PANJANG,WEST,GOVERNMENT SCHOOL,CO-ED SCHOOL,SINGLE SESSION,SECONDARY (S1-S5),No,No,No,No,CHINESE,MALAY,TAMIL,1.38836583415352,103.765510638527,62 BUKIT PANJANG RING ROAD ZHENGHUA SECONDARY SCHOOL SINGAPORE 679962
ZHONGHUA PRIMARY SCHOOL,12 SERANGOON AVENUE 4   ,556095,62823882,na,ZHONGHUA_PS@MOE.EDU.SG,"Ang Mo Kio MRT, Bishan MRT, Serangoon MRT","Boundary Road: 22,24,53,105,156,315,853,501,502; Yio Chu Kang Road: 70,76,103,147,156,501,502",MRS CHAN LE CHIN,MADAM THAM SIEW LENG MRS TAN SIEW LENG,MRS TRINA POOK SIM NAR,na,na,na,na,SERANGOON,SOUTH,GOVERNMENT SCHOOL,CO-ED SCHOOL,SINGLE SESSION,PRIMARY,No,No,No,No,CHINESE,MALAY,TAMIL,1.36020329705047,103.869762438084,12 SERANGOON AVENUE 4 ZHONGHUA PRIMARY SCHOOL SINGAPORE 556095
ZHONGHUA SECONDARY SCHOOL,13 SERANGOON AVENUE 3   ,556123,62823472,na,ZHONGHUA_SS@MOE.EDU.SG,SERANGOON MRT,"22, 43, 45, 53, 58, 70, 81, 82, 100, 101, 103, 105, 107, 109, 133, 135, 147, 153, 158, 315, 317, 853",MR TAN KIM KOON,MR SHAHUL HAMEED S/O KUTHUBUDEEN,MS TEO CELINE,na,na,na,na,SERANGOON,SOUTH,GOVERNMENT SCHOOL,CO-ED SCHOOL,SINGLE SESSION,SECONDARY (S1-S5),No,Yes,No,No,CHINESE,MALAY,na,1.34840720846208,103.869430481414,13 SERANGOON AVENUE 3 ZHONGHUA SECONDARY SCHOOL SINGAPORE 556123
